{"type": "FeatureCollection", "name": "astana_road_segments_sample_overture_2026-09-23.1", "license_note": "Overture transportation; derived from OpenStreetMap (ODbL-1.0).", "features": [{"type": "Feature", "properties": {"city": "astana", "overture_id": "81b9f9bf-99a2-4873-8166-6fa00732dc94", "overture_version": 2, "subtype": "road", "class": "service", "subclass": null, "name_primary": null, "road_surface": null, "connectors": 2, "length_m_geodesic": 160.0, "sources": [{"dataset": "OpenStreetMap", "license": "ODbL-1.0", "record_id": "w1077448890@2", "update_time": "2026-02-25T17:52:50Z"}]}, "geometry": {"type": "LineString", "coordinates": [[71.2281539, 51.1007422], [71.2279514, 51.1007732], [71.2277636, 51.1007698], [71.2276617, 51.1007413], [71.2266826, 51.1004279], [71.2264815, 51.1003555], [71.2262435, 51.100118]]}}, {"type": "Feature", "properties": {"city": "astana", "overture_id": "4feb67b6-3d3c-41c0-b83e-2b386dbdf0c0", "overture_version": 2, "subtype": "road", "class": "residential", "subclass": null, "name_primary": "Мұхамет-Салық Бабажанов көшесі", "road_surface": [{"value": "paved", "between": null}], "connectors": 2, "length_m_geodesic": 120.5, "sources": [{"dataset": "OpenStreetMap", "license": "ODbL-1.0", "record_id": "w282333753@14", "update_time": "2026-06-21T11:20:05Z"}]}, "geometry": {"type": "LineString", "coordinates": [[71.2369242, 51.1223085], [71.2363066, 51.1212977]]}}, {"type": "Feature", "properties": {"city": "astana", "overture_id": "eff5a5f2-aa84-4da2-8268-54d62618a54e", "overture_version": 2, "subtype": "road", "class": "residential", "subclass": null, "name_primary": "Қамбар Ата көшесі", "road_surface": null, "connectors": 2, "length_m_geodesic": 106.8, "sources": [{"dataset": "OpenStreetMap", "license": "ODbL-1.0", "record_id": "w507032751@7", "update_time": "2026-06-21T11:20:05Z"}]}, "geometry": {"type": "LineString", "coordinates": [[71.2354869, 51.1226302], [71.2369242, 51.1223085]]}}, {"type": "Feature", "properties": {"city": "astana", "overture_id": "eac582a3-ddfb-493b-8500-50dfb78ba824", "overture_version": 2, "subtype": "road", "class": "residential", "subclass": null, "name_primary": "Мұхамет-Салық Бабажанов көшесі", "road_surface": [{"value": "paved", "between": null}], "connectors": 2, "length_m_geodesic": 96.8, "sources": [{"dataset": "OpenStreetMap", "license": "ODbL-1.0", "record_id": "w282333753@14", "update_time": "2026-06-21T11:20:05Z"}]}, "geometry": {"type": "LineString", "coordinates": [[71.2362326, 51.118144], [71.2369764, 51.1174105]]}}, {"type": "Feature", "properties": {"city": "astana", "overture_id": "dbff07d3-77de-4e18-9085-b60bb40b982c", "overture_version": 2, "subtype": "road", "class": "trunk", "subclass": "link", "name_primary": null, "road_surface": null, "connectors": 3, "length_m_geodesic": 321.9, "sources": [{"dataset": "OpenStreetMap", "license": "ODbL-1.0", "record_id": "w732104618@5", "update_time": "2026-02-25T11:25:27Z"}]}, "geometry": {"type": "LineString", "coordinates": [[71.2356737, 51.1043636], [71.2357058, 51.1046569], [71.2358451, 51.1049502], [71.2360382, 51.1051118], [71.2362957, 51.1052196], [71.2368107, 51.1052465], [71.2373149, 51.1051119], [71.2375295, 51.1049434], [71.2376261, 51.1047144], [71.2375724, 51.1044584], [71.2374953, 51.1042967], [71.2372227, 51.1039954]]}}, {"type": "Feature", "properties": {"city": "astana", "overture_id": "99bb4109-07ac-4d2a-930e-c6c7bb26e226", "overture_version": 4, "subtype": "road", "class": "primary", "subclass": null, "name_primary": "Қорғалжын тас жолы", "road_surface": null, "connectors": 2, "length_m_geodesic": 171.1, "sources": [{"dataset": "OpenStreetMap", "license": "ODbL-1.0", "record_id": "r14600787@15", "update_time": null}, {"dataset": "OpenStreetMap", "license": "ODbL-1.0", "record_id": "w239795203@36", "update_time": "2026-06-27T13:37:27Z"}]}, "geometry": {"type": "LineString", "coordinates": [[71.2372227, 51.1039954], [71.2350805, 51.1032557]]}}, {"type": "Feature", "properties": {"city": "astana", "overture_id": "cda72261-26f8-425c-894b-2dc5b17fa7fc", "overture_version": 4, "subtype": "road", "class": "trunk", "subclass": null, "name_primary": "Астана айналма жолы", "road_surface": [{"value": "paved", "between": null}], "connectors": 2, "length_m_geodesic": 191.2, "sources": [{"dataset": "OpenStreetMap", "license": "ODbL-1.0", "record_id": "r17041315@7", "update_time": null}, {"dataset": "OpenStreetMap", "license": "ODbL-1.0", "record_id": "w727438963@11", "update_time": "2025-11-09T07:39:13Z"}, {"dataset": "OpenStreetMap", "license": "ODbL-1.0", "record_id": "w727438964@10", "update_time": "2025-11-09T07:39:13Z"}, {"dataset": "OpenStreetMap", "license": "ODbL-1.0", "record_id": "w606411098@19", "update_time": "2026-08-17T01:59:08Z"}]}, "geometry": {"type": "LineString", "coordinates": [[71.2366236, 51.1027527], [71.2363584, 51.1032015], [71.235887, 51.1039761], [71.2356737, 51.1043636]]}}, {"type": "Feature", "properties": {"city": "astana", "overture_id": "3c8937a2-bb0b-4748-a022-a01b8e19aedd", "overture_version": 4, "subtype": "road", "class": "primary", "subclass": null, "name_primary": "Қорғалжын тас жолы", "road_surface": null, "connectors": 2, "length_m_geodesic": 166.8, "sources": [{"dataset": "OpenStreetMap", "license": "ODbL-1.0", "record_id": "r14600787@15", "update_time": null}, {"dataset": "OpenStreetMap", "license": "ODbL-1.0", "record_id": "w239795202@35", "update_time": "2026-06-27T13:37:27Z"}]}, "geometry": {"type": "LineString", "coordinates": [[71.235096, 51.103094], [71.2371899, 51.1038074]]}}, {"type": "Feature", "properties": {"city": "astana", "overture_id": "8e4ab8d0-cded-4864-9126-7b582af62302", "overture_version": 4, "subtype": "road", "class": "trunk", "subclass": null, "name_primary": "Астана айналма жолы", "road_surface": [{"value": "paved", "between": null}], "connectors": 2, "length_m_geodesic": 157.6, "sources": [{"dataset": "OpenStreetMap", "license": "ODbL-1.0", "record_id": "r17041315@7", "update_time": null}, {"dataset": "OpenStreetMap", "license": "ODbL-1.0", "record_id": "w732104624@13", "update_time": "2026-08-17T01:59:08Z"}, {"dataset": "OpenStreetMap", "license": "ODbL-1.0", "record_id": "w704260917@8", "update_time": "2025-11-09T07:39:13Z"}]}, "geometry": {"type": "LineString", "coordinates": [[71.2354162, 51.1042388], [71.2356438, 51.1038869], [71.2362349, 51.1029193]]}}, {"type": "Feature", "properties": {"city": "astana", "overture_id": "c739d35f-2207-4422-8080-2b3ac69b753e", "overture_version": 2, "subtype": "road", "class": "residential", "subclass": null, "name_primary": "Мұхамет-Салық Бабажанов көшесі", "road_surface": [{"value": "paved", "between": null}], "connectors": 3, "length_m_geodesic": 386.5, "sources": [{"dataset": "OpenStreetMap", "license": "ODbL-1.0", "record_id": "w282333753@14", "update_time": "2026-06-21T11:20:05Z"}]}, "geometry": {"type": "LineString", "coordinates": [[71.2363066, 51.1212977], [71.2355715, 51.1199635], [71.2354402, 51.119806], [71.2352734, 51.1195187], [71.2351727, 51.1193054], [71.2351573, 51.1192282], [71.2354165, 51.118962], [71.2362326, 51.118144]]}}, {"type": "Feature", "properties": {"city": "astana", "overture_id": "2bb98ef7-0d46-4c87-a192-4b449e2c5238", "overture_version": 2, "subtype": "road", "class": "residential", "subclass": null, "name_primary": "Доспамбет Жырау көшесі", "road_surface": null, "connectors": 2, "length_m_geodesic": 293.3, "sources": [{"dataset": "OpenStreetMap", "license": "ODbL-1.0", "record_id": "w282333803@17", "update_time": "2026-06-15T19:44:00Z"}]}, "geometry": {"type": "LineString", "coordinates": [[71.2372646, 51.1154085], [71.2350316, 51.1176393]]}}, {"type": "Feature", "properties": {"city": "astana", "overture_id": "f429b62b-6f5e-4e88-8176-7f0734572e78", "overture_version": 1, "subtype": "road", "class": "service", "subclass": null, "name_primary": null, "road_surface": [{"value": "paved", "between": null}], "connectors": 2, "length_m_geodesic": 95.5, "sources": [{"dataset": "OpenStreetMap", "license": "ODbL-1.0", "record_id": "w507032762@5", "update_time": "2024-06-13T13:39:12Z"}]}, "geometry": {"type": "LineString", "coordinates": [[71.2354402, 51.119806], [71.23675, 51.1195663]]}}, {"type": "Feature", "properties": {"city": "astana", "overture_id": "567bacac-8c91-4408-9198-a1ecfcf7e8eb", "overture_version": 2, "subtype": "road", "class": "residential", "subclass": null, "name_primary": "Доспамбет Жырау көшесі", "road_surface": null, "connectors": 2, "length_m_geodesic": 255.2, "sources": [{"dataset": "OpenStreetMap", "license": "ODbL-1.0", "record_id": "w282333803@17", "update_time": "2026-06-15T19:44:00Z"}]}, "geometry": {"type": "LineString", "coordinates": [[71.2354869, 51.1226302], [71.2367266, 51.124787]]}}, {"type": "Feature", "properties": {"city": "astana", "overture_id": "492505d7-f53a-456e-ac2c-79c78f61e990", "overture_version": 1, "subtype": "road", "class": "track", "subclass": null, "name_primary": null, "road_surface": null, "connectors": 3, "length_m_geodesic": 1533.5, "sources": [{"dataset": "OpenStreetMap", "license": "ODbL-1.0", "record_id": "w1006102239@1", "update_time": "2024-02-12T16:31:13Z"}]}, "geometry": {"type": "LineString", "coordinates": [[71.2319325, 51.1219301], [71.2336471, 51.1255792], [71.236344, 51.129004], [71.2382001, 51.1312784], [71.238361, 51.1316824], [71.2389106, 51.1329089], [71.2393159, 51.1341868], [71.2392054, 51.1347887]]}}, {"type": "Feature", "properties": {"city": "astana", "overture_id": "2ad991bc-9a33-4074-888f-35b5a7a0dc83", "overture_version": 2, "subtype": "road", "class": "tertiary", "subclass": null, "name_primary": "Есет батыр көшесі", "road_surface": [{"value": "paved", "between": null}], "connectors": 2, "length_m_geodesic": 109.2, "sources": [{"dataset": "OpenStreetMap", "license": "ODbL-1.0", "record_id": "w627195404@6", "update_time": "2026-04-22T09:55:05Z"}]}, "geometry": {"type": "LineString", "coordinates": [[71.2363066, 51.1212977], [71.2355018, 51.1214653], [71.2351263, 51.1215293], [71.2348032, 51.1215254]]}}, {"type": "Feature", "properties": {"city": "astana", "overture_id": "b2caae15-e91b-4689-912f-2a66df1c4ae7", "overture_version": 2, "subtype": "road", "class": "residential", "subclass": null, "name_primary": "Салбұрын көшесі", "road_surface": [{"value": "paved", "between": null}], "connectors": 2, "length_m_geodesic": 101.1, "sources": [{"dataset": "OpenStreetMap", "license": "ODbL-1.0", "record_id": "w499644191@11", "update_time": "2026-06-21T11:20:05Z"}]}, "geometry": {"type": "LineString", "coordinates": [[71.2362326, 51.118144], [71.2350316, 51.1176393]]}}, {"type": "Feature", "properties": {"city": "astana", "overture_id": "b2617314-a726-46f8-ac4f-25cb27b1b9f0", "overture_version": 3, "subtype": "road", "class": "trunk", "subclass": "link", "name_primary": null, "road_surface": null, "connectors": 3, "length_m_geodesic": 314.3, "sources": [{"dataset": "OpenStreetMap", "license": "ODbL-1.0", "record_id": "w732104620@4", "update_time": "2025-11-24T15:42:15Z"}]}, "geometry": {"type": "LineString", "coordinates": [[71.2362349, 51.1029193], [71.2363171, 51.1025451], [71.2362313, 51.1022824], [71.2359416, 51.1020196], [71.2354374, 51.1019657], [71.235019, 51.1020533], [71.2346864, 51.1022419], [71.2345683, 51.1024104], [71.2345683, 51.1026462], [71.2346146, 51.1026855], [71.235096, 51.103094]]}}, {"type": "Feature", "properties": {"city": "astana", "overture_id": "c43cf44a-d514-4f7f-8454-79825542adf5", "overture_version": 4, "subtype": "road", "class": "trunk", "subclass": null, "name_primary": "Астана айналма жолы", "road_surface": [{"value": "paved", "between": null}], "connectors": 2, "length_m_geodesic": 283.6, "sources": [{"dataset": "OpenStreetMap", "license": "ODbL-1.0", "record_id": "r17041315@7", "update_time": null}, {"dataset": "OpenStreetMap", "license": "ODbL-1.0", "record_id": "w606411098@19", "update_time": "2026-08-17T01:59:08Z"}]}, "geometry": {"type": "LineString", "coordinates": [[71.2356737, 51.1043636], [71.2341385, 51.1067221]]}}, {"type": "Feature", "properties": {"city": "astana", "overture_id": "f93b4a16-73bc-4247-a5b7-5c8facd31c6b", "overture_version": 2, "subtype": "road", "class": "residential", "subclass": null, "name_primary": "Доспамбет Жырау көшесі", "road_surface": null, "connectors": 3, "length_m_geodesic": 131.9, "sources": [{"dataset": "OpenStreetMap", "license": "ODbL-1.0", "record_id": "w282333803@17", "update_time": "2026-06-15T19:44:00Z"}]}, "geometry": {"type": "LineString", "coordinates": [[71.2348032, 51.1215254], [71.2352128, 51.1221604], [71.2354869, 51.1226302]]}}, {"type": "Feature", "properties": {"city": "astana", "overture_id": "a8b5e7c6-1bb2-4af0-b821-585686beb9c1", "overture_version": 1, "subtype": "road", "class": "service", "subclass": null, "name_primary": null, "road_surface": null, "connectors": 2, "length_m_geodesic": 163.8, "sources": [{"dataset": "OpenStreetMap", "license": "ODbL-1.0", "record_id": "w619283969@4", "update_time": "2024-12-10T14:16:53Z"}]}, "geometry": {"type": "LineString", "coordinates": [[71.2337037, 51.1216562], [71.2341473, 51.1223726], [71.2352128, 51.1221604]]}}, {"type": "Feature", "properties": {"city": "astana", "overture_id": "a38e2581-a93a-43d0-9430-9bbb8905dafb", "overture_version": 4, "subtype": "road", "class": "trunk", "subclass": null, "name_primary": "Астана айналма жолы", "road_surface": [{"value": "paved", "between": null}], "connectors": 2, "length_m_geodesic": 286.2, "sources": [{"dataset": "OpenStreetMap", "license": "ODbL-1.0", "record_id": "r17041315@7", "update_time": null}, {"dataset": "OpenStreetMap", "license": "ODbL-1.0", "record_id": "w732104624@13", "update_time": "2026-08-17T01:59:08Z"}]}, "geometry": {"type": "LineString", "coordinates": [[71.2338383, 51.106612], [71.2354162, 51.1042388]]}}, {"type": "Feature", "properties": {"city": "astana", "overture_id": "f3617f8c-fb73-4525-95b6-1cd05887a4f6", "overture_version": 3, "subtype": "road", "class": "trunk", "subclass": "link", "name_primary": null, "road_surface": null, "connectors": 3, "length_m_geodesic": 442.7, "sources": [{"dataset": "OpenStreetMap", "license": "ODbL-1.0", "record_id": "w704260922@4", "update_time": "2023-04-06T08:57:33Z"}]}, "geometry": {"type": "LineString", "coordinates": [[71.2317065, 51.1018858], [71.2328195, 51.1020398], [71.2337851, 51.1019859], [71.2350082, 51.1017434], [71.2364673, 51.1013122], [71.2375883, 51.1008766]]}}, {"type": "Feature", "properties": {"city": "astana", "overture_id": "68d19951-e7c8-4bec-a27e-f19b99c96821", "overture_version": 2, "subtype": "road", "class": "trunk", "subclass": "link", "name_primary": null, "road_surface": null, "connectors": 3, "length_m_geodesic": 334.1, "sources": [{"dataset": "OpenStreetMap", "license": "ODbL-1.0", "record_id": "w732104619@4", "update_time": "2026-02-25T11:25:27Z"}]}, "geometry": {"type": "LineString", "coordinates": [[71.2350805, 51.1032557], [71.2343833, 51.1031901], [71.2337422, 51.1033805], [71.2335598, 51.1035354], [71.2334847, 51.1038116], [71.2336028, 51.1040744], [71.2339675, 51.1043371], [71.2344182, 51.1044786], [71.2348258, 51.1044651], [71.235137, 51.1043977], [71.2354162, 51.1042388]]}}, {"type": "Feature", "properties": {"city": "astana", "overture_id": "d6e7248c-dae7-4333-b7ae-9f94c9e43d98", "overture_version": 4, "subtype": "road", "class": "primary", "subclass": null, "name_primary": "Қорғалжын тас жолы", "road_surface": null, "connectors": 2, "length_m_geodesic": 272.8, "sources": [{"dataset": "OpenStreetMap", "license": "ODbL-1.0", "record_id": "r14600787@15", "update_time": null}, {"dataset": "OpenStreetMap", "license": "ODbL-1.0", "record_id": "w239795202@35", "update_time": "2026-06-27T13:37:27Z"}]}, "geometry": {"type": "LineString", "coordinates": [[71.2317065, 51.1018858], [71.235096, 51.103094]]}}, {"type": "Feature", "properties": {"city": "astana", "overture_id": "72ac3b9a-c1b7-4b05-8c2b-87044c503a7e", "overture_version": 5, "subtype": "road", "class": "primary", "subclass": null, "name_primary": "Қорғалжын тас жолы", "road_surface": null, "connectors": 2, "length_m_geodesic": 282.5, "sources": [{"dataset": "OpenStreetMap", "license": "ODbL-1.0", "record_id": "r14600787@15", "update_time": null}, {"dataset": "OpenStreetMap", "license": "ODbL-1.0", "record_id": "w239795203@36", "update_time": "2026-06-27T13:37:27Z"}]}, "geometry": {"type": "LineString", "coordinates": [[71.2350805, 51.1032557], [71.2315439, 51.102034]]}}, {"type": "Feature", "properties": {"city": "astana", "overture_id": "bc083b77-64bd-4030-a3b7-bee7db46cf44", "overture_version": 1, "subtype": "road", "class": "service", "subclass": null, "name_primary": null, "road_surface": null, "connectors": 3, "length_m_geodesic": 182.7, "sources": [{"dataset": "OpenStreetMap", "license": "ODbL-1.0", "record_id": "w1077448892@2", "update_time": "2026-02-25T17:52:50Z"}]}, "geometry": {"type": "LineString", "coordinates": [[71.2282414, 51.1006714], [71.2286997, 51.1006722], [71.2294722, 51.1009097], [71.2300193, 51.1011168], [71.2302071, 51.1011859], [71.2304039, 51.1014293]]}}, {"type": "Feature", "properties": {"city": "astana", "overture_id": "09fdd08a-3820-4a9e-bdb3-f6311048edd9", "overture_version": 2, "subtype": "road", "class": "service", "subclass": null, "name_primary": null, "road_surface": null, "connectors": 2, "length_m_geodesic": 40.4, "sources": [{"dataset": "OpenStreetMap", "license": "ODbL-1.0", "record_id": "w1077448891@2", "update_time": "2026-02-25T17:52:50Z"}]}, "geometry": {"type": "LineString", "coordinates": [[71.2294722, 51.1009097], [71.2297876, 51.1012133]]}}, {"type": "Feature", "properties": {"city": "astana", "overture_id": "2f14020f-79c4-4d43-829d-ad1620deaf7e", "overture_version": 1, "subtype": "road", "class": "service", "subclass": null, "name_primary": null, "road_surface": null, "connectors": 2, "length_m_geodesic": 156.4, "sources": [{"dataset": "OpenStreetMap", "license": "ODbL-1.0", "record_id": "w954865698@3", "update_time": "2024-12-10T14:16:53Z"}, {"dataset": "OpenStreetMap", "license": "ODbL-1.0", "record_id": "w636720537@4", "update_time": "2022-11-24T00:30:47Z"}]}, "geometry": {"type": "LineString", "coordinates": [[71.2313848, 51.1217124], [71.2311335, 51.1216478], [71.2309229, 51.1215867], [71.2303788, 51.1213979], [71.2301719, 51.1213047], [71.230073, 51.1212498], [71.2300301, 51.1211522], [71.2300408, 51.1207986]]}}, {"type": "Feature", "properties": {"city": "astana", "overture_id": "9db48fd1-b26b-4cbc-add8-b4bebab995ee", "overture_version": 1, "subtype": "road", "class": "service", "subclass": null, "name_primary": null, "road_surface": null, "connectors": 2, "length_m_geodesic": 248.0, "sources": [{"dataset": "OpenStreetMap", "license": "ODbL-1.0", "record_id": "w1116581663@2", "update_time": "2024-12-10T14:16:53Z"}]}, "geometry": {"type": "LineString", "coordinates": [[71.2329847, 51.1197104], [71.2329268, 51.119913], [71.2325406, 51.1206505], [71.2321866, 51.1207885], [71.2307029, 51.1211019]]}}, {"type": "Feature", "properties": {"city": "astana", "overture_id": "0a20740a-197c-4bed-9561-7fa1589a33b1", "overture_version": 1, "subtype": "road", "class": "unclassified", "subclass": null, "name_primary": "172", "road_surface": null, "connectors": 4, "length_m_geodesic": 195.8, "sources": [{"dataset": "OpenStreetMap", "license": "ODbL-1.0", "record_id": "w730962228@5", "update_time": "2024-12-10T14:16:53Z"}]}, "geometry": {"type": "LineString", "coordinates": [[71.2319325, 51.1219301], [71.2317091, 51.1217785], [71.2313848, 51.1217124], [71.2311405, 51.1215394], [71.2309366, 51.1213879], [71.2307029, 51.1211019], [71.2306941, 51.1210019], [71.2306532, 51.1208214], [71.2306291, 51.1207199], [71.2305611, 51.1205225]]}}, {"type": "Feature", "properties": {"city": "astana", "overture_id": "2f2909c3-6212-42d0-94bc-cf2c8f983e54", "overture_version": 2, "subtype": "road", "class": "footway", "subclass": null, "name_primary": null, "road_surface": null, "connectors": 4, "length_m_geodesic": 88.5, "sources": [{"dataset": "OpenStreetMap", "license": "ODbL-1.0", "record_id": "w1450651572@1", "update_time": "2025-11-14T11:18:51Z"}]}, "geometry": {"type": "LineString", "coordinates": [[71.2406562, 51.1238982], [71.2405913, 51.123983], [71.2405564, 51.1240587], [71.2405512, 51.12413], [71.240547, 51.1242229], [71.2406033, 51.1243256], [71.2406838, 51.1243895], [71.2408206, 51.1244619], [71.2410275, 51.1245464]]}}, {"type": "Feature", "properties": {"city": "astana", "overture_id": "7a77f0ac-7b8b-4f9a-879d-d2247ce07269", "overture_version": 2, "subtype": "road", "class": "tertiary", "subclass": null, "name_primary": "Есет батыр көшесі", "road_surface": [{"value": "paved", "between": null}], "connectors": 2, "length_m_geodesic": 95.3, "sources": [{"dataset": "OpenStreetMap", "license": "ODbL-1.0", "record_id": "w627195404@6", "update_time": "2026-04-22T09:55:05Z"}]}, "geometry": {"type": "LineString", "coordinates": [[71.2415066, 51.1201735], [71.2411411, 51.1202664], [71.2407462, 51.1203581], [71.2402258, 51.1204631]]}}, {"type": "Feature", "properties": {"city": "astana", "overture_id": "c08c9bc7-7aaa-48c7-8b30-1a383fca9491", "overture_version": 2, "subtype": "road", "class": "footway", "subclass": null, "name_primary": null, "road_surface": null, "connectors": 3, "length_m_geodesic": 44.1, "sources": [{"dataset": "OpenStreetMap", "license": "ODbL-1.0", "record_id": "w1450651574@1", "update_time": "2025-11-14T11:18:51Z"}]}, "geometry": {"type": "LineString", "coordinates": [[71.2403056, 51.1245267], [71.240555, 51.1244518], [71.2406838, 51.1243895], [71.2408286, 51.1243104]]}}, {"type": "Feature", "properties": {"city": "astana", "overture_id": "91a6b7a1-49d2-443f-b5c6-70c8ff537e0c", "overture_version": 2, "subtype": "road", "class": "service", "subclass": null, "name_primary": null, "road_surface": null, "connectors": 2, "length_m_geodesic": 10.1, "sources": [{"dataset": "OpenStreetMap", "license": "ODbL-1.0", "record_id": "w1292105986@3", "update_time": "2026-04-22T10:07:38Z"}]}, "geometry": {"type": "LineString", "coordinates": [[71.24222, 51.1155906], [71.2423424, 51.1156391]]}}, {"type": "Feature", "properties": {"city": "astana", "overture_id": "1e6457e1-7ec1-4032-a7ba-fa324afde0c9", "overture_version": 2, "subtype": "road", "class": "tertiary", "subclass": null, "name_primary": "Есет батыр көшесі", "road_surface": [{"value": "paved", "between": null}], "connectors": 2, "length_m_geodesic": 75.2, "sources": [{"dataset": "OpenStreetMap", "license": "ODbL-1.0", "record_id": "w627195404@6", "update_time": "2026-04-22T09:55:05Z"}]}, "geometry": {"type": "LineString", "coordinates": [[71.2425034, 51.1199227], [71.242011, 51.1200536], [71.2415066, 51.1201735]]}}, {"type": "Feature", "properties": {"city": "astana", "overture_id": "425ab7fa-424f-492a-81ed-40b142d7b1b9", "overture_version": 3, "subtype": "road", "class": "tertiary", "subclass": null, "name_primary": "Есет батыр көшесі", "road_surface": [{"value": "paved", "between": null}], "connectors": 3, "length_m_geodesic": 33.5, "sources": [{"dataset": "OpenStreetMap", "license": "ODbL-1.0", "record_id": "w627195404@6", "update_time": "2026-04-22T09:55:05Z"}]}, "geometry": {"type": "LineString", "coordinates": [[71.2429487, 51.1198132], [71.2426143, 51.1198987], [71.2425034, 51.1199227]]}}, {"type": "Feature", "properties": {"city": "astana", "overture_id": "f6b56497-5015-46f0-aecd-90fd6e6d4e88", "overture_version": 4, "subtype": "road", "class": "tertiary", "subclass": null, "name_primary": "Исатай батыр көшесі", "road_surface": null, "connectors": 3, "length_m_geodesic": 116.8, "sources": [{"dataset": "OpenStreetMap", "license": "ODbL-1.0", "record_id": "w623702349@18", "update_time": "2026-04-22T09:55:05Z"}]}, "geometry": {"type": "LineString", "coordinates": [[71.2429487, 51.1198132], [71.243193, 51.1202176], [71.2435513, 51.1207925]]}}, {"type": "Feature", "properties": {"city": "astana", "overture_id": "09da97a7-210e-4914-9e6d-2225328cba88", "overture_version": 4, "subtype": "road", "class": "tertiary", "subclass": null, "name_primary": "Исатай батыр көшесі", "road_surface": null, "connectors": 2, "length_m_geodesic": 256.8, "sources": [{"dataset": "OpenStreetMap", "license": "ODbL-1.0", "record_id": "w623702349@18", "update_time": "2026-04-22T09:55:05Z"}]}, "geometry": {"type": "LineString", "coordinates": [[71.2435513, 51.1207925], [71.2447899, 51.1229654]]}}, {"type": "Feature", "properties": {"city": "astana", "overture_id": "256b0425-aada-43c1-9759-51f57c7c3052", "overture_version": 3, "subtype": "road", "class": "tertiary", "subclass": null, "name_primary": "Исатай Батыр көшесі", "road_surface": [{"value": "paved", "between": null}], "connectors": 2, "length_m_geodesic": 189.4, "sources": [{"dataset": "OpenStreetMap", "license": "ODbL-1.0", "record_id": "w499644367@17", "update_time": "2026-07-24T11:00:29Z"}]}, "geometry": {"type": "LineString", "coordinates": [[71.2444991, 51.1184207], [71.2440998, 51.1188267], [71.243533, 51.1193561], [71.2429487, 51.1198132]]}}, {"type": "Feature", "properties": {"city": "astana", "overture_id": "80b9a5e8-ce42-48d5-bb12-0023b021d49e", "overture_version": 2, "subtype": "road", "class": "footway", "subclass": null, "name_primary": null, "road_surface": null, "connectors": 3, "length_m_geodesic": 44.3, "sources": [{"dataset": "OpenStreetMap", "license": "ODbL-1.0", "record_id": "w1450651573@1", "update_time": "2025-11-14T11:18:51Z"}]}, "geometry": {"type": "LineString", "coordinates": [[71.2401018, 51.1241867], [71.2402815, 51.1241437], [71.2404102, 51.1241353], [71.2405512, 51.12413], [71.2407213, 51.1241235]]}}, {"type": "Feature", "properties": {"city": "astana", "overture_id": "89977cb6-72fd-43f9-a42c-842008eebcc0", "overture_version": 2, "subtype": "road", "class": "tertiary", "subclass": null, "name_primary": "Есет батыр көшесі", "road_surface": [{"value": "paved", "between": null}], "connectors": 2, "length_m_geodesic": 96.9, "sources": [{"dataset": "OpenStreetMap", "license": "ODbL-1.0", "record_id": "w627195404@6", "update_time": "2026-04-22T09:55:05Z"}]}, "geometry": {"type": "LineString", "coordinates": [[71.2402258, 51.1204631], [71.2389171, 51.1207466]]}}, {"type": "Feature", "properties": {"city": "astana", "overture_id": "1b4122b7-d413-423b-9b6c-f3b01f4276d3", "overture_version": 2, "subtype": "road", "class": "footway", "subclass": null, "name_primary": null, "road_surface": null, "connectors": 2, "length_m_geodesic": 33.6, "sources": [{"dataset": "OpenStreetMap", "license": "ODbL-1.0", "record_id": "w1450651579@1", "update_time": "2025-11-14T11:18:51Z"}]}, "geometry": {"type": "LineString", "coordinates": [[71.2398724, 51.1245814], [71.2398845, 51.124504], [71.2398496, 51.1244468], [71.239796, 51.1243643], [71.2397195, 51.1243087]]}}, {"type": "Feature", "properties": {"city": "astana", "overture_id": "9ce443df-6040-400d-ae95-2dbaeabc39fe", "overture_version": 2, "subtype": "road", "class": "footway", "subclass": null, "name_primary": null, "road_surface": null, "connectors": 3, "length_m_geodesic": 32.5, "sources": [{"dataset": "OpenStreetMap", "license": "ODbL-1.0", "record_id": "w1450651584@1", "update_time": "2025-11-14T11:18:51Z"}]}, "geometry": {"type": "LineString", "coordinates": [[71.2396069, 51.1245624], [71.2396542, 51.1246271], [71.2397417, 51.124751], [71.2397952, 51.1248291]]}}, {"type": "Feature", "properties": {"city": "astana", "overture_id": "c921a209-593e-49ff-8dfc-3847afa52f1c", "overture_version": 2, "subtype": "road", "class": "footway", "subclass": null, "name_primary": null, "road_surface": null, "connectors": 3, "length_m_geodesic": 32.2, "sources": [{"dataset": "OpenStreetMap", "license": "ODbL-1.0", "record_id": "w1450651581@1", "update_time": "2025-11-14T11:18:51Z"}]}, "geometry": {"type": "LineString", "coordinates": [[71.2397866, 51.1245974], [71.239705, 51.1244742], [71.2396194, 51.1243278]]}}, {"type": "Feature", "properties": {"city": "astana", "overture_id": "b11e2c1b-5860-4efe-96e0-e68c550efcae", "overture_version": 2, "subtype": "road", "class": "footway", "subclass": null, "name_primary": null, "road_surface": null, "connectors": 9, "length_m_geodesic": 131.9, "sources": [{"dataset": "OpenStreetMap", "license": "ODbL-1.0", "record_id": "w1450651583@1", "update_time": "2025-11-14T11:18:51Z"}]}, "geometry": {"type": "LineString", "coordinates": [[71.2391805, 51.1249728], [71.2390745, 51.1248095], [71.2391362, 51.124791], [71.2392046, 51.1247809], [71.2393065, 51.1247405], [71.2394366, 51.1246782], [71.2395534, 51.1246508], [71.2396542, 51.1246271], [71.2397866, 51.1245974], [71.2398724, 51.1245814], [71.2401339, 51.1245579], [71.2403056, 51.1245267], [71.2404012, 51.12469]]}}, {"type": "Feature", "properties": {"city": "astana", "overture_id": "4eaee325-bb16-46fb-a9ba-618cc3284635", "overture_version": 2, "subtype": "road", "class": "footway", "subclass": null, "name_primary": null, "road_surface": null, "connectors": 2, "length_m_geodesic": 5.9, "sources": [{"dataset": "OpenStreetMap", "license": "ODbL-1.0", "record_id": "w1450651585@1", "update_time": "2025-11-14T11:18:51Z"}]}, "geometry": {"type": "LineString", "coordinates": [[71.2396537, 51.1244326], [71.239705, 51.1244742]]}}, {"type": "Feature", "properties": {"city": "astana", "overture_id": "c7ace0bd-4e15-4090-87be-9e6bd3ddcf61", "overture_version": 4, "subtype": "road", "class": "primary", "subclass": null, "name_primary": "Қорғалжын тас жолы", "road_surface": null, "connectors": 2, "length_m_geodesic": 347.2, "sources": [{"dataset": "OpenStreetMap", "license": "ODbL-1.0", "record_id": "r14600787@15", "update_time": null}, {"dataset": "OpenStreetMap", "license": "ODbL-1.0", "record_id": "w239795202@35", "update_time": "2026-06-27T13:37:27Z"}]}, "geometry": {"type": "LineString", "coordinates": [[71.2371899, 51.1038074], [71.2402978, 51.1048965], [71.2415015, 51.1053464]]}}, {"type": "Feature", "properties": {"city": "astana", "overture_id": "b6821cfa-087c-46ff-843b-c00cba2c09ac", "overture_version": 4, "subtype": "road", "class": "primary", "subclass": null, "name_primary": "Қорғалжын тас жолы", "road_surface": null, "connectors": 2, "length_m_geodesic": 328.3, "sources": [{"dataset": "OpenStreetMap", "license": "ODbL-1.0", "record_id": "r14600787@15", "update_time": null}, {"dataset": "OpenStreetMap", "license": "ODbL-1.0", "record_id": "w239795203@36", "update_time": "2026-06-27T13:37:27Z"}]}, "geometry": {"type": "LineString", "coordinates": [[71.2412887, 51.1054627], [71.2378728, 51.1042226], [71.2372227, 51.1039954]]}}, {"type": "Feature", "properties": {"city": "astana", "overture_id": "d6a28767-dcd7-4173-9e4a-b50ccdf8db93", "overture_version": 1, "subtype": "road", "class": "unknown", "subclass": null, "name_primary": null, "road_surface": null, "connectors": 4, "length_m_geodesic": 79.7, "sources": [{"dataset": "TomTom", "license": "ODbL-1.0", "record_id": null, "update_time": null}]}, "geometry": {"type": "LineString", "coordinates": [[71.2381379, 51.124453], [71.2382537, 51.1246537], [71.2384059, 51.1249173], [71.2385264, 51.125126]]}}, {"type": "Feature", "properties": {"city": "astana", "overture_id": "e6ced11c-2a85-4c7e-b62a-e680592fe05c", "overture_version": 1, "subtype": "road", "class": "unknown", "subclass": null, "name_primary": null, "road_surface": null, "connectors": 2, "length_m_geodesic": 70.8, "sources": [{"dataset": "TomTom", "license": "ODbL-1.0", "record_id": null, "update_time": null}]}, "geometry": {"type": "LineString", "coordinates": [[71.2474266, 51.1216783], [71.247571, 51.1217825], [71.2476783, 51.1218565], [71.2476859, 51.1219072], [71.2476581, 51.1219836], [71.2475615, 51.1220779], [71.2474236, 51.1222078]]}}, {"type": "Feature", "properties": {"city": "astana", "overture_id": "d0732964-dc6e-4920-965c-da930c8af15d", "overture_version": 5, "subtype": "road", "class": "primary", "subclass": null, "name_primary": "Қорғалжын тас жолы", "road_surface": null, "connectors": 8, "length_m_geodesic": 967.1, "sources": [{"dataset": "OpenStreetMap", "license": "ODbL-1.0", "record_id": "r14600787@15", "update_time": null}, {"dataset": "OpenStreetMap", "license": "ODbL-1.0", "record_id": "w239795202@35", "update_time": "2026-06-27T13:37:27Z"}]}, "geometry": {"type": "LineString", "coordinates": [[71.2415015, 51.1053464], [71.2420938, 51.1055678], [71.2469111, 51.1073682], [71.2473694, 51.1075395], [71.2477842, 51.1076945], [71.2486248, 51.1080087], [71.2524278, 51.10943], [71.2530105, 51.1096434], [71.2532063, 51.1097151], [71.2533783, 51.1097803]]}}, {"type": "Feature", "properties": {"city": "astana", "overture_id": "14eba7f5-0fc3-4913-b2e0-c335bc32ef95", "overture_version": 5, "subtype": "road", "class": "primary", "subclass": null, "name_primary": "Қорғалжын тас жолы", "road_surface": null, "connectors": 8, "length_m_geodesic": 973.0, "sources": [{"dataset": "OpenStreetMap", "license": "ODbL-1.0", "record_id": "r14600787@15", "update_time": null}, {"dataset": "OpenStreetMap", "license": "ODbL-1.0", "record_id": "w239795203@36", "update_time": "2026-06-27T13:37:27Z"}]}, "geometry": {"type": "LineString", "coordinates": [[71.2532798, 51.1098781], [71.2531057, 51.1098114], [71.2523645, 51.1095357], [71.2515905, 51.1092478], [71.248063, 51.1079201], [71.2472773, 51.1076331], [71.2468755, 51.1074791], [71.2460231, 51.1071523], [71.2456085, 51.1069962], [71.2431492, 51.1061232], [71.2412887, 51.1054627]]}}, {"type": "Feature", "properties": {"city": "astana", "overture_id": "099e8d43-82ca-45c1-95a7-7c8f03ea27ed", "overture_version": 1, "subtype": "road", "class": "cycleway", "subclass": null, "name_primary": "Green Belt Cycle Path", "road_surface": null, "connectors": 2, "length_m_geodesic": 10.0, "sources": [{"dataset": "OpenStreetMap", "license": "ODbL-1.0", "record_id": "w942377247@8", "update_time": "2024-11-29T09:33:13Z"}]}, "geometry": {"type": "LineString", "coordinates": [[71.2646691, 51.1072614], [71.2645367, 51.1072279]]}}, {"type": "Feature", "properties": {"city": "astana", "overture_id": "54a94e04-d08d-4063-b281-697222b96c37", "overture_version": 1, "subtype": "road", "class": "track", "subclass": null, "name_primary": null, "road_surface": null, "connectors": 2, "length_m_geodesic": 1172.5, "sources": [{"dataset": "OpenStreetMap", "license": "ODbL-1.0", "record_id": "w250094278@2", "update_time": "2013-12-05T10:14:20Z"}]}, "geometry": {"type": "LineString", "coordinates": [[71.2594527, 51.1942731], [71.261105, 51.1942731], [71.2629074, 51.1943807], [71.2639159, 51.1945555], [71.2648172, 51.1947169], [71.2658042, 51.1947975], [71.266684, 51.1949051], [71.2677998, 51.1948782], [71.268701, 51.1948782], [71.2698597, 51.1946093], [71.2702674, 51.1943672], [71.2710828, 51.1942866], [71.2718982, 51.1942731], [71.2727994, 51.1941521], [71.2738294, 51.1938293], [71.2744517, 51.1935066], [71.2753743, 51.1931301]]}}, {"type": "Feature", "properties": {"city": "astana", "overture_id": "45bf2b2d-839c-4b7d-bd0d-3fe5efc54fb7", "overture_version": 1, "subtype": "road", "class": "unknown", "subclass": null, "name_primary": null, "road_surface": null, "connectors": 2, "length_m_geodesic": 80.3, "sources": [{"dataset": "TomTom", "license": "ODbL-1.0", "record_id": null, "update_time": null}]}, "geometry": {"type": "LineString", "coordinates": [[71.2812519, 51.2084196], [71.281295, 51.2084526], [71.2813539, 51.2085574], [71.2813968, 51.2086213], [71.2814826, 51.2087019], [71.2816811, 51.20888], [71.2818808, 51.2090154]]}}, {"type": "Feature", "properties": {"city": "astana", "overture_id": "04e5fce9-bcfa-4f3b-895c-096637a1f311", "overture_version": 1, "subtype": "road", "class": "track", "subclass": null, "name_primary": null, "road_surface": [{"value": "unpaved", "between": null}], "connectors": 4, "length_m_geodesic": 192.8, "sources": [{"dataset": "OpenStreetMap", "license": "ODbL-1.0", "record_id": "w1097640744@1", "update_time": "2022-09-25T07:44:10Z"}]}, "geometry": {"type": "LineString", "coordinates": [[71.281542, 51.1906697], [71.2813018, 51.1907023], [71.2805286, 51.190971], [71.280151, 51.1911421], [71.2800145, 51.191259], [71.2799698, 51.1912973], [71.2792961, 51.1916299]]}}, {"type": "Feature", "properties": {"city": "astana", "overture_id": "d70e82f6-bc3a-4c61-be38-dfba38ad1f57", "overture_version": 1, "subtype": "road", "class": "track", "subclass": null, "name_primary": null, "road_surface": [{"value": "unpaved", "between": null}], "connectors": 2, "length_m_geodesic": 190.1, "sources": [{"dataset": "OpenStreetMap", "license": "ODbL-1.0", "record_id": "w1097254910@1", "update_time": "2022-09-23T11:31:31Z"}]}, "geometry": {"type": "LineString", "coordinates": [[71.2822315, 51.1820029], [71.2819633, 51.1818791], [71.2816479, 51.1818132], [71.2809999, 51.1817473], [71.2806158, 51.1816653], [71.2801287, 51.1815792], [71.2798519, 51.1814877], [71.2797188, 51.1814191]]}}, {"type": "Feature", "properties": {"city": "astana", "overture_id": "244fd08e-2f29-4167-8abf-50b43c24580d", "overture_version": 1, "subtype": "road", "class": "track", "subclass": null, "name_primary": null, "road_surface": [{"value": "unpaved", "between": null}], "connectors": 2, "length_m_geodesic": 130.9, "sources": [{"dataset": "OpenStreetMap", "license": "ODbL-1.0", "record_id": "w1097640743@1", "update_time": "2022-09-25T07:44:10Z"}]}, "geometry": {"type": "LineString", "coordinates": [[71.2805622, 51.1904882], [71.2805389, 51.1906], [71.2802684, 51.190883], [71.2799035, 51.1911277], [71.2794569, 51.1911261], [71.2792706, 51.1911341]]}}, {"type": "Feature", "properties": {"city": "astana", "overture_id": "ce19cfaa-cf2d-4b0b-9e67-3eb3dcee5072", "overture_version": 1, "subtype": "road", "class": "track", "subclass": null, "name_primary": null, "road_surface": [{"value": "unpaved", "between": null}], "connectors": 2, "length_m_geodesic": 69.5, "sources": [{"dataset": "OpenStreetMap", "license": "ODbL-1.0", "record_id": "w1097640746@1", "update_time": "2022-09-25T07:44:10Z"}]}, "geometry": {"type": "LineString", "coordinates": [[71.280151, 51.1911421], [71.2799264, 51.1912029], [71.2795819, 51.1913452], [71.2792783, 51.191438]]}}, {"type": "Feature", "properties": {"city": "astana", "overture_id": "c528d18e-92ec-42c0-9ed7-884201c399ac", "overture_version": 1, "subtype": "road", "class": "track", "subclass": null, "name_primary": null, "road_surface": [{"value": "unpaved", "between": null}], "connectors": 2, "length_m_geodesic": 104.0, "sources": [{"dataset": "OpenStreetMap", "license": "ODbL-1.0", "record_id": "w1097640745@1", "update_time": "2022-09-25T07:44:10Z"}]}, "geometry": {"type": "LineString", "coordinates": [[71.2800145, 51.191259], [71.2800183, 51.1913772], [71.2800106, 51.1915068], [71.279735, 51.1916939], [71.2794008, 51.1918826], [71.2793383, 51.1920268]]}}, {"type": "Feature", "properties": {"city": "astana", "overture_id": "bad1120d-c76f-4c9c-b86a-b43985251d7d", "overture_version": 1, "subtype": "road", "class": "track", "subclass": null, "name_primary": null, "road_surface": null, "connectors": 2, "length_m_geodesic": 15.3, "sources": [{"dataset": "OpenStreetMap", "license": "ODbL-1.0", "record_id": "w1136663942@1", "update_time": "2023-01-31T09:46:46Z"}]}, "geometry": {"type": "LineString", "coordinates": [[71.275341, 51.1152762], [71.2752486, 51.1154012]]}}, {"type": "Feature", "properties": {"city": "astana", "overture_id": "8f7b8b69-e343-41cb-88b4-ef36556941a7", "overture_version": 1, "subtype": "road", "class": "unknown", "subclass": null, "name_primary": null, "road_surface": null, "connectors": 2, "length_m_geodesic": 47.0, "sources": [{"dataset": "TomTom", "license": "ODbL-1.0", "record_id": null, "update_time": null}]}, "geometry": {"type": "LineString", "coordinates": [[71.276266, 51.1225949], [71.2768637, 51.1227867]]}}, {"type": "Feature", "properties": {"city": "astana", "overture_id": "8663f108-4cfe-4e54-a309-88fb4715341f", "overture_version": 1, "subtype": "road", "class": "path", "subclass": null, "name_primary": null, "road_surface": null, "connectors": 2, "length_m_geodesic": 278.9, "sources": [{"dataset": "OpenStreetMap", "license": "ODbL-1.0", "record_id": "w1227701197@1", "update_time": "2023-11-30T01:31:17Z"}, {"dataset": "OpenStreetMap", "license": "ODbL-1.0", "record_id": "w1176994369@2", "update_time": "2023-11-30T01:31:17Z"}, {"dataset": "OpenStreetMap", "license": "ODbL-1.0", "record_id": "w1227701198@1", "update_time": "2023-11-30T01:31:17Z"}]}, "geometry": {"type": "LineString", "coordinates": [[71.2863561, 51.1788629], [71.2864904, 51.1790022], [71.2881176, 51.1806897], [71.2881874, 51.1807622], [71.2882423, 51.1808256], [71.2883161, 51.180864], [71.2883921, 51.1808841], [71.2885518, 51.1808687]]}}, {"type": "Feature", "properties": {"city": "astana", "overture_id": "a82b0703-6f06-4bd6-a045-b82770a8a30e", "overture_version": 1, "subtype": "road", "class": "steps", "subclass": null, "name_primary": null, "road_surface": null, "connectors": 2, "length_m_geodesic": 13.1, "sources": [{"dataset": "OpenStreetMap", "license": "ODbL-1.0", "record_id": "w1176994366@1", "update_time": "2023-05-28T17:51:59Z"}]}, "geometry": {"type": "LineString", "coordinates": [[71.2863561, 51.1788629], [71.2864891, 51.1787803]]}}, {"type": "Feature", "properties": {"city": "astana", "overture_id": "a9c4eff3-94de-4a58-b859-57382beec8e0", "overture_version": 3, "subtype": "road", "class": "unclassified", "subclass": null, "name_primary": "Е-631 көшесі", "road_surface": null, "connectors": 2, "length_m_geodesic": 97.8, "sources": [{"dataset": "OpenStreetMap", "license": "ODbL-1.0", "record_id": "w1146169141@4", "update_time": "2026-06-21T11:20:05Z"}]}, "geometry": {"type": "LineString", "coordinates": [[71.2843421, 51.1376645], [71.2855736, 51.1380803]]}}, {"type": "Feature", "properties": {"city": "astana", "overture_id": "71736eee-bd3f-4692-b920-5cb8dc2ee265", "overture_version": 2, "subtype": "road", "class": "unclassified", "subclass": null, "name_primary": null, "road_surface": null, "connectors": 2, "length_m_geodesic": 87.8, "sources": [{"dataset": "OpenStreetMap", "license": "ODbL-1.0", "record_id": "w1343455888@2", "update_time": "2025-07-22T06:43:31Z"}]}, "geometry": {"type": "LineString", "coordinates": [[71.3080563, 51.278294], [71.3077193, 51.2790541]]}}, {"type": "Feature", "properties": {"city": "astana", "overture_id": "2e550655-d0ec-43a9-b548-62ff4ecd7058", "overture_version": 1, "subtype": "road", "class": "unclassified", "subclass": null, "name_primary": null, "road_surface": null, "connectors": 2, "length_m_geodesic": 90.4, "sources": [{"dataset": "OpenStreetMap", "license": "ODbL-1.0", "record_id": "w1343455889@2", "update_time": "2024-12-24T06:13:40Z"}]}, "geometry": {"type": "LineString", "coordinates": [[71.3080517, 51.2844058], [71.3085644, 51.2836598]]}}, {"type": "Feature", "properties": {"city": "astana", "overture_id": "4fe0d0b1-0bcb-4258-9f18-cc7b65305913", "overture_version": 2, "subtype": "road", "class": "unclassified", "subclass": null, "name_primary": null, "road_surface": null, "connectors": 2, "length_m_geodesic": 90.8, "sources": [{"dataset": "OpenStreetMap", "license": "ODbL-1.0", "record_id": "w1343455888@2", "update_time": "2025-07-22T06:43:31Z"}]}, "geometry": {"type": "LineString", "coordinates": [[71.3084086, 51.2775079], [71.3080563, 51.278294]]}}, {"type": "Feature", "properties": {"city": "astana", "overture_id": "f18232b2-f62d-4109-8b31-05bdd5beb0d7", "overture_version": 2, "subtype": "road", "class": "unclassified", "subclass": null, "name_primary": null, "road_surface": null, "connectors": 2, "length_m_geodesic": 86.2, "sources": [{"dataset": "OpenStreetMap", "license": "ODbL-1.0", "record_id": "w1343455888@2", "update_time": "2025-07-22T06:43:31Z"}]}, "geometry": {"type": "LineString", "coordinates": [[71.3086757, 51.2767518], [71.3084086, 51.2775079]]}}, {"type": "Feature", "properties": {"city": "astana", "overture_id": "8dc7cc05-a657-45bc-ad57-d070c7b7c22a", "overture_version": 1, "subtype": "road", "class": "unclassified", "subclass": null, "name_primary": null, "road_surface": null, "connectors": 2, "length_m_geodesic": 91.1, "sources": [{"dataset": "OpenStreetMap", "license": "ODbL-1.0", "record_id": "w1343455889@2", "update_time": "2024-12-24T06:13:40Z"}]}, "geometry": {"type": "LineString", "coordinates": [[71.3075349, 51.2851577], [71.3080517, 51.2844058]]}}, {"type": "Feature", "properties": {"city": "astana", "overture_id": "ca742a0d-926b-46c6-a5bf-1066ab328245", "overture_version": 1, "subtype": "road", "class": "unclassified", "subclass": null, "name_primary": null, "road_surface": null, "connectors": 2, "length_m_geodesic": 199.1, "sources": [{"dataset": "OpenStreetMap", "license": "ODbL-1.0", "record_id": "w1343455887@1", "update_time": "2024-12-18T11:59:06Z"}]}, "geometry": {"type": "LineString", "coordinates": [[71.3059852, 51.2761571], [71.3086757, 51.2767518]]}}, {"type": "Feature", "properties": {"city": "astana", "overture_id": "037f6970-c195-40fc-96fe-0ef8eaef40c4", "overture_version": 1, "subtype": "road", "class": "unknown", "subclass": null, "name_primary": null, "road_surface": null, "connectors": 2, "length_m_geodesic": 46.0, "sources": [{"dataset": "TomTom", "license": "ODbL-1.0", "record_id": null, "update_time": null}]}, "geometry": {"type": "LineString", "coordinates": [[71.3152587, 51.1954061], [71.3147162, 51.1956399]]}}, {"type": "Feature", "properties": {"city": "astana", "overture_id": "361453b0-cc35-4995-838f-fe746f4eef8b", "overture_version": 1, "subtype": "road", "class": "unknown", "subclass": null, "name_primary": null, "road_surface": null, "connectors": 2, "length_m_geodesic": 106.2, "sources": [{"dataset": "TomTom", "license": "ODbL-1.0", "record_id": null, "update_time": null}]}, "geometry": {"type": "LineString", "coordinates": [[71.3153283, 51.1852451], [71.315569, 51.1858037], [71.315588, 51.1858275], [71.3156166, 51.1858465], [71.3156594, 51.1858513], [71.3161174, 51.1857827]]}}, {"type": "Feature", "properties": {"city": "astana", "overture_id": "3e3a81e3-a8ef-4cea-a778-dd8b87c9ecaf", "overture_version": 1, "subtype": "road", "class": "unknown", "subclass": null, "name_primary": null, "road_surface": null, "connectors": 2, "length_m_geodesic": 40.5, "sources": [{"dataset": "TomTom", "license": "ODbL-1.0", "record_id": null, "update_time": null}]}, "geometry": {"type": "LineString", "coordinates": [[71.3133295, 51.1838389], [71.3138834, 51.183733]]}}, {"type": "Feature", "properties": {"city": "astana", "overture_id": "9db24fbb-53a8-491f-9653-4adac9407450", "overture_version": 1, "subtype": "road", "class": "unknown", "subclass": null, "name_primary": null, "road_surface": null, "connectors": 2, "length_m_geodesic": 23.7, "sources": [{"dataset": "TomTom", "license": "ODbL-1.0", "record_id": null, "update_time": null}]}, "geometry": {"type": "LineString", "coordinates": [[71.326147, 51.1797381], [71.3264803, 51.1797016]]}}, {"type": "Feature", "properties": {"city": "astana", "overture_id": "abbe1129-a2d8-428e-b18e-a7c90931e642", "overture_version": 1, "subtype": "road", "class": "cycleway", "subclass": null, "name_primary": "Green Belt Cycle Path", "road_surface": null, "connectors": 9, "length_m_geodesic": 21866.7, "sources": [{"dataset": "OpenStreetMap", "license": "ODbL-1.0", "record_id": "w942377247@8", "update_time": "2024-11-29T09:33:13Z"}]}, "geometry": {"type": "LineString", "coordinates": [[71.3867481, 51.0497136], [71.3826537, 51.0507506], [71.3825721, 51.0507697], [71.3824659, 51.0507945], [71.3744944, 51.0529358], [71.3742638, 51.0529391], [71.374076, 51.0528852], [71.3739687, 51.052811], [71.3738936, 51.0526289], [71.3702619, 51.0424609], [71.3701814, 51.0422889], [71.3699025, 51.0421472], [71.3697737, 51.0421169], [71.3695806, 51.042127], [71.369491, 51.0421368], [71.3692105, 51.0421675], [71.3691193, 51.0421607], [71.3687384, 51.0420629], [71.3623547, 51.0403124], [71.3623037, 51.040298], [71.3621992, 51.0402685], [71.3618381, 51.0402065], [71.3534605, 51.0387675], [71.3534041, 51.0387321], [71.3532889, 51.0386596], [71.3531816, 51.0385213], [71.3531709, 51.0384167], [71.3532138, 51.0382818], [71.3572907, 51.0293488], [71.3572907, 51.0292881], [71.3572532, 51.0292408], [71.3571298, 51.0292172], [71.3453442, 51.0276585], [71.3450974, 51.0276315], [71.3448775, 51.0276248], [71.3447434, 51.0276315], [71.3445717, 51.0276517], [71.3415462, 51.0281882], [71.3397062, 51.0284784], [71.3302326, 51.0301518], [71.3299805, 51.030199], [71.3296908, 51.0302732], [71.3292724, 51.0304048], [71.3287681, 51.0305465], [71.328516, 51.0305971], [71.3282263, 51.0306443], [71.3278723, 51.0306916], [71.304875, 51.0332353], [71.3044244, 51.033296], [71.3042313, 51.0333162], [71.3039845, 51.0333027], [71.3037646, 51.0333061], [71.3025093, 51.03335], [71.3013077, 51.0333904], [71.3010985, 51.0334039], [71.3008731, 51.033441], [71.3006425, 51.0335119], [71.2943447, 51.0356709], [71.2939852, 51.0358125], [71.293599, 51.0359745], [71.2932235, 51.0361667], [71.2929231, 51.0363489], [71.2897473, 51.0383526], [71.2888408, 51.0388889], [71.2878215, 51.0395534], [71.2873548, 51.0398671], [71.2862229, 51.0405552], [71.2857348, 51.0408588], [71.2837875, 51.0419617], [71.2829023, 51.0424845], [71.282044, 51.0430208], [71.2818348, 51.0432097], [71.2813091, 51.0437493], [71.2806225, 51.0447645], [71.2797963, 51.0458977], [71.2797052, 51.0461304], [71.279732, 51.0462856], [71.27985, 51.0463901], [71.280086, 51.046525], [71.2807083, 51.0468252], [71.2813842, 51.0471186], [71.2860834, 51.0489633], [71.2880844, 51.0497221], [71.2882346, 51.0497895], [71.288315, 51.0499008], [71.2883365, 51.0500222], [71.2882453, 51.0501436], [71.2825107, 51.0568371], [71.282044, 51.0573766], [71.2816632, 51.0578419], [71.2814432, 51.058115], [71.2812608, 51.058351], [71.2802362, 51.059521], [71.2786215, 51.061318], [71.2770337, 51.0631655], [71.2758857, 51.0644466], [71.2750542, 51.0653636], [71.2748718, 51.0655558], [71.274845, 51.06564], [71.274904, 51.0657479], [71.2749898, 51.0658255], [71.2751025, 51.0658255], [71.2752366, 51.0658693], [71.2753922, 51.0659502], [71.2756336, 51.0660446], [71.2775057, 51.0667121], [71.2776559, 51.066739], [71.2777096, 51.0667559], [71.2777901, 51.0668132], [71.2806654, 51.0679155], [71.2808317, 51.0679256], [71.2809658, 51.0679526], [71.2810731, 51.0679998], [71.2811535, 51.0680773], [71.283074, 51.0688122], [71.2831867, 51.0689369], [71.2832725, 51.0690617], [71.2833261, 51.0691696], [71.2834066, 51.069355], [71.2834281, 51.0694797], [71.2834281, 51.0696078], [71.2833851, 51.0697629], [71.2829453, 51.0714752], [71.2829023, 51.0718022], [71.2824732, 51.0751896], [71.2823123, 51.0764064], [71.2822801, 51.0765378], [71.2821942, 51.076676], [71.281631, 51.0772658], [71.2786859, 51.0804136], [71.2765509, 51.0826917], [71.2742549, 51.0851281], [71.2698185, 51.0898353], [71.2697112, 51.0900173], [71.2697112, 51.0900847], [71.2698024, 51.090142], [71.2699687, 51.0902127], [71.272726, 51.0911865], [71.2728655, 51.0913044], [71.2729245, 51.0914189], [71.2729031, 51.0915301], [71.2728494, 51.0916177], [71.2695879, 51.0968903], [71.2677693, 51.0998515], [71.2677693, 51.0999458], [71.2678391, 51.1000266], [71.2680536, 51.1002187], [71.2680912, 51.1003197], [71.2680644, 51.1004275], [71.2661868, 51.1033278], [71.2656611, 51.1041194], [71.265645, 51.1042272], [71.2656933, 51.1043248], [71.2657845, 51.1044023], [71.2659025, 51.1044663], [71.2659669, 51.1045674], [71.2663585, 51.1049682], [71.2663799, 51.1050659], [71.266337, 51.1051939], [71.264615, 51.107134], [71.2645367, 51.1072279], [71.264497, 51.1072754], [71.2607258, 51.1112631], [71.2606615, 51.1113709], [71.2606561, 51.111482], [71.2606883, 51.1115931], [71.2607312, 51.1117245], [71.262657, 51.1123742], [71.2683136, 51.1143677], [71.2709901, 51.1152936], [71.2723404, 51.1157739], [71.2724467, 51.1158117], [71.2726432, 51.115768], [71.2726969, 51.115756], [71.272821, 51.1156979], [71.2729367, 51.1156436], [71.2732219, 51.115396], [71.273577, 51.1150207], [71.2745147, 51.1139672], [71.275073, 51.1134148], [71.2757371, 51.1127465], [71.2757732, 51.1126423], [71.2757119, 51.1125291], [71.275582, 51.1124384], [71.2754232, 51.1123478], [71.2753835, 51.1121688], [71.2753366, 51.1120963], [71.2748133, 51.1117384], [71.2741385, 51.1113668], [71.2736874, 51.1111335], [71.2734456, 51.1109953], [71.2730197, 51.1109228], [71.2726372, 51.1107506], [71.2725037, 51.1105852], [71.2722078, 51.1102431], [71.2710241, 51.1098511], [71.269974, 51.1098126], [71.2693028, 51.1094863], [71.2692017, 51.1093436], [71.2690971, 51.1091714], [71.2682273, 51.1088497], [71.2678665, 51.1086752], [71.2662895, 51.1080929], [71.2655388, 51.1078052], [71.2650408, 51.1073226], [71.2646691, 51.1072614]]}}, {"type": "Feature", "properties": {"city": "astana", "overture_id": "a57989c4-e635-4922-a3c7-f1c83b9414be", "overture_version": 1, "subtype": "road", "class": "secondary", "subclass": null, "name_primary": "Қайым Мұхамедханов көшесі", "road_surface": null, "connectors": 2, "length_m_geodesic": 16.8, "sources": [{"dataset": "OpenStreetMap", "license": "ODbL-1.0", "record_id": "w1450108112@6", "update_time": "2026-05-21T11:27:46Z"}]}, "geometry": {"type": "LineString", "coordinates": [[71.3482019, 51.147543], [71.3482082, 51.1473924]]}}, {"type": "Feature", "properties": {"city": "astana", "overture_id": "e1434475-46f8-486d-8063-c80161c5f17d", "overture_version": 2, "subtype": "road", "class": "secondary", "subclass": null, "name_primary": null, "road_surface": null, "connectors": 3, "length_m_geodesic": 77.1, "sources": [{"dataset": "OpenStreetMap", "license": "ODbL-1.0", "record_id": "w1450108113@2", "update_time": "2026-03-11T06:04:54Z"}]}, "geometry": {"type": "LineString", "coordinates": [[71.3474932, 51.1472464], [71.3477885, 51.147218], [71.3479251, 51.1471625], [71.3480618, 51.1471069], [71.3482577, 51.1470263], [71.3484556, 51.1469375]]}}, {"type": "Feature", "properties": {"city": "astana", "overture_id": "bb342902-0842-4d72-bf9e-ff3d57750138", "overture_version": 2, "subtype": "road", "class": "secondary", "subclass": null, "name_primary": "Қайым Мұхамедханов көшесі", "road_surface": null, "connectors": 2, "length_m_geodesic": 30.6, "sources": [{"dataset": "OpenStreetMap", "license": "ODbL-1.0", "record_id": "w1450108112@6", "update_time": "2026-05-21T11:27:46Z"}]}, "geometry": {"type": "LineString", "coordinates": [[71.3484556, 51.1469375], [71.3485106, 51.1468364], [71.3487521, 51.146776], [71.3487598, 51.1467747]]}}, {"type": "Feature", "properties": {"city": "astana", "overture_id": "851d9b08-0a30-431a-a05e-b20158e9f4fb", "overture_version": 1, "subtype": "road", "class": "secondary", "subclass": null, "name_primary": "Қайым Мұхамедханов көшесі", "road_surface": null, "connectors": 2, "length_m_geodesic": 16.2, "sources": [{"dataset": "OpenStreetMap", "license": "ODbL-1.0", "record_id": "w1450108111@11", "update_time": "2026-07-15T18:23:50Z"}]}, "geometry": {"type": "LineString", "coordinates": [[71.348499, 51.1474514], [71.3483799, 51.1475766]]}}, {"type": "Feature", "properties": {"city": "astana", "overture_id": "40dea119-0686-4074-84f1-d873bc2dfda2", "overture_version": 2, "subtype": "road", "class": "secondary", "subclass": null, "name_primary": "Қайым Мұхамедханов көшесі", "road_surface": null, "connectors": 3, "length_m_geodesic": 53.5, "sources": [{"dataset": "OpenStreetMap", "license": "ODbL-1.0", "record_id": "w1450108112@6", "update_time": "2026-05-21T11:27:46Z"}]}, "geometry": {"type": "LineString", "coordinates": [[71.3482082, 51.1473924], [71.3482934, 51.1472356], [71.3484556, 51.1469375]]}}, {"type": "Feature", "properties": {"city": "astana", "overture_id": "b4ee61c1-683e-4a8b-b446-92f09016ae81", "overture_version": 1, "subtype": "road", "class": "secondary", "subclass": null, "name_primary": "Қайым Мұхамедханов көшесі", "road_surface": null, "connectors": 4, "length_m_geodesic": 302.7, "sources": [{"dataset": "OpenStreetMap", "license": "ODbL-1.0", "record_id": "w1450108111@11", "update_time": "2026-07-15T18:23:50Z"}]}, "geometry": {"type": "LineString", "coordinates": [[71.3521587, 51.1463728], [71.3504099, 51.1466847], [71.3487646, 51.1469781], [71.3485869, 51.1472949], [71.348499, 51.1474514]]}}, {"type": "Feature", "properties": {"city": "astana", "overture_id": "7f7c8a79-e4a5-4b4b-9559-3927189149e1", "overture_version": 2, "subtype": "road", "class": "path", "subclass": null, "name_primary": null, "road_surface": null, "connectors": 2, "length_m_geodesic": 134.5, "sources": [{"dataset": "OpenStreetMap", "license": "ODbL-1.0", "record_id": "w1453591200@1", "update_time": "2025-11-25T14:33:35Z"}]}, "geometry": {"type": "LineString", "coordinates": [[71.3459088, 51.1745232], [71.3457701, 51.1743942], [71.3455394, 51.1742412], [71.3451987, 51.1740394], [71.3447669, 51.1737939], [71.3445336, 51.1736863]]}}, {"type": "Feature", "properties": {"city": "astana", "overture_id": "ffa14273-5f82-41f3-b3b9-82848678d765", "overture_version": 5, "subtype": "road", "class": "cycleway", "subclass": null, "name_primary": null, "road_surface": null, "connectors": 16, "length_m_geodesic": 1713.0, "sources": [{"dataset": "OpenStreetMap", "license": "ODbL-1.0", "record_id": "w1157465277@1", "update_time": "2023-03-26T17:10:32Z"}, {"dataset": "OpenStreetMap", "license": "ODbL-1.0", "record_id": "w1157465278@1", "update_time": "2023-03-26T17:10:32Z"}, {"dataset": "OpenStreetMap", "license": "ODbL-1.0", "record_id": "w1157465279@6", "update_time": "2026-06-12T03:15:45Z"}]}, "geometry": {"type": "LineString", "coordinates": [[71.3453154, 51.1770956], [71.3453721, 51.1771041], [71.3463271, 51.1768039], [71.3489971, 51.1759659], [71.3506059, 51.1754668], [71.3520575, 51.1750118], [71.3520899, 51.1750016], [71.3541918, 51.1742813], [71.3553801, 51.173903], [71.3558815, 51.1737433], [71.3572596, 51.1733067], [71.3574707, 51.1732374], [71.3576319, 51.1731861], [71.3576907, 51.1731689], [71.357916, 51.1730987], [71.3589319, 51.1727861], [71.3592173, 51.1726983], [71.3608171, 51.1722098], [71.3617036, 51.1719218], [71.3648954, 51.1709289], [71.3662172, 51.1705531], [71.3672394, 51.1703551], [71.3672794, 51.1703287]]}}, {"type": "Feature", "properties": {"city": "astana", "overture_id": "fed48387-d3fd-44d6-b9b5-692b7329be54", "overture_version": 1, "subtype": "road", "class": "secondary", "subclass": null, "name_primary": "Қайым Мұхамедханов көшесі", "road_surface": null, "connectors": 5, "length_m_geodesic": 564.9, "sources": [{"dataset": "OpenStreetMap", "license": "ODbL-1.0", "record_id": "w1450108111@11", "update_time": "2026-07-15T18:23:50Z"}]}, "geometry": {"type": "LineString", "coordinates": [[71.3603672, 51.1449162], [71.3579312, 51.1453478], [71.3550829, 51.1458555], [71.3533806, 51.1461589], [71.3525975, 51.1462945]]}}, {"type": "Feature", "properties": {"city": "astana", "overture_id": "aeca2b4c-10cb-49b5-962f-b064207316b2", "overture_version": 1, "subtype": "road", "class": "secondary", "subclass": null, "name_primary": "Қайым Мұхамедханов көшесі", "road_surface": null, "connectors": 2, "length_m_geodesic": 837.5, "sources": [{"dataset": "OpenStreetMap", "license": "ODbL-1.0", "record_id": "w1450108112@6", "update_time": "2026-05-21T11:27:46Z"}]}, "geometry": {"type": "LineString", "coordinates": [[71.3487598, 51.1467747], [71.3602866, 51.1447504]]}}, {"type": "Feature", "properties": {"city": "astana", "overture_id": "c2f5b26d-0eee-413e-b2f1-bef717da8276", "overture_version": 3, "subtype": "road", "class": "cycleway", "subclass": null, "name_primary": null, "road_surface": null, "connectors": 8, "length_m_geodesic": 929.9, "sources": [{"dataset": "OpenStreetMap", "license": "ODbL-1.0", "record_id": "w1157465485@3", "update_time": "2025-11-13T14:00:08Z"}]}, "geometry": {"type": "LineString", "coordinates": [[71.3460115, 51.1774624], [71.3460233, 51.1774083], [71.3481037, 51.1767749], [71.3493089, 51.1763845], [71.3509298, 51.1758814], [71.3523056, 51.1754544], [71.3542215, 51.1747905], [71.3543933, 51.1747118], [71.3547463, 51.1745563], [71.3562129, 51.1741069], [71.3576937, 51.1736476], [71.3577769, 51.173663]]}}, {"type": "Feature", "properties": {"city": "astana", "overture_id": "dc334fe4-7532-41ca-9ba9-62074a71cb50", "overture_version": 1, "subtype": "road", "class": "path", "subclass": null, "name_primary": null, "road_surface": null, "connectors": 2, "length_m_geodesic": 37.0, "sources": [{"dataset": "OpenStreetMap", "license": "ODbL-1.0", "record_id": "w620065950@2", "update_time": "2026-05-29T10:39:14Z"}]}, "geometry": {"type": "LineString", "coordinates": [[71.3656372, 51.1252885], [71.3658303, 51.1253507], [71.3659055, 51.125541]]}}, {"type": "Feature", "properties": {"city": "astana", "overture_id": "4adcc605-2fca-4c86-bc44-c9bc51ea88cb", "overture_version": 1, "subtype": "road", "class": "path", "subclass": null, "name_primary": null, "road_surface": null, "connectors": 2, "length_m_geodesic": 10.6, "sources": [{"dataset": "OpenStreetMap", "license": "ODbL-1.0", "record_id": "w1536896878@1", "update_time": "2026-07-09T16:02:35Z"}]}, "geometry": {"type": "LineString", "coordinates": [[71.3651033, 51.1355742], [71.365179, 51.1354914]]}}, {"type": "Feature", "properties": {"city": "astana", "overture_id": "8b8fca19-c5e2-414b-8dd5-4190026f4f9e", "overture_version": 1, "subtype": "road", "class": "path", "subclass": null, "name_primary": null, "road_surface": null, "connectors": 2, "length_m_geodesic": 35.3, "sources": [{"dataset": "OpenStreetMap", "license": "ODbL-1.0", "record_id": "w1536896880@1", "update_time": "2026-07-09T16:02:35Z"}]}, "geometry": {"type": "LineString", "coordinates": [[71.3656238, 51.1356403], [71.365179, 51.1354914]]}}, {"type": "Feature", "properties": {"city": "astana", "overture_id": "baf75400-965d-4092-98b8-b7f5c25dad5a", "overture_version": 1, "subtype": "road", "class": "cycleway", "subclass": null, "name_primary": null, "road_surface": null, "connectors": 2, "length_m_geodesic": 89.9, "sources": [{"dataset": "OpenStreetMap", "license": "ODbL-1.0", "record_id": "w1157722384@1", "update_time": "2023-03-27T15:58:26Z"}]}, "geometry": {"type": "LineString", "coordinates": [[71.3639065, 51.1717642], [71.3639119, 51.1717453], [71.3649761, 51.1714092], [71.3650374, 51.17142]]}}, {"type": "Feature", "properties": {"city": "astana", "overture_id": "bd3883e3-c68c-49d2-8b5a-7be3067d54a8", "overture_version": 1, "subtype": "road", "class": "cycleway", "subclass": null, "name_primary": null, "road_surface": null, "connectors": 2, "length_m_geodesic": 107.6, "sources": [{"dataset": "OpenStreetMap", "license": "ODbL-1.0", "record_id": "w1157722383@1", "update_time": "2023-03-27T15:58:26Z"}]}, "geometry": {"type": "LineString", "coordinates": [[71.3624537, 51.1722261], [71.362468, 51.1721918], [71.3628693, 51.1720672], [71.3637603, 51.1717906], [71.3638, 51.1717974]]}}, {"type": "Feature", "properties": {"city": "astana", "overture_id": "f0a2619a-797c-4e2e-97c4-53a3927c0bef", "overture_version": 1, "subtype": "road", "class": "path", "subclass": null, "name_primary": null, "road_surface": null, "connectors": 2, "length_m_geodesic": 66.8, "sources": [{"dataset": "OpenStreetMap", "license": "ODbL-1.0", "record_id": "w1508978738@1", "update_time": "2026-05-04T13:46:24Z"}]}, "geometry": {"type": "LineString", "coordinates": [[71.3623867, 51.1660035], [71.3624802, 51.1659997], [71.3626117, 51.1660031], [71.3628021, 51.1660325], [71.3629885, 51.1661023], [71.3632473, 51.1662175]]}}, {"type": "Feature", "properties": {"city": "astana", "overture_id": "da87de83-3611-415f-a2e4-dd986896ced8", "overture_version": 1, "subtype": "road", "class": "cycleway", "subclass": null, "name_primary": null, "road_surface": null, "connectors": 2, "length_m_geodesic": 85.7, "sources": [{"dataset": "OpenStreetMap", "license": "ODbL-1.0", "record_id": "w1157722380@1", "update_time": "2023-03-27T15:58:26Z"}]}, "geometry": {"type": "LineString", "coordinates": [[71.3607076, 51.1727643], [71.3606544, 51.1727584], [71.3596375, 51.1730728], [71.3596271, 51.1730957]]}}, {"type": "Feature", "properties": {"city": "astana", "overture_id": "e9e79fc0-e060-4159-a497-ea72ea298890", "overture_version": 1, "subtype": "road", "class": "cycleway", "subclass": null, "name_primary": null, "road_surface": null, "connectors": 2, "length_m_geodesic": 70.5, "sources": [{"dataset": "OpenStreetMap", "license": "ODbL-1.0", "record_id": "w1157722382@1", "update_time": "2023-03-27T15:58:26Z"}]}, "geometry": {"type": "LineString", "coordinates": [[71.3609854, 51.1726791], [71.3610066, 51.1726491], [71.3618064, 51.1723994], [71.3618671, 51.1724088]]}}, {"type": "Feature", "properties": {"city": "astana", "overture_id": "bf1abdbc-1d9d-471b-bbc6-5106de663081", "overture_version": 2, "subtype": "road", "class": "path", "subclass": null, "name_primary": null, "road_surface": null, "connectors": 2, "length_m_geodesic": 68.8, "sources": [{"dataset": "OpenStreetMap", "license": "ODbL-1.0", "record_id": "w1174741386@1", "update_time": "2025-06-30T06:49:48Z"}]}, "geometry": {"type": "LineString", "coordinates": [[71.3620282, 51.18413], [71.3613993, 51.183654]]}}, {"type": "Feature", "properties": {"city": "astana", "overture_id": "2d89c0da-0df7-4fd5-82c2-06941f801523", "overture_version": 1, "subtype": "road", "class": "path", "subclass": null, "name_primary": null, "road_surface": null, "connectors": 2, "length_m_geodesic": 118.6, "sources": [{"dataset": "OpenStreetMap", "license": "ODbL-1.0", "record_id": "w1455241404@1", "update_time": "2025-12-01T17:21:23Z"}]}, "geometry": {"type": "LineString", "coordinates": [[71.3610551, 51.1537106], [71.3611753, 51.1536956], [71.3614435, 51.1536923], [71.3618392, 51.1537015], [71.3621771, 51.1536906], [71.3623381, 51.1536645], [71.3625486, 51.1536418], [71.3627337, 51.1536157]]}}, {"type": "Feature", "properties": {"city": "astana", "overture_id": "57ba1c4f-e630-405a-8220-51eb05d7534b", "overture_version": 7, "subtype": "road", "class": "motorway", "subclass": null, "name_primary": null, "road_surface": null, "connectors": 2, "length_m_geodesic": 394.7, "sources": [{"dataset": "OpenStreetMap", "license": "ODbL-1.0", "record_id": "r14604732@24", "update_time": null}, {"dataset": "OpenStreetMap", "license": "ODbL-1.0", "record_id": "r2817773@542", "update_time": null}, {"dataset": "OpenStreetMap", "license": "ODbL-1.0", "record_id": "r3323517@191", "update_time": null}, {"dataset": "OpenStreetMap", "license": "ODbL-1.0", "record_id": "w55490480@17", "update_time": "2025-10-09T13:06:29Z"}]}, "geometry": {"type": "LineString", "coordinates": [[71.3718921, 51.260423], [71.3723111, 51.2596152], [71.3734139, 51.257007]]}}, {"type": "Feature", "properties": {"city": "astana", "overture_id": "28321ec1-5ebe-40d3-a4a0-0ac3d5c7724b", "overture_version": 2, "subtype": "road", "class": "motorway", "subclass": null, "name_primary": null, "road_surface": [{"value": "paved", "between": null}], "connectors": 2, "length_m_geodesic": 391.6, "sources": [{"dataset": "OpenStreetMap", "license": "ODbL-1.0", "record_id": "r14604732@24", "update_time": null}, {"dataset": "OpenStreetMap", "license": "ODbL-1.0", "record_id": "w122102404@29", "update_time": "2025-10-09T13:06:29Z"}]}, "geometry": {"type": "LineString", "coordinates": [[71.3735327, 51.2570196], [71.3724187, 51.2596339], [71.3721283, 51.2604273]]}}, {"type": "Feature", "properties": {"city": "astana", "overture_id": "bf4de64e-c63e-4748-bd7e-f18e354cc579", "overture_version": 1, "subtype": "road", "class": "pedestrian", "subclass": null, "name_primary": null, "road_surface": null, "connectors": 2, "length_m_geodesic": 448.5, "sources": [{"dataset": "OpenStreetMap", "license": "ODbL-1.0", "record_id": "w1431546754@1", "update_time": "2025-09-20T17:58:13Z"}]}, "geometry": {"type": "LineString", "coordinates": [[71.374697, 51.1668358], [71.3743877, 51.1668712], [71.3739398, 51.1669082], [71.3735535, 51.1669031], [71.3733872, 51.1668577], [71.3730412, 51.1667417], [71.3726764, 51.1666239], [71.3725075, 51.1665869], [71.3723573, 51.1665886], [71.3721078, 51.1666307], [71.3718155, 51.1666761], [71.3714453, 51.1665954], [71.3703671, 51.1662859], [71.3698118, 51.1661665], [71.36949, 51.1661311], [71.3694122, 51.1660874], [71.3693505, 51.166037], [71.3693022, 51.165603]]}}, {"type": "Feature", "properties": {"city": "astana", "overture_id": "c5f20d50-e519-4725-9f50-e0ee03c31f68", "overture_version": 1, "subtype": "road", "class": "steps", "subclass": null, "name_primary": null, "road_surface": null, "connectors": 2, "length_m_geodesic": 10.7, "sources": [{"dataset": "OpenStreetMap", "license": "ODbL-1.0", "record_id": "w1518707040@1", "update_time": "2026-05-22T13:10:38Z"}]}, "geometry": {"type": "LineString", "coordinates": [[71.3798717, 51.2169472], [71.3797278, 51.2169155]]}}, {"type": "Feature", "properties": {"city": "astana", "overture_id": "44c91654-9d96-4e96-a356-f3e2909135e1", "overture_version": 1, "subtype": "road", "class": "steps", "subclass": null, "name_primary": null, "road_surface": null, "connectors": 2, "length_m_geodesic": 19.6, "sources": [{"dataset": "OpenStreetMap", "license": "ODbL-1.0", "record_id": "w1457802379@1", "update_time": "2025-12-11T14:37:16Z"}]}, "geometry": {"type": "LineString", "coordinates": [[71.3784432, 51.1703253], [71.3785793, 51.1703053], [71.3787189, 51.1702934]]}}, {"type": "Feature", "properties": {"city": "astana", "overture_id": "f29f1c10-37ce-4d27-9f1e-5c40dbafaf48", "overture_version": 1, "subtype": "road", "class": "steps", "subclass": null, "name_primary": null, "road_surface": null, "connectors": 2, "length_m_geodesic": 43.2, "sources": [{"dataset": "OpenStreetMap", "license": "ODbL-1.0", "record_id": "w1165554561@1", "update_time": "2023-05-25T16:29:51Z"}]}, "geometry": {"type": "LineString", "coordinates": [[71.3753009, 51.1650612], [71.3753682, 51.165242], [71.37531, 51.1652481], [71.3752769, 51.1651233], [71.375216, 51.1651305]]}}, {"type": "Feature", "properties": {"city": "astana", "overture_id": "bdb9b1da-6f68-4e7b-9ffb-0d4af2156b4f", "overture_version": 1, "subtype": "road", "class": "steps", "subclass": null, "name_primary": null, "road_surface": null, "connectors": 2, "length_m_geodesic": 41.8, "sources": [{"dataset": "OpenStreetMap", "license": "ODbL-1.0", "record_id": "w1457802376@2", "update_time": "2025-12-11T15:03:33Z"}]}, "geometry": {"type": "LineString", "coordinates": [[71.3746628, 51.1631025], [71.3746172, 51.1629578], [71.3745528, 51.1629444], [71.3746172, 51.1631042], [71.3745864, 51.1631109]]}}, {"type": "Feature", "properties": {"city": "astana", "overture_id": "9e4d0ecc-d57a-46a8-80c2-22e8d14bfeea", "overture_version": 2, "subtype": "road", "class": "steps", "subclass": null, "name_primary": null, "road_surface": null, "connectors": 2, "length_m_geodesic": 43.0, "sources": [{"dataset": "OpenStreetMap", "license": "ODbL-1.0", "record_id": "w1165554559@1", "update_time": "2025-12-11T15:03:33Z"}]}, "geometry": {"type": "LineString", "coordinates": [[71.3743877, 51.1652118], [71.3744467, 51.1653643], [71.3745241, 51.1653594], [71.374484, 51.1652269], [71.3745568, 51.165227]]}}, {"type": "Feature", "properties": {"city": "astana", "overture_id": "17f246f4-1782-4cf5-9668-2275c01cb159", "overture_version": 1, "subtype": "road", "class": "steps", "subclass": null, "name_primary": null, "road_surface": null, "connectors": 2, "length_m_geodesic": 38.6, "sources": [{"dataset": "OpenStreetMap", "license": "ODbL-1.0", "record_id": "w1457802375@2", "update_time": "2025-12-11T15:03:33Z"}]}, "geometry": {"type": "LineString", "coordinates": [[71.3737066, 51.1631933], [71.3736865, 51.1630546], [71.3737375, 51.1630461], [71.3738045, 51.1631841], [71.3738528, 51.1631815]]}}, {"type": "Feature", "properties": {"city": "astana", "overture_id": "bab639fd-2a9e-46cb-b885-314881ef4fc4", "overture_version": 1, "subtype": "road", "class": "steps", "subclass": null, "name_primary": null, "road_surface": null, "connectors": 2, "length_m_geodesic": 11.0, "sources": [{"dataset": "OpenStreetMap", "license": "ODbL-1.0", "record_id": "w1179813994@1", "update_time": "2023-06-05T17:43:39Z"}]}, "geometry": {"type": "LineString", "coordinates": [[71.3868743, 51.1641039], [71.3868482, 51.1640062]]}}, {"type": "Feature", "properties": {"city": "astana", "overture_id": "c854c2c8-3a5c-47ba-88c3-c7c178a56d39", "overture_version": 1, "subtype": "road", "class": "living_street", "subclass": null, "name_primary": null, "road_surface": [{"value": "unpaved", "between": null}], "connectors": 2, "length_m_geodesic": 67.3, "sources": [{"dataset": "OpenStreetMap", "license": "ODbL-1.0", "record_id": "w258245941@5", "update_time": "2026-05-25T11:45:03Z"}]}, "geometry": {"type": "LineString", "coordinates": [[71.4086716, 51.0481632], [71.409369, 51.0477477]]}}, {"type": "Feature", "properties": {"city": "astana", "overture_id": "c2b25d1e-5d54-42b4-841c-972b0be25a29", "overture_version": 2, "subtype": "road", "class": "living_street", "subclass": null, "name_primary": null, "road_surface": [{"value": "unpaved", "between": null}], "connectors": 2, "length_m_geodesic": 66.9, "sources": [{"dataset": "OpenStreetMap", "license": "ODbL-1.0", "record_id": "w258245961@5", "update_time": "2026-05-25T11:45:03Z"}]}, "geometry": {"type": "LineString", "coordinates": [[71.4090395, 51.0533057], [71.4097794, 51.0529261]]}}, {"type": "Feature", "properties": {"city": "astana", "overture_id": "809f18ae-546f-4bd8-aa06-1919d8205787", "overture_version": 4, "subtype": "road", "class": "living_street", "subclass": null, "name_primary": "Берёзовая көшесі", "road_surface": [{"value": "unpaved", "between": null}], "connectors": 2, "length_m_geodesic": 191.0, "sources": [{"dataset": "OpenStreetMap", "license": "ODbL-1.0", "record_id": "w258245939@4", "update_time": "2026-06-15T18:21:08Z"}]}, "geometry": {"type": "LineString", "coordinates": [[71.4082431, 51.0513172], [71.4102826, 51.0524558]]}}, {"type": "Feature", "properties": {"city": "astana", "overture_id": "60157b1a-e9b6-4d41-9abf-21b7327e1352", "overture_version": 2, "subtype": "road", "class": "living_street", "subclass": null, "name_primary": null, "road_surface": [{"value": "unpaved", "between": null}], "connectors": 2, "length_m_geodesic": 247.5, "sources": [{"dataset": "OpenStreetMap", "license": "ODbL-1.0", "record_id": "w1190413197@2", "update_time": "2026-03-18T05:06:44Z"}]}, "geometry": {"type": "LineString", "coordinates": [[71.4095509, 51.0589136], [71.4094618, 51.0586626], [71.4092821, 51.0584392], [71.409156, 51.0582099], [71.4091024, 51.0578897], [71.4090397, 51.0575198], [71.4089819, 51.0569967], [71.408959, 51.056741]]}}, {"type": "Feature", "properties": {"city": "astana", "overture_id": "0cdc6d67-7cdc-4209-95e6-d68ece231c3c", "overture_version": 1, "subtype": "road", "class": "living_street", "subclass": null, "name_primary": null, "road_surface": [{"value": "unpaved", "between": null}], "connectors": 2, "length_m_geodesic": 97.4, "sources": [{"dataset": "OpenStreetMap", "license": "ODbL-1.0", "record_id": "w258245941@5", "update_time": "2026-05-25T11:45:03Z"}]}, "geometry": {"type": "LineString", "coordinates": [[71.408959, 51.056741], [71.4088798, 51.0562391], [71.4088302, 51.055869]]}}, {"type": "Feature", "properties": {"city": "astana", "overture_id": "5dbb4de0-6a82-443f-aaf2-52e5c72a05e6", "overture_version": 1, "subtype": "road", "class": "living_street", "subclass": null, "name_primary": null, "road_surface": [{"value": "unpaved", "between": null}], "connectors": 3, "length_m_geodesic": 119.4, "sources": [{"dataset": "OpenStreetMap", "license": "ODbL-1.0", "record_id": "w258245941@5", "update_time": "2026-05-25T11:45:03Z"}]}, "geometry": {"type": "LineString", "coordinates": [[71.4085936, 51.0544774], [71.4086196, 51.0544621], [71.4085767, 51.0539293], [71.4086518, 51.0534922], [71.4086399, 51.0534151]]}}, {"type": "Feature", "properties": {"city": "astana", "overture_id": "dae4c9f0-4d41-4ea6-af3f-1f0f40f97613", "overture_version": 1, "subtype": "road", "class": "living_street", "subclass": null, "name_primary": null, "road_surface": [{"value": "unpaved", "between": null}], "connectors": 3, "length_m_geodesic": 155.7, "sources": [{"dataset": "OpenStreetMap", "license": "ODbL-1.0", "record_id": "w258245941@5", "update_time": "2026-05-25T11:45:03Z"}]}, "geometry": {"type": "LineString", "coordinates": [[71.4088302, 51.055869], [71.4087349, 51.0553372], [71.4085936, 51.0544774]]}}, {"type": "Feature", "properties": {"city": "astana", "overture_id": "bc921fde-b681-4758-b16e-223ecb704b67", "overture_version": 1, "subtype": "road", "class": "living_street", "subclass": null, "name_primary": null, "road_surface": [{"value": "unpaved", "between": null}], "connectors": 2, "length_m_geodesic": 30.5, "sources": [{"dataset": "OpenStreetMap", "license": "ODbL-1.0", "record_id": "w258245961@5", "update_time": "2026-05-25T11:45:03Z"}]}, "geometry": {"type": "LineString", "coordinates": [[71.4086399, 51.0534151], [71.4089388, 51.0533325], [71.4090395, 51.0533057]]}}, {"type": "Feature", "properties": {"city": "astana", "overture_id": "a9ede5e2-ee58-484f-bdd5-6ceee8078e79", "overture_version": 3, "subtype": "road", "class": "pedestrian", "subclass": null, "name_primary": null, "road_surface": null, "connectors": 4, "length_m_geodesic": 189.2, "sources": [{"dataset": "OpenStreetMap", "license": "ODbL-1.0", "record_id": "w1423874807@1", "update_time": "2025-11-11T16:35:20Z"}]}, "geometry": {"type": "LineString", "coordinates": [[71.4107661, 51.0946978], [71.4108226, 51.0946855], [71.4115918, 51.0945796], [71.4118826, 51.0945396], [71.4134033, 51.0943302]]}}, {"type": "Feature", "properties": {"city": "astana", "overture_id": "b5adf81b-eb32-405d-bd63-163297f6ed8d", "overture_version": 5, "subtype": "road", "class": "pedestrian", "subclass": null, "name_primary": null, "road_surface": null, "connectors": 6, "length_m_geodesic": 181.7, "sources": [{"dataset": "OpenStreetMap", "license": "ODbL-1.0", "record_id": "w1423874820@3", "update_time": "2026-09-02T13:23:08Z"}]}, "geometry": {"type": "LineString", "coordinates": [[71.4107661, 51.0946978], [71.4110054, 51.0953484], [71.4110237, 51.0953981], [71.4110819, 51.0955684], [71.411114, 51.0956502], [71.4113473, 51.0962892]]}}, {"type": "Feature", "properties": {"city": "astana", "overture_id": "a14f93b4-fa70-4c9b-92d6-85ab9330d7ed", "overture_version": 1, "subtype": "road", "class": "pedestrian", "subclass": null, "name_primary": null, "road_surface": null, "connectors": 2, "length_m_geodesic": 3.4, "sources": [{"dataset": "OpenStreetMap", "license": "ODbL-1.0", "record_id": "w896704459@1", "update_time": "2021-01-18T18:20:49Z"}]}, "geometry": {"type": "LineString", "coordinates": [[71.4513398, 51.0904975], [71.4513495, 51.0905276]]}}, {"type": "Feature", "properties": {"city": "astana", "overture_id": "1e4b3e25-06a2-48e8-a89e-539304d2c123", "overture_version": 1, "subtype": "road", "class": "pedestrian", "subclass": null, "name_primary": null, "road_surface": null, "connectors": 2, "length_m_geodesic": 23.5, "sources": [{"dataset": "OpenStreetMap", "license": "ODbL-1.0", "record_id": "w896704462@1", "update_time": "2021-01-18T18:20:49Z"}]}, "geometry": {"type": "LineString", "coordinates": [[71.4510885, 51.0896305], [71.4512266, 51.0896103], [71.4512372, 51.0896416], [71.4510977, 51.0896606]]}}, {"type": "Feature", "properties": {"city": "astana", "overture_id": "c5162c58-ae7e-4d64-9646-9ab8e56ea5be", "overture_version": 1, "subtype": "road", "class": "pedestrian", "subclass": null, "name_primary": null, "road_surface": null, "connectors": 2, "length_m_geodesic": 3.4, "sources": [{"dataset": "OpenStreetMap", "license": "ODbL-1.0", "record_id": "w896704462@1", "update_time": "2021-01-18T18:20:49Z"}]}, "geometry": {"type": "LineString", "coordinates": [[71.4510977, 51.0896606], [71.4510885, 51.0896305]]}}, {"type": "Feature", "properties": {"city": "astana", "overture_id": "1b4f6363-23ab-43aa-bdde-582b88c68995", "overture_version": 2, "subtype": "road", "class": "pedestrian", "subclass": null, "name_primary": null, "road_surface": null, "connectors": 17, "length_m_geodesic": 256.3, "sources": [{"dataset": "OpenStreetMap", "license": "ODbL-1.0", "record_id": "w258818019@7", "update_time": "2026-08-09T20:44:02Z"}]}, "geometry": {"type": "LineString", "coordinates": [[71.4310414, 51.1281927], [71.4310579, 51.1282675], [71.4310504, 51.1283427], [71.4310193, 51.1284156], [71.4310011, 51.1284386], [71.4309658, 51.1284831], [71.4308921, 51.1285427], [71.4308565, 51.1285619], [71.430801, 51.1285919], [71.4307776, 51.1286001], [71.4306962, 51.1286288], [71.4306128, 51.1286462], [71.4305818, 51.128652], [71.4304661, 51.1286604], [71.4304394, 51.1286591], [71.43035, 51.1286547], [71.4302378, 51.1286352], [71.4301337, 51.1286025], [71.4300903, 51.1285815], [71.4300415, 51.1285578], [71.4299647, 51.1285029], [71.4299061, 51.1284397], [71.4298773, 51.1283876], [71.429868, 51.1283706], [71.4298517, 51.1282982], [71.4298578, 51.1282253], [71.4298862, 51.1281544], [71.4299357, 51.1280882], [71.4300046, 51.1280293], [71.4300663, 51.1279936], [71.4300902, 51.1279797], [71.4301479, 51.1279574], [71.4301894, 51.1279414], [71.4302985, 51.1279158], [71.430317, 51.1279139], [71.4304171, 51.1279036], [71.4304972, 51.1279055], [71.4305372, 51.1279064], [71.4305956, 51.1279152], [71.430654, 51.1279241], [71.4307629, 51.127956], [71.4308596, 51.1280008], [71.4309039, 51.1280315], [71.4309403, 51.1280567], [71.4310017, 51.1281215]]}}, {"type": "Feature", "properties": {"city": "astana", "overture_id": "578bc4ae-0dcc-4944-9aab-e6f7527935f3", "overture_version": 2, "subtype": "road", "class": "pedestrian", "subclass": null, "name_primary": null, "road_surface": null, "connectors": 2, "length_m_geodesic": 8.4, "sources": [{"dataset": "OpenStreetMap", "license": "ODbL-1.0", "record_id": "w258818019@7", "update_time": "2026-08-09T20:44:02Z"}]}, "geometry": {"type": "LineString", "coordinates": [[71.4310017, 51.1281215], [71.4310414, 51.1281927]]}}]}