{"type": "FeatureCollection", "name": "shymkent_road_segments_sample_overture_2026-09-23.1", "license_note": "Overture transportation; derived from OpenStreetMap (ODbL-1.0).", "features": [{"type": "Feature", "properties": {"city": "shymkent", "overture_id": "0bc4eb1e-cd36-4c34-b1d0-e27a16f6b975", "overture_version": 1, "subtype": "road", "class": "track", "subclass": null, "name_primary": null, "road_surface": null, "connectors": 3, "length_m_geodesic": 324.2, "sources": [{"dataset": "OpenStreetMap", "license": "ODbL-1.0", "record_id": "w1357816269@1", "update_time": "2025-02-07T15:50:55Z"}]}, "geometry": {"type": "LineString", "coordinates": [[69.371535, 42.3810118], [69.3714587, 42.3811652], [69.3714307, 42.3813101], [69.3716455, 42.3816688], [69.3719724, 42.3820276], [69.3720378, 42.3821656], [69.3720564, 42.3825036], [69.3721312, 42.3827589], [69.3723833, 42.3832142], [69.3725048, 42.3837523]]}}, {"type": "Feature", "properties": {"city": "shymkent", "overture_id": "2b67fc25-dea4-4e95-aa96-9d8d3f4cef8f", "overture_version": 1, "subtype": "road", "class": "residential", "subclass": null, "name_primary": null, "road_surface": null, "connectors": 2, "length_m_geodesic": 220.4, "sources": [{"dataset": "OpenStreetMap", "license": "ODbL-1.0", "record_id": "w1357812259@1", "update_time": "2025-02-07T15:27:24Z"}]}, "geometry": {"type": "LineString", "coordinates": [[69.3734888, 42.3742581], [69.3730772, 42.3742951], [69.3718069, 42.3744469], [69.3708498, 42.3745831]]}}, {"type": "Feature", "properties": {"city": "shymkent", "overture_id": "db9b5bb7-e927-4946-9bcf-9def6c7ad330", "overture_version": 1, "subtype": "road", "class": "residential", "subclass": null, "name_primary": null, "road_surface": null, "connectors": 2, "length_m_geodesic": 144.3, "sources": [{"dataset": "OpenStreetMap", "license": "ODbL-1.0", "record_id": "w1357812264@1", "update_time": "2025-02-07T15:27:24Z"}]}, "geometry": {"type": "LineString", "coordinates": [[69.3706108, 42.3732982], [69.3708262, 42.374233], [69.3708498, 42.3745831]]}}, {"type": "Feature", "properties": {"city": "shymkent", "overture_id": "21ca311c-9226-4634-99d3-707bdad09141", "overture_version": 1, "subtype": "road", "class": "path", "subclass": null, "name_primary": null, "road_surface": null, "connectors": 2, "length_m_geodesic": 147.7, "sources": [{"dataset": "OpenStreetMap", "license": "ODbL-1.0", "record_id": "w1357812272@1", "update_time": "2025-02-07T15:27:24Z"}]}, "geometry": {"type": "LineString", "coordinates": [[69.3708498, 42.3745831], [69.3712426, 42.3758808]]}}, {"type": "Feature", "properties": {"city": "shymkent", "overture_id": "d4ee3e57-c133-4370-ac3a-7fbe3860d489", "overture_version": 1, "subtype": "road", "class": "residential", "subclass": null, "name_primary": null, "road_surface": null, "connectors": 4, "length_m_geodesic": 789.9, "sources": [{"dataset": "OpenStreetMap", "license": "ODbL-1.0", "record_id": "w1357812267@2", "update_time": "2025-02-07T15:50:55Z"}]}, "geometry": {"type": "LineString", "coordinates": [[69.3753919, 42.3752644], [69.3751397, 42.3753196], [69.37372, 42.3754921], [69.3718707, 42.3757957], [69.3712426, 42.3758808], [69.3709482, 42.3759207], [69.3707499, 42.3759475], [69.3683775, 42.3762511], [69.3670886, 42.3764029], [69.3659678, 42.3765685]]}}, {"type": "Feature", "properties": {"city": "shymkent", "overture_id": "fda75573-7e55-41f2-8595-5e607d07e303", "overture_version": 1, "subtype": "road", "class": "path", "subclass": null, "name_primary": null, "road_surface": null, "connectors": 4, "length_m_geodesic": 42.8, "sources": [{"dataset": "OpenStreetMap", "license": "ODbL-1.0", "record_id": "w1357816258@1", "update_time": "2025-02-07T15:50:55Z"}]}, "geometry": {"type": "LineString", "coordinates": [[69.3709482, 42.3759207], [69.3709659, 42.3759927], [69.3709507, 42.3760565], [69.3709397, 42.3761026], [69.3708925, 42.3763004]]}}, {"type": "Feature", "properties": {"city": "shymkent", "overture_id": "19e5d552-e723-4874-9f64-af3a3614af63", "overture_version": 1, "subtype": "road", "class": "residential", "subclass": null, "name_primary": null, "road_surface": null, "connectors": 2, "length_m_geodesic": 201.8, "sources": [{"dataset": "OpenStreetMap", "license": "ODbL-1.0", "record_id": "w1357812259@1", "update_time": "2025-02-07T15:27:24Z"}]}, "geometry": {"type": "LineString", "coordinates": [[69.3708498, 42.3745831], [69.370546, 42.3746263], [69.3694439, 42.3747298], [69.3684258, 42.3748471]]}}, {"type": "Feature", "properties": {"city": "shymkent", "overture_id": "55679cf9-8e59-43a0-9fc8-120f5fb06f72", "overture_version": 1, "subtype": "road", "class": "residential", "subclass": null, "name_primary": null, "road_surface": null, "connectors": 2, "length_m_geodesic": 138.3, "sources": [{"dataset": "OpenStreetMap", "license": "ODbL-1.0", "record_id": "w1357812264@1", "update_time": "2025-02-07T15:27:24Z"}]}, "geometry": {"type": "LineString", "coordinates": [[69.3703232, 42.3720714], [69.3706108, 42.3732982]]}}, {"type": "Feature", "properties": {"city": "shymkent", "overture_id": "d41176bb-b177-47ec-9789-5c352718c337", "overture_version": 1, "subtype": "road", "class": "residential", "subclass": null, "name_primary": null, "road_surface": null, "connectors": 2, "length_m_geodesic": 215.2, "sources": [{"dataset": "OpenStreetMap", "license": "ODbL-1.0", "record_id": "w1357812260@1", "update_time": "2025-02-07T15:27:24Z"}]}, "geometry": {"type": "LineString", "coordinates": [[69.3706108, 42.3732982], [69.3701537, 42.3733429], [69.3693038, 42.3733912], [69.3680242, 42.3735568]]}}, {"type": "Feature", "properties": {"city": "shymkent", "overture_id": "9635eea6-0410-49a6-80b1-682c7f6bd389", "overture_version": 1, "subtype": "road", "class": "residential", "subclass": null, "name_primary": null, "road_surface": null, "connectors": 2, "length_m_geodesic": 215.9, "sources": [{"dataset": "OpenStreetMap", "license": "ODbL-1.0", "record_id": "w1357812261@1", "update_time": "2025-02-07T15:27:24Z"}]}, "geometry": {"type": "LineString", "coordinates": [[69.3703232, 42.3720714], [69.3696867, 42.372163], [69.3677351, 42.3723791]]}}, {"type": "Feature", "properties": {"city": "shymkent", "overture_id": "552e904e-9c6b-4275-9995-29f11d17db9c", "overture_version": 1, "subtype": "road", "class": "residential", "subclass": null, "name_primary": null, "road_surface": null, "connectors": 2, "length_m_geodesic": 223.3, "sources": [{"dataset": "OpenStreetMap", "license": "ODbL-1.0", "record_id": "w1357812261@1", "update_time": "2025-02-07T15:27:24Z"}]}, "geometry": {"type": "LineString", "coordinates": [[69.3729838, 42.3716869], [69.3703232, 42.3720714]]}}, {"type": "Feature", "properties": {"city": "shymkent", "overture_id": "d8d18ef2-2491-4f80-8f1f-d62a08d70e96", "overture_version": 1, "subtype": "road", "class": "service", "subclass": null, "name_primary": null, "road_surface": null, "connectors": 2, "length_m_geodesic": 50.6, "sources": [{"dataset": "OpenStreetMap", "license": "ODbL-1.0", "record_id": "w1357812320@1", "update_time": "2025-02-07T15:27:24Z"}]}, "geometry": {"type": "LineString", "coordinates": [[69.3641465, 42.3767341], [69.3641336, 42.3765967], [69.3641617, 42.3762793]]}}, {"type": "Feature", "properties": {"city": "shymkent", "overture_id": "8bafb39f-82bb-4680-b212-9d7b6a5a597a", "overture_version": 1, "subtype": "road", "class": "service", "subclass": null, "name_primary": null, "road_surface": null, "connectors": 2, "length_m_geodesic": 120.4, "sources": [{"dataset": "OpenStreetMap", "license": "ODbL-1.0", "record_id": "w1357812319@1", "update_time": "2025-02-07T15:27:24Z"}]}, "geometry": {"type": "LineString", "coordinates": [[69.3634606, 42.3768147], [69.3634238, 42.3767002], [69.3634518, 42.3757342]]}}, {"type": "Feature", "properties": {"city": "shymkent", "overture_id": "238b44d8-ee54-4716-80d1-12ceb1759472", "overture_version": 1, "subtype": "road", "class": "track", "subclass": null, "name_primary": null, "road_surface": null, "connectors": 2, "length_m_geodesic": 37.5, "sources": [{"dataset": "OpenStreetMap", "license": "ODbL-1.0", "record_id": "w1357812285@1", "update_time": "2025-02-07T15:27:24Z"}]}, "geometry": {"type": "LineString", "coordinates": [[69.36385, 42.3704898], [69.3640461, 42.370476], [69.3642796, 42.3703932]]}}, {"type": "Feature", "properties": {"city": "shymkent", "overture_id": "e39e373a-ae89-4e0f-9681-da1cc6be2533", "overture_version": 1, "subtype": "road", "class": "track", "subclass": null, "name_primary": null, "road_surface": null, "connectors": 2, "length_m_geodesic": 758.4, "sources": [{"dataset": "OpenStreetMap", "license": "ODbL-1.0", "record_id": "w1357812290@1", "update_time": "2025-02-07T15:27:24Z"}]}, "geometry": {"type": "LineString", "coordinates": [[69.3653436, 42.3752335], [69.3649427, 42.3753061], [69.3642236, 42.375313], [69.3640835, 42.3752854], [69.3634577, 42.3752578], [69.3610199, 42.3756097], [69.3608238, 42.375658], [69.3597123, 42.3760858], [69.3593481, 42.3761617], [69.35918, 42.3762307], [69.357863, 42.3762652], [69.3577229, 42.37621], [69.3575642, 42.3762376], [69.3573493, 42.3762307], [69.3570038, 42.3760789], [69.3569104, 42.3759409], [69.3566302, 42.3758167]]}}, {"type": "Feature", "properties": {"city": "shymkent", "overture_id": "3899312f-60e0-4369-bf0a-76e151cfb581", "overture_version": 1, "subtype": "road", "class": "service", "subclass": null, "name_primary": null, "road_surface": null, "connectors": 2, "length_m_geodesic": 54.7, "sources": [{"dataset": "OpenStreetMap", "license": "ODbL-1.0", "record_id": "w1357812317@1", "update_time": "2025-02-07T15:27:24Z"}]}, "geometry": {"type": "LineString", "coordinates": [[69.3618652, 42.3769775], [69.3616679, 42.376507]]}}, {"type": "Feature", "properties": {"city": "shymkent", "overture_id": "0e7978f2-2a42-4457-a52f-8a7a62e8a4df", "overture_version": 1, "subtype": "road", "class": "service", "subclass": null, "name_primary": null, "road_surface": null, "connectors": 2, "length_m_geodesic": 92.9, "sources": [{"dataset": "OpenStreetMap", "license": "ODbL-1.0", "record_id": "w1357812318@1", "update_time": "2025-02-07T15:27:24Z"}]}, "geometry": {"type": "LineString", "coordinates": [[69.3626674, 42.3769079], [69.3626112, 42.3768175], [69.3623871, 42.3760999]]}}, {"type": "Feature", "properties": {"city": "shymkent", "overture_id": "b27fe4d6-b00d-4409-a71c-a817a89e8e47", "overture_version": 1, "subtype": "road", "class": "service", "subclass": null, "name_primary": null, "road_surface": null, "connectors": 2, "length_m_geodesic": 47.6, "sources": [{"dataset": "OpenStreetMap", "license": "ODbL-1.0", "record_id": "w1357812316@1", "update_time": "2025-02-07T15:27:24Z"}]}, "geometry": {"type": "LineString", "coordinates": [[69.3608715, 42.3770559], [69.3606778, 42.3766519]]}}, {"type": "Feature", "properties": {"city": "shymkent", "overture_id": "654f70a0-095a-403b-a4ed-07594fb80c35", "overture_version": 1, "subtype": "road", "class": "service", "subclass": null, "name_primary": null, "road_surface": null, "connectors": 2, "length_m_geodesic": 161.8, "sources": [{"dataset": "OpenStreetMap", "license": "ODbL-1.0", "record_id": "w1202580328@1", "update_time": "2023-08-27T16:56:34Z"}]}, "geometry": {"type": "LineString", "coordinates": [[69.3725842, 42.250992], [69.3720424, 42.2512104], [69.371227, 42.2520045]]}}, {"type": "Feature", "properties": {"city": "shymkent", "overture_id": "11f8df7a-d7ec-4939-8238-b3e56dc1bfe4", "overture_version": 1, "subtype": "road", "class": "track", "subclass": null, "name_primary": null, "road_surface": null, "connectors": 2, "length_m_geodesic": 335.4, "sources": [{"dataset": "OpenStreetMap", "license": "ODbL-1.0", "record_id": "w1202580332@1", "update_time": "2023-08-27T16:56:34Z"}]}, "geometry": {"type": "LineString", "coordinates": [[69.3715274, 42.2503527], [69.3701649, 42.2514566], [69.3690062, 42.2527113]]}}, {"type": "Feature", "properties": {"city": "shymkent", "overture_id": "f94e98b6-9126-4645-9939-0f3ed84f7107", "overture_version": 3, "subtype": "road", "class": "trunk", "subclass": null, "name_primary": null, "road_surface": null, "connectors": 2, "length_m_geodesic": 869.0, "sources": [{"dataset": "OpenStreetMap", "license": "ODbL-1.0", "record_id": "r14475032@195", "update_time": null}, {"dataset": "OpenStreetMap", "license": "ODbL-1.0", "record_id": "r176922@1103", "update_time": null}, {"dataset": "OpenStreetMap", "license": "ODbL-1.0", "record_id": "r2822796@549", "update_time": null}, {"dataset": "OpenStreetMap", "license": "ODbL-1.0", "record_id": "r5864971@399", "update_time": null}, {"dataset": "OpenStreetMap", "license": "ODbL-1.0", "record_id": "r7215270@445", "update_time": null}, {"dataset": "OpenStreetMap", "license": "ODbL-1.0", "record_id": "w113610831@17", "update_time": "2025-11-05T20:30:19Z"}]}, "geometry": {"type": "LineString", "coordinates": [[69.4840572, 42.1471207], [69.483684, 42.1453306], [69.4835472, 42.1442627], [69.4834909, 42.1435646], [69.4834802, 42.14296], [69.4834775, 42.1423176], [69.4835258, 42.1416474], [69.4836572, 42.1405416], [69.4837832, 42.1398634], [69.4839113, 42.1393451]]}}, {"type": "Feature", "properties": {"city": "shymkent", "overture_id": "b373569a-74ef-4d05-9cf4-3061e739b857", "overture_version": 1, "subtype": "road", "class": "trunk", "subclass": "link", "name_primary": null, "road_surface": null, "connectors": 2, "length_m_geodesic": 13.1, "sources": [{"dataset": "TomTom", "license": "ODbL-1.0", "record_id": null, "update_time": null}]}, "geometry": {"type": "LineString", "coordinates": [[69.4840572, 42.1471207], [69.4842159, 42.1471184]]}}, {"type": "Feature", "properties": {"city": "shymkent", "overture_id": "dc48bcee-a25e-4d0a-a733-fa92c3705295", "overture_version": 3, "subtype": "road", "class": "trunk", "subclass": null, "name_primary": null, "road_surface": [{"value": "paved", "between": [0.156646969, 1.0]}], "connectors": 3, "length_m_geodesic": 1934.0, "sources": [{"dataset": "OpenStreetMap", "license": "ODbL-1.0", "record_id": "r14475032@195", "update_time": null}, {"dataset": "OpenStreetMap", "license": "ODbL-1.0", "record_id": "r176922@1103", "update_time": null}, {"dataset": "OpenStreetMap", "license": "ODbL-1.0", "record_id": "r2822796@549", "update_time": null}, {"dataset": "OpenStreetMap", "license": "ODbL-1.0", "record_id": "r5864971@399", "update_time": null}, {"dataset": "OpenStreetMap", "license": "ODbL-1.0", "record_id": "r7215270@445", "update_time": null}, {"dataset": "OpenStreetMap", "license": "ODbL-1.0", "record_id": "w20340561@21", "update_time": "2025-11-05T20:30:19Z"}, {"dataset": "OpenStreetMap", "license": "ODbL-1.0", "record_id": "w20337084@35", "update_time": "2026-03-24T03:12:48Z"}]}, "geometry": {"type": "LineString", "coordinates": [[69.4842159, 42.1471184], [69.4847778, 42.1498136], [69.4874221, 42.1627514], [69.4877449, 42.1643304]]}}, {"type": "Feature", "properties": {"city": "shymkent", "overture_id": "d474f680-3503-42ec-98a3-06cb9b6c0168", "overture_version": 3, "subtype": "road", "class": "trunk", "subclass": null, "name_primary": null, "road_surface": [{"value": "paved", "between": [0.0, 0.842604983]}], "connectors": 2, "length_m_geodesic": 1935.9, "sources": [{"dataset": "OpenStreetMap", "license": "ODbL-1.0", "record_id": "r14475032@195", "update_time": null}, {"dataset": "OpenStreetMap", "license": "ODbL-1.0", "record_id": "r176922@1103", "update_time": null}, {"dataset": "OpenStreetMap", "license": "ODbL-1.0", "record_id": "r2822796@549", "update_time": null}, {"dataset": "OpenStreetMap", "license": "ODbL-1.0", "record_id": "r5864971@399", "update_time": null}, {"dataset": "OpenStreetMap", "license": "ODbL-1.0", "record_id": "r7215270@445", "update_time": null}, {"dataset": "OpenStreetMap", "license": "ODbL-1.0", "record_id": "w113610822@24", "update_time": "2025-11-24T11:30:45Z"}, {"dataset": "OpenStreetMap", "license": "ODbL-1.0", "record_id": "w113610831@17", "update_time": "2025-11-05T20:30:19Z"}]}, "geometry": {"type": "LineString", "coordinates": [[69.4875712, 42.1643519], [69.4846223, 42.1498314], [69.4840572, 42.1471207]]}}, {"type": "Feature", "properties": {"city": "shymkent", "overture_id": "be075a41-df23-43db-9ec3-9263cb0beff1", "overture_version": 1, "subtype": "road", "class": "track", "subclass": null, "name_primary": null, "road_surface": null, "connectors": 2, "length_m_geodesic": 691.7, "sources": [{"dataset": "OpenStreetMap", "license": "ODbL-1.0", "record_id": "w1492048374@1", "update_time": "2026-03-24T03:12:48Z"}]}, "geometry": {"type": "LineString", "coordinates": [[69.4874221, 42.1627514], [69.4876698, 42.1626817], [69.4879514, 42.1625068], [69.4887507, 42.16162], [69.4890055, 42.1613914], [69.4892925, 42.1612661], [69.4898289, 42.1612164], [69.4905746, 42.161113], [69.4910198, 42.1609818], [69.4912827, 42.1607552], [69.4914758, 42.1604808], [69.491567, 42.1600752], [69.4916421, 42.1596298], [69.4918299, 42.1592958], [69.4923019, 42.1583692]]}}, {"type": "Feature", "properties": {"city": "shymkent", "overture_id": "3ac9e22a-50ca-4dd4-b134-147b7e8ceced", "overture_version": 3, "subtype": "road", "class": "trunk", "subclass": null, "name_primary": null, "road_surface": [{"value": "paved", "between": null}], "connectors": 2, "length_m_geodesic": 1692.2, "sources": [{"dataset": "OpenStreetMap", "license": "ODbL-1.0", "record_id": "r14475032@195", "update_time": null}, {"dataset": "OpenStreetMap", "license": "ODbL-1.0", "record_id": "r176922@1103", "update_time": null}, {"dataset": "OpenStreetMap", "license": "ODbL-1.0", "record_id": "r2822796@549", "update_time": null}, {"dataset": "OpenStreetMap", "license": "ODbL-1.0", "record_id": "r5864971@399", "update_time": null}, {"dataset": "OpenStreetMap", "license": "ODbL-1.0", "record_id": "r7215270@445", "update_time": null}, {"dataset": "OpenStreetMap", "license": "ODbL-1.0", "record_id": "w113610822@24", "update_time": "2025-11-24T11:30:45Z"}]}, "geometry": {"type": "LineString", "coordinates": [[69.4949783, 42.1780589], [69.4918326, 42.1754345], [69.4910842, 42.1747348], [69.4906712, 42.1742975], [69.4902447, 42.1737648], [69.4898477, 42.1731684], [69.4894454, 42.1724667], [69.489145, 42.1717054], [69.4889894, 42.1712144], [69.4887534, 42.1701985], [69.4875712, 42.1643519]]}}, {"type": "Feature", "properties": {"city": "shymkent", "overture_id": "70554e77-42ef-4799-9964-aa1b3f74d265", "overture_version": 2, "subtype": "road", "class": "unclassified", "subclass": null, "name_primary": null, "road_surface": [{"value": "paved", "between": null}], "connectors": 2, "length_m_geodesic": 2564.9, "sources": [{"dataset": "OpenStreetMap", "license": "ODbL-1.0", "record_id": "w599453360@2", "update_time": "2025-06-15T04:02:11Z"}]}, "geometry": {"type": "LineString", "coordinates": [[69.4949783, 42.1780589], [69.4946676, 42.1782293], [69.4945201, 42.1782491], [69.4943511, 42.1782432], [69.4941983, 42.1781776], [69.4937476, 42.1778973], [69.4934285, 42.1777562], [69.4927821, 42.1775892], [69.4923851, 42.177464], [69.4888124, 42.1760627], [69.488638, 42.1759971], [69.4884396, 42.1759513], [69.4882464, 42.1759494], [69.4880694, 42.1759951], [69.4878978, 42.1761004], [69.4878012, 42.1762257], [69.4877717, 42.1763628], [69.4877663, 42.1765318], [69.4882867, 42.1836832], [69.4882625, 42.1838303], [69.4882089, 42.1839734], [69.4881257, 42.1841205], [69.4877073, 42.1847266], [69.4876268, 42.1847883], [69.487533, 42.184826], [69.487423, 42.1848201], [69.4826138, 42.1828385], [69.4825226, 42.1826557], [69.4780058, 42.1807615]]}}, {"type": "Feature", "properties": {"city": "shymkent", "overture_id": "87f79f0e-9007-4625-a4f8-ae933580a55a", "overture_version": 2, "subtype": "road", "class": "trunk", "subclass": "link", "name_primary": null, "road_surface": null, "connectors": 2, "length_m_geodesic": 14.6, "sources": [{"dataset": "OpenStreetMap", "license": "ODbL-1.0", "record_id": "w1447998095@1", "update_time": "2025-11-06T16:10:55Z"}]}, "geometry": {"type": "LineString", "coordinates": [[69.4877449, 42.1643304], [69.4875712, 42.1643519]]}}, {"type": "Feature", "properties": {"city": "shymkent", "overture_id": "2b67570c-fd1d-458b-b1e1-06a76f2942ce", "overture_version": 1, "subtype": "road", "class": "track", "subclass": null, "name_primary": null, "road_surface": null, "connectors": 4, "length_m_geodesic": 6792.5, "sources": [{"dataset": "OpenStreetMap", "license": "ODbL-1.0", "record_id": "w1423871308@1", "update_time": "2025-08-21T12:06:02Z"}]}, "geometry": {"type": "LineString", "coordinates": [[69.4911043, 42.2229769], [69.49058, 42.2223006], [69.4902635, 42.2220205], [69.4899604, 42.2215756], [69.4897726, 42.2212816], [69.4896412, 42.2209876], [69.4894414, 42.2206221], [69.4889505, 42.219761], [69.4876671, 42.2175651], [69.4876215, 42.2174419], [69.487423, 42.2171459], [69.4869295, 42.216548], [69.4866908, 42.2162679], [69.4863018, 42.2156978], [69.4860658, 42.21537], [69.4858485, 42.2150164], [69.4856554, 42.2147065], [69.4854382, 42.214337], [69.4852209, 42.2140013], [69.4849795, 42.2136], [69.4845772, 42.2130001], [69.4844243, 42.2127875], [69.4843411, 42.2126405], [69.4839656, 42.2120028], [69.4837779, 42.2117088], [69.4835418, 42.2113552], [69.4831824, 42.210785], [69.4828284, 42.2101552], [69.482359, 42.2093347], [69.4820505, 42.2088639], [69.4818065, 42.2084248], [69.4816589, 42.2081824], [69.4815651, 42.2080573], [69.4814175, 42.2078407], [69.4812915, 42.2075943], [69.4812003, 42.2074016], [69.4811091, 42.2072109], [69.4809884, 42.2070043], [69.4808757, 42.206746], [69.4807282, 42.2065056], [69.4806156, 42.2063089], [69.480397, 42.2060238], [69.4801797, 42.2056701], [69.4798028, 42.2050622], [69.4787782, 42.203432], [69.4782069, 42.2025379], [69.4775283, 42.2013457], [69.477067, 42.2005807], [69.4766512, 42.1998594], [69.475852, 42.198542], [69.4748247, 42.1969544], [69.4741139, 42.195774], [69.4737813, 42.1952236], [69.4737652, 42.19516], [69.4737866, 42.1951103], [69.4739637, 42.1950905], [69.4742748, 42.1950766], [69.4751063, 42.1949017], [69.4760665, 42.1947169], [69.4765198, 42.1946632], [69.4770455, 42.1946155], [69.4777241, 42.1946314], [69.4784537, 42.1946672], [69.4786227, 42.1947109], [69.479017, 42.1948957], [69.4794783, 42.1951759], [69.4801864, 42.195476], [69.4812727, 42.1958913], [69.4821659, 42.1962112], [69.4835418, 42.1968113], [69.4855481, 42.1977035], [69.487482, 42.1985977], [69.4895312, 42.1994461], [69.4903654, 42.1997859], [69.4913363, 42.200235], [69.4919077, 42.2004774], [69.4922832, 42.2006483], [69.4927552, 42.2008629], [69.4933051, 42.2011351], [69.4942304, 42.2016139], [69.4947615, 42.2018047], [69.4955581, 42.2021663], [69.496049, 42.2024445], [69.4965211, 42.2026889], [69.4968483, 42.202812], [69.4972855, 42.2029531], [69.4979319, 42.2032194], [69.4983825, 42.2033565], [69.4990236, 42.2034955], [69.5002761, 42.2039287], [69.5007133, 42.2040876], [69.5014644, 42.2044373], [69.5023334, 42.2048347], [69.5037335, 42.2053672], [69.5053482, 42.2060308], [69.5071346, 42.2068215], [69.5075422, 42.206889], [69.5081162, 42.2071036], [69.508937, 42.2073579], [69.5090872, 42.207344], [69.509275, 42.2072705], [69.5098138, 42.2068915]]}}, {"type": "Feature", "properties": {"city": "shymkent", "overture_id": "db29f9e3-93b4-4baf-b499-4fb782faf9f5", "overture_version": 1, "subtype": "road", "class": "track", "subclass": null, "name_primary": null, "road_surface": null, "connectors": 7, "length_m_geodesic": 5327.4, "sources": [{"dataset": "OpenStreetMap", "license": "ODbL-1.0", "record_id": "w1423871306@2", "update_time": "2025-08-21T12:21:27Z"}]}, "geometry": {"type": "LineString", "coordinates": [[69.4878173, 42.2229749], [69.4871736, 42.2225508], [69.4869375, 42.2223244], [69.4865805, 42.2219819], [69.4861869, 42.2216043], [69.485929, 42.2213114], [69.4854355, 42.2209777], [69.48484, 42.2207036], [69.4838932, 42.2201891], [69.4831288, 42.2198892], [69.4824099, 42.2197223], [69.4818628, 42.2195634], [69.481498, 42.2193767], [69.479937, 42.2186258], [69.478569, 42.2177558], [69.476847, 42.2167745], [69.4766915, 42.216697], [69.4763803, 42.2164388], [69.4762811, 42.21625], [69.4759646, 42.2160276], [69.4753611, 42.2157812], [69.4746315, 42.2155349], [69.474197, 42.2154833], [69.4739181, 42.2154157], [69.4736767, 42.2152012], [69.4734889, 42.2146509], [69.4734768, 42.2146182], [69.4733226, 42.2142019], [69.4730812, 42.2138026], [69.4729149, 42.2135603], [69.4725555, 42.2132424], [69.4719601, 42.2128491], [69.4706297, 42.2119829], [69.4694227, 42.2112876], [69.4688487, 42.2110095], [69.4684946, 42.2107592], [69.467985, 42.2103698], [69.467698, 42.2101075], [69.4671026, 42.2095572], [69.4664535, 42.2090367], [69.4660351, 42.2087208], [69.4659197, 42.2085579], [69.4657829, 42.2083135], [69.4657159, 42.2080493], [69.4655871, 42.2078665], [69.4652331, 42.2076122], [69.4648656, 42.2073818], [69.4646108, 42.2071851], [69.4639993, 42.2065354], [69.463377, 42.2061341], [69.4627252, 42.2058003], [69.4623014, 42.2054407], [69.461883, 42.2050453], [69.4616416, 42.2047254], [69.4610381, 42.2041989], [69.4606358, 42.2038273], [69.4596407, 42.2030346], [69.4586509, 42.2022835], [69.4582218, 42.2020431], [69.4579241, 42.201906], [69.457283, 42.2016795], [69.4567278, 42.2014689], [69.4563603, 42.2013179], [69.4560465, 42.2011549], [69.4556281, 42.2007953], [69.4545874, 42.2000323], [69.4533482, 42.199003], [69.4525596, 42.1984546], [69.4518489, 42.198089], [69.4513634, 42.1978029], [69.4509906, 42.1975724], [69.4507626, 42.1973776], [69.4504729, 42.1971412], [69.4501162, 42.1968968], [69.4496521, 42.1966762], [69.4492203, 42.1965947], [69.4489199, 42.1966086], [69.4482842, 42.196706], [69.4477129, 42.1969146], [69.4472623, 42.1970597], [69.4468412, 42.1971213], [69.4465005, 42.1971591], [69.4460714, 42.1971769], [69.4449261, 42.1972604], [69.4444272, 42.1972683], [69.4436601, 42.1972385], [69.4431961, 42.1972127], [69.4429171, 42.1972087], [69.4423324, 42.197316], [69.4410261, 42.1976459], [69.4400766, 42.197781], [69.4393927, 42.1978982], [69.4385719, 42.1979837]]}}, {"type": "Feature", "properties": {"city": "shymkent", "overture_id": "bb41e3ed-d0f4-4eda-9dcc-df42d8fb6b22", "overture_version": 1, "subtype": "road", "class": "track", "subclass": null, "name_primary": null, "road_surface": null, "connectors": 2, "length_m_geodesic": 6765.5, "sources": [{"dataset": "OpenStreetMap", "license": "ODbL-1.0", "record_id": "w1423874136@2", "update_time": "2025-08-21T12:24:06Z"}]}, "geometry": {"type": "LineString", "coordinates": [[69.4734768, 42.2146182], [69.4734353, 42.2140073], [69.4733763, 42.2137987], [69.4733414, 42.2136139], [69.4732019, 42.21331], [69.4730169, 42.2128411], [69.4728559, 42.2123942], [69.4726145, 42.2116134], [69.4725206, 42.2111843], [69.4725341, 42.2110115], [69.4725367, 42.2107612], [69.4725153, 42.2106042], [69.4724724, 42.2104155], [69.4720647, 42.2096725], [69.4719091, 42.2092513], [69.4715765, 42.2084705], [69.4714317, 42.2082778], [69.4712359, 42.2080871], [69.4708067, 42.207803], [69.4695032, 42.2068712], [69.4692805, 42.2066943], [69.4691411, 42.2065294], [69.4688997, 42.2060943], [69.4683659, 42.2052817], [69.4676122, 42.2041294], [69.4672126, 42.2035969], [69.4671348, 42.203428], [69.4670355, 42.2030246], [69.4668639, 42.2024902], [69.4662791, 42.2009364], [69.4661665, 42.2007218], [69.4660914, 42.2005191], [69.4659197, 42.2000303], [69.4654262, 42.1986394], [69.4648468, 42.1973399], [69.4643533, 42.1962947], [69.4640797, 42.1958019], [69.4639134, 42.1955634], [69.4636452, 42.1952852], [69.4634145, 42.1949752], [69.4633126, 42.1947646], [69.4631141, 42.194546], [69.4627279, 42.1942996], [69.4621271, 42.1940293], [69.4615799, 42.1939141], [69.4605499, 42.1938068], [69.4595307, 42.1937034], [69.4590908, 42.1935484], [69.4588762, 42.1933338], [69.4585973, 42.1929006], [69.4584095, 42.1927138], [69.4581735, 42.1924634], [69.4580662, 42.1922408], [69.4579321, 42.1919785], [69.4575781, 42.1916645], [69.4570202, 42.1910207], [69.4565266, 42.1905278], [69.4558668, 42.1900151], [69.4554698, 42.1895739], [69.4547778, 42.1887512], [69.4544184, 42.1882821], [69.4537908, 42.1877416], [69.4534528, 42.1874355], [69.4526428, 42.1865849], [69.4523263, 42.1862351], [69.4518489, 42.1857979], [69.4515806, 42.1855475], [69.4513607, 42.1854004], [69.4508082, 42.1852136], [69.4500893, 42.1849035], [69.449349, 42.1845378], [69.4492578, 42.1844226], [69.4492096, 42.1841761], [69.4492149, 42.1839933], [69.4491506, 42.1838462], [69.4490218, 42.183719], [69.4487375, 42.1835083], [69.4485551, 42.1834328], [69.4483781, 42.1833851], [69.4477558, 42.1833414], [69.4474661, 42.1833453], [69.4469136, 42.1833016], [69.4464415, 42.1832778], [69.4460231, 42.1831903], [69.445653, 42.1830432], [69.4453633, 42.1829478], [69.4452131, 42.1829359], [69.4450146, 42.1829399], [69.4448751, 42.1828723], [69.4446605, 42.1827372], [69.4444299, 42.1826736], [69.4441724, 42.1826616], [69.4437271, 42.1826895], [69.443239, 42.1828047], [69.4429171, 42.1829876], [69.4427615, 42.1830711], [69.4425791, 42.1831903], [69.4424236, 42.1833453], [69.442268, 42.1836117], [69.4418389, 42.1844742], [69.441576, 42.1849671], [69.4411831, 42.1855306], [69.4410959, 42.1856766], [69.4408371, 42.1859668], [69.4406024, 42.1862411], [69.440487, 42.1864498], [69.4402657, 42.1868979], [69.4401732, 42.1871712], [69.4400968, 42.1874723], [69.4399466, 42.187984], [69.4398084, 42.1883984], [69.4397105, 42.1887889], [69.4396341, 42.1893215], [69.4395898, 42.1897508], [69.4394034, 42.190961], [69.4393766, 42.1914022], [69.4394356, 42.1919388], [69.4394249, 42.1923839], [69.4394034, 42.1927456], [69.4393605, 42.1928748], [69.4393659, 42.1929542], [69.439382, 42.1930755], [69.4393444, 42.1932941], [69.4392961, 42.1935762], [69.4393444, 42.1938227], [69.439441, 42.1940333], [69.4395013, 42.1941853], [69.4394812, 42.1943403], [69.4394772, 42.1944387], [69.4395147, 42.1944933], [69.4396462, 42.1945519], [69.4399452, 42.1946851], [69.440027, 42.1947596], [69.440141, 42.1949434], [69.4402215, 42.195009], [69.4405179, 42.1950855], [69.4411214, 42.1952127], [69.4416431, 42.195315], [69.4422412, 42.1955177], [69.4425268, 42.1956091], [69.4428152, 42.195775], [69.4432108, 42.195941], [69.4437177, 42.196086], [69.4440383, 42.1961993], [69.4445063, 42.1964715], [69.4448537, 42.1965739], [69.4454491, 42.1967338], [69.4461384, 42.1969385], [69.4468412, 42.1971213]]}}, {"type": "Feature", "properties": {"city": "shymkent", "overture_id": "e5cc22f9-3c54-4c17-82ca-ca1c71559a84", "overture_version": 1, "subtype": "road", "class": "unclassified", "subclass": null, "name_primary": null, "road_surface": [{"value": "gravel", "between": null}], "connectors": 3, "length_m_geodesic": 337.5, "sources": [{"dataset": "OpenStreetMap", "license": "ODbL-1.0", "record_id": "w561241653@3", "update_time": "2023-08-27T16:56:34Z"}]}, "geometry": {"type": "LineString", "coordinates": [[69.3752718, 42.2511786], [69.3740272, 42.2509483], [69.3725842, 42.250992], [69.3715274, 42.2503527]]}}, {"type": "Feature", "properties": {"city": "shymkent", "overture_id": "8a09e119-2434-434d-9393-36e456494747", "overture_version": 1, "subtype": "road", "class": "unclassified", "subclass": null, "name_primary": null, "road_surface": [{"value": "paved", "between": [0.0, 0.662631152]}, {"value": "gravel", "between": [0.662631152, 1.0]}], "connectors": 2, "length_m_geodesic": 1426.3, "sources": [{"dataset": "OpenStreetMap", "license": "ODbL-1.0", "record_id": "w1202580327@1", "update_time": "2023-08-27T16:56:34Z"}, {"dataset": "OpenStreetMap", "license": "ODbL-1.0", "record_id": "w561241653@3", "update_time": "2023-08-27T16:56:34Z"}]}, "geometry": {"type": "LineString", "coordinates": [[69.382985, 42.2623392], [69.3823145, 42.2619425], [69.3817996, 42.2610849], [69.3799971, 42.2562571], [69.3793273, 42.2548793], [69.3789352, 42.2545264], [69.3777394, 42.2534499], [69.3769776, 42.2525128], [69.3760979, 42.2517742], [69.3752718, 42.2511786]]}}, {"type": "Feature", "properties": {"city": "shymkent", "overture_id": "9358751e-23e6-4fd1-a2d8-1bec276c236b", "overture_version": 1, "subtype": "road", "class": "service", "subclass": null, "name_primary": null, "road_surface": null, "connectors": 2, "length_m_geodesic": 233.7, "sources": [{"dataset": "OpenStreetMap", "license": "ODbL-1.0", "record_id": "w1357812270@1", "update_time": "2025-02-07T15:27:24Z"}]}, "geometry": {"type": "LineString", "coordinates": [[69.3766364, 42.3738778], [69.3764123, 42.3717802]]}}, {"type": "Feature", "properties": {"city": "shymkent", "overture_id": "61b8adfd-ecd2-427b-8e78-ff62cb79394b", "overture_version": 1, "subtype": "road", "class": "service", "subclass": null, "name_primary": null, "road_surface": null, "connectors": 2, "length_m_geodesic": 54.7, "sources": [{"dataset": "OpenStreetMap", "license": "ODbL-1.0", "record_id": "w1357816266@1", "update_time": "2025-02-07T15:50:55Z"}]}, "geometry": {"type": "LineString", "coordinates": [[69.376157, 42.3773737], [69.3754936, 42.3773429]]}}, {"type": "Feature", "properties": {"city": "shymkent", "overture_id": "f5cfb1c8-d611-4f83-97c8-1bc4156d3923", "overture_version": 1, "subtype": "road", "class": "path", "subclass": null, "name_primary": null, "road_surface": null, "connectors": 4, "length_m_geodesic": 144.5, "sources": [{"dataset": "OpenStreetMap", "license": "ODbL-1.0", "record_id": "w1360080884@1", "update_time": "2025-02-15T13:16:58Z"}]}, "geometry": {"type": "LineString", "coordinates": [[69.3957036, 42.3710553], [69.3959445, 42.3715716], [69.3960472, 42.3718407], [69.3961967, 42.3719511], [69.3965796, 42.372096]]}}, {"type": "Feature", "properties": {"city": "shymkent", "overture_id": "25f72bda-d46f-446d-8114-b187b3a4c975", "overture_version": 1, "subtype": "road", "class": "path", "subclass": null, "name_primary": null, "road_surface": null, "connectors": 3, "length_m_geodesic": 704.8, "sources": [{"dataset": "OpenStreetMap", "license": "ODbL-1.0", "record_id": "w1360118110@1", "update_time": "2025-02-15T16:30:34Z"}]}, "geometry": {"type": "LineString", "coordinates": [[69.3961967, 42.3719511], [69.3962754, 42.3721236], [69.3964412, 42.3724479], [69.3965813, 42.3726204], [69.3967587, 42.372993], [69.3968054, 42.373683], [69.3968615, 42.3738072], [69.397151, 42.3741315], [69.3973561, 42.3744449], [69.3977858, 42.3751211], [69.3978512, 42.3753764], [69.3978231, 42.3761975], [69.3979072, 42.3763424], [69.3979076, 42.3780161]]}}, {"type": "Feature", "properties": {"city": "shymkent", "overture_id": "82d45c9d-1455-4457-bd3c-eb5c3b9c7717", "overture_version": 1, "subtype": "road", "class": "path", "subclass": null, "name_primary": null, "road_surface": null, "connectors": 3, "length_m_geodesic": 1117.3, "sources": [{"dataset": "OpenStreetMap", "license": "ODbL-1.0", "record_id": "w1357850596@1", "update_time": "2025-02-07T18:57:29Z"}, {"dataset": "OpenStreetMap", "license": "ODbL-1.0", "record_id": "w1357850595@1", "update_time": "2025-02-07T18:57:29Z"}, {"dataset": "OpenStreetMap", "license": "ODbL-1.0", "record_id": "w1357850594@2", "update_time": "2025-02-15T16:30:34Z"}]}, "geometry": {"type": "LineString", "coordinates": [[69.400786, 42.3697817], [69.4007904, 42.3698798], [69.4008392, 42.370024], [69.4008474, 42.3701501], [69.4008067, 42.3702823], [69.4007417, 42.3703544], [69.4005546, 42.3704205], [69.4004652, 42.3704745], [69.3994082, 42.370853], [69.3993513, 42.370907], [69.3986454, 42.3711093], [69.3985147, 42.3712266], [69.3985894, 42.3717165], [69.3994206, 42.3728964], [69.3998596, 42.3731862], [69.4000744, 42.3736347], [69.4004049, 42.3740368], [69.4004667, 42.3742005], [69.4006162, 42.3743592], [69.4007749, 42.3758565], [69.400859, 42.3768984], [69.4010336, 42.3783479]]}}, {"type": "Feature", "properties": {"city": "shymkent", "overture_id": "e5834865-cb66-41a2-a2e3-e95dcdfbf15e", "overture_version": 1, "subtype": "road", "class": "path", "subclass": null, "name_primary": null, "road_surface": null, "connectors": 2, "length_m_geodesic": 88.5, "sources": [{"dataset": "OpenStreetMap", "license": "ODbL-1.0", "record_id": "w1360080885@1", "update_time": "2025-02-15T13:16:58Z"}]}, "geometry": {"type": "LineString", "coordinates": [[69.3959445, 42.3715716], [69.3958511, 42.3718683], [69.3958044, 42.371958], [69.3956643, 42.3720546], [69.3954588, 42.3721167], [69.3954121, 42.3721995]]}}, {"type": "Feature", "properties": {"city": "shymkent", "overture_id": "7a169c93-6d22-482e-8bef-d68f2eca3d7f", "overture_version": 9, "subtype": "road", "class": "trunk", "subclass": null, "name_primary": null, "road_surface": [{"value": "paved", "between": null}], "connectors": 4, "length_m_geodesic": 497.9, "sources": [{"dataset": "OpenStreetMap", "license": "ODbL-1.0", "record_id": "r14484086@63", "update_time": null}, {"dataset": "OpenStreetMap", "license": "ODbL-1.0", "record_id": "r2223656@712", "update_time": null}, {"dataset": "OpenStreetMap", "license": "ODbL-1.0", "record_id": "r3309743@243", "update_time": null}, {"dataset": "OpenStreetMap", "license": "ODbL-1.0", "record_id": "r3972952@732", "update_time": null}, {"dataset": "OpenStreetMap", "license": "ODbL-1.0", "record_id": "r5864971@399", "update_time": null}, {"dataset": "OpenStreetMap", "license": "ODbL-1.0", "record_id": "r7215270@445", "update_time": null}, {"dataset": "OpenStreetMap", "license": "ODbL-1.0", "record_id": "w1009907852@21", "update_time": "2025-11-21T18:18:10Z"}]}, "geometry": {"type": "LineString", "coordinates": [[69.4345881, 42.4290968], [69.433229, 42.430283], [69.4318274, 42.4315071], [69.4306738, 42.4325143]]}}, {"type": "Feature", "properties": {"city": "shymkent", "overture_id": "b27d4904-4611-4674-b57a-9aa86c922a2f", "overture_version": 2, "subtype": "road", "class": "primary", "subclass": null, "name_primary": null, "road_surface": [{"value": "paved", "between": null}], "connectors": 6, "length_m_geodesic": 1128.7, "sources": [{"dataset": "OpenStreetMap", "license": "ODbL-1.0", "record_id": "r18536995@3", "update_time": null}, {"dataset": "OpenStreetMap", "license": "ODbL-1.0", "record_id": "w400711790@27", "update_time": "2026-01-09T10:10:13Z"}]}, "geometry": {"type": "LineString", "coordinates": [[69.4276848, 42.3972365], [69.4284229, 42.397222], [69.4290419, 42.397272], [69.4296373, 42.397348], [69.4301971, 42.3974596], [69.4306944, 42.3975865], [69.4355768, 42.3989465], [69.4362843, 42.3991436], [69.4370805, 42.3993428], [69.4374678, 42.3994298], [69.4376467, 42.39947], [69.4381195, 42.399542], [69.4386402, 42.3995755], [69.4393009, 42.3995814], [69.440868, 42.3995322]]}}, {"type": "Feature", "properties": {"city": "shymkent", "overture_id": "ff8958bc-4f27-411e-b7d9-c1fa5a7e10cc", "overture_version": 2, "subtype": "road", "class": "primary", "subclass": null, "name_primary": null, "road_surface": [{"value": "paved", "between": null}], "connectors": 2, "length_m_geodesic": 243.3, "sources": [{"dataset": "OpenStreetMap", "license": "ODbL-1.0", "record_id": "r18536995@3", "update_time": null}, {"dataset": "OpenStreetMap", "license": "ODbL-1.0", "record_id": "w400711790@27", "update_time": "2026-01-09T10:10:13Z"}]}, "geometry": {"type": "LineString", "coordinates": [[69.4224328, 42.3975025], [69.4242053, 42.3973978], [69.4253801, 42.3973483]]}}, {"type": "Feature", "properties": {"city": "shymkent", "overture_id": "dce3c651-bb2f-4725-ae25-1575d673756b", "overture_version": 2, "subtype": "road", "class": "primary", "subclass": null, "name_primary": null, "road_surface": [{"value": "paved", "between": null}], "connectors": 2, "length_m_geodesic": 190.2, "sources": [{"dataset": "OpenStreetMap", "license": "ODbL-1.0", "record_id": "r18536995@3", "update_time": null}, {"dataset": "OpenStreetMap", "license": "ODbL-1.0", "record_id": "w400711790@27", "update_time": "2026-01-09T10:10:13Z"}]}, "geometry": {"type": "LineString", "coordinates": [[69.4253801, 42.3973483], [69.4276848, 42.3972365]]}}, {"type": "Feature", "properties": {"city": "shymkent", "overture_id": "e915a1b4-5529-41ca-802a-4bb53d10d858", "overture_version": 2, "subtype": "road", "class": "primary", "subclass": null, "name_primary": null, "road_surface": [{"value": "paved", "between": null}], "connectors": 4, "length_m_geodesic": 229.2, "sources": [{"dataset": "OpenStreetMap", "license": "ODbL-1.0", "record_id": "r18536995@3", "update_time": null}, {"dataset": "OpenStreetMap", "license": "ODbL-1.0", "record_id": "w400711790@27", "update_time": "2026-01-09T10:10:13Z"}]}, "geometry": {"type": "LineString", "coordinates": [[69.4196616, 42.3974887], [69.4202312, 42.3975464], [69.4207302, 42.3975866], [69.4212337, 42.3975818], [69.4218111, 42.3975436], [69.4224328, 42.3975025]]}}, {"type": "Feature", "properties": {"city": "shymkent", "overture_id": "acb57b2f-3058-4d69-a684-5f7abc9fd3f0", "overture_version": 2, "subtype": "road", "class": "primary", "subclass": null, "name_primary": null, "road_surface": [{"value": "paved", "between": null}], "connectors": 4, "length_m_geodesic": 139.9, "sources": [{"dataset": "OpenStreetMap", "license": "ODbL-1.0", "record_id": "r18536995@3", "update_time": null}, {"dataset": "OpenStreetMap", "license": "ODbL-1.0", "record_id": "w400711790@27", "update_time": "2026-01-09T10:10:13Z"}]}, "geometry": {"type": "LineString", "coordinates": [[69.4128237, 42.3965165], [69.4135601, 42.3966262], [69.4142515, 42.3967292], [69.41449, 42.3967647]]}}, {"type": "Feature", "properties": {"city": "shymkent", "overture_id": "68ec8f89-e891-46ed-aebc-f3efbd2a03a4", "overture_version": 2, "subtype": "road", "class": "primary", "subclass": null, "name_primary": null, "road_surface": [{"value": "paved", "between": null}], "connectors": 2, "length_m_geodesic": 182.2, "sources": [{"dataset": "OpenStreetMap", "license": "ODbL-1.0", "record_id": "r18536995@3", "update_time": null}, {"dataset": "OpenStreetMap", "license": "ODbL-1.0", "record_id": "w400711790@27", "update_time": "2026-01-09T10:10:13Z"}]}, "geometry": {"type": "LineString", "coordinates": [[69.41449, 42.3967647], [69.4166629, 42.397077]]}}, {"type": "Feature", "properties": {"city": "shymkent", "overture_id": "a445926c-40fa-40e8-81ba-250f551484b2", "overture_version": 2, "subtype": "road", "class": "primary", "subclass": null, "name_primary": null, "road_surface": [{"value": "paved", "between": null}], "connectors": 3, "length_m_geodesic": 251.1, "sources": [{"dataset": "OpenStreetMap", "license": "ODbL-1.0", "record_id": "r18536995@3", "update_time": null}, {"dataset": "OpenStreetMap", "license": "ODbL-1.0", "record_id": "w400711790@27", "update_time": "2026-01-09T10:10:13Z"}]}, "geometry": {"type": "LineString", "coordinates": [[69.4166629, 42.397077], [69.4195776, 42.3974772], [69.4196616, 42.3974887]]}}, {"type": "Feature", "properties": {"city": "shymkent", "overture_id": "307e3cd8-354c-4aa8-9fb7-4b0d2e635fdc", "overture_version": 1, "subtype": "road", "class": "path", "subclass": null, "name_primary": null, "road_surface": null, "connectors": 4, "length_m_geodesic": 194.5, "sources": [{"dataset": "OpenStreetMap", "license": "ODbL-1.0", "record_id": "w1357850593@1", "update_time": "2025-02-07T18:57:29Z"}]}, "geometry": {"type": "LineString", "coordinates": [[69.4106451, 42.3681557], [69.4106725, 42.3681949], [69.4107063, 42.3682433], [69.4107752, 42.3683419], [69.4111086, 42.3695975], [69.4111005, 42.3697056], [69.4112062, 42.3698378]]}}, {"type": "Feature", "properties": {"city": "shymkent", "overture_id": "eba7fa85-93f0-4f1a-889a-632dc96a8f0a", "overture_version": 1, "subtype": "road", "class": "path", "subclass": null, "name_primary": null, "road_surface": null, "connectors": 4, "length_m_geodesic": 1519.3, "sources": [{"dataset": "OpenStreetMap", "license": "ODbL-1.0", "record_id": "w1357850592@1", "update_time": "2025-02-07T18:57:29Z"}]}, "geometry": {"type": "LineString", "coordinates": [[69.4053682, 42.3690568], [69.4058723, 42.3689727], [69.4069781, 42.3687745], [69.4106451, 42.3681557], [69.4121575, 42.3678794], [69.4146049, 42.3674589], [69.4147208, 42.3674312], [69.4148814, 42.3673928], [69.4166864, 42.3670804], [69.4172475, 42.3670023], [69.42324, 42.365963], [69.4232699, 42.3658997]]}}, {"type": "Feature", "properties": {"city": "shymkent", "overture_id": "1471e52b-9890-4bed-925f-d8401b02c55c", "overture_version": 1, "subtype": "road", "class": "footway", "subclass": "sidewalk", "name_primary": null, "road_surface": null, "connectors": 2, "length_m_geodesic": 230.8, "sources": [{"dataset": "OpenStreetMap", "license": "ODbL-1.0", "record_id": "w1360080855@1", "update_time": "2025-02-15T13:16:58Z"}]}, "geometry": {"type": "LineString", "coordinates": [[69.4238816, 42.37311], [69.4238629, 42.3732066], [69.4233586, 42.3733308], [69.4232839, 42.3732894], [69.4231624, 42.372972], [69.4230784, 42.3729513], [69.4216307, 42.3732756]]}}, {"type": "Feature", "properties": {"city": "shymkent", "overture_id": "f40f70a6-5505-4fac-9b85-a28d35801288", "overture_version": 1, "subtype": "road", "class": "footway", "subclass": "sidewalk", "name_primary": null, "road_surface": null, "connectors": 2, "length_m_geodesic": 65.0, "sources": [{"dataset": "OpenStreetMap", "license": "ODbL-1.0", "record_id": "w1360080860@1", "update_time": "2025-02-15T13:16:58Z"}]}, "geometry": {"type": "LineString", "coordinates": [[69.4216612, 42.3751431], [69.4208928, 42.3752766]]}}, {"type": "Feature", "properties": {"city": "shymkent", "overture_id": "85b4e8f5-acec-4cf3-a2ea-4f56d01c6831", "overture_version": 1, "subtype": "road", "class": "footway", "subclass": "sidewalk", "name_primary": null, "road_surface": null, "connectors": 3, "length_m_geodesic": 168.6, "sources": [{"dataset": "OpenStreetMap", "license": "ODbL-1.0", "record_id": "w1360080859@1", "update_time": "2025-02-15T13:16:58Z"}]}, "geometry": {"type": "LineString", "coordinates": [[69.421871, 42.3757118], [69.4216612, 42.3751431], [69.4214252, 42.3745038], [69.4210796, 42.3745728]]}}, {"type": "Feature", "properties": {"city": "shymkent", "overture_id": "b152b327-3821-411d-abeb-f9b16f42f046", "overture_version": 1, "subtype": "road", "class": "footway", "subclass": "sidewalk", "name_primary": null, "road_surface": null, "connectors": 3, "length_m_geodesic": 195.1, "sources": [{"dataset": "OpenStreetMap", "license": "ODbL-1.0", "record_id": "w1360080858@1", "update_time": "2025-02-15T13:16:58Z"}]}, "geometry": {"type": "LineString", "coordinates": [[69.4232996, 42.3749988], [69.4234426, 42.3753801], [69.421871, 42.3757118], [69.4216774, 42.3757527]]}}, {"type": "Feature", "properties": {"city": "shymkent", "overture_id": "088a0d01-9e0c-4e46-80f8-fa78b6594031", "overture_version": 1, "subtype": "road", "class": "footway", "subclass": "sidewalk", "name_primary": null, "road_surface": null, "connectors": 2, "length_m_geodesic": 67.3, "sources": [{"dataset": "OpenStreetMap", "license": "ODbL-1.0", "record_id": "w1360080862@1", "update_time": "2025-02-15T13:16:58Z"}]}, "geometry": {"type": "LineString", "coordinates": [[69.4244501, 42.3754879], [69.4241992, 42.3755457], [69.4241338, 42.3754077], [69.4240591, 42.3753732], [69.4237976, 42.3754215]]}}, {"type": "Feature", "properties": {"city": "shymkent", "overture_id": "469f5c6a-bd2d-42d5-a782-9ce4b5d62e74", "overture_version": 1, "subtype": "road", "class": "footway", "subclass": "sidewalk", "name_primary": null, "road_surface": null, "connectors": 2, "length_m_geodesic": 64.3, "sources": [{"dataset": "OpenStreetMap", "license": "ODbL-1.0", "record_id": "w1360080854@1", "update_time": "2025-02-15T13:16:58Z"}]}, "geometry": {"type": "LineString", "coordinates": [[69.4241618, 42.3730548], [69.423974, 42.3724931]]}}, {"type": "Feature", "properties": {"city": "shymkent", "overture_id": "fc951ae4-18cd-4ab0-8a01-5e2587ca5a5f", "overture_version": 1, "subtype": "road", "class": "footway", "subclass": "sidewalk", "name_primary": null, "road_surface": null, "connectors": 2, "length_m_geodesic": 66.8, "sources": [{"dataset": "OpenStreetMap", "license": "ODbL-1.0", "record_id": "w1360080843@1", "update_time": "2025-02-15T13:16:58Z"}]}, "geometry": {"type": "LineString", "coordinates": [[69.4291765, 42.3747844], [69.4299631, 42.3746392]]}}, {"type": "Feature", "properties": {"city": "shymkent", "overture_id": "d5986291-7abb-4190-8979-b9b57b71e5db", "overture_version": 1, "subtype": "road", "class": "footway", "subclass": "sidewalk", "name_primary": null, "road_surface": null, "connectors": 2, "length_m_geodesic": 40.6, "sources": [{"dataset": "OpenStreetMap", "license": "ODbL-1.0", "record_id": "w1360080865@1", "update_time": "2025-02-15T13:16:58Z"}]}, "geometry": {"type": "LineString", "coordinates": [[69.4276176, 42.3749454], [69.4275055, 42.3746694], [69.4275989, 42.3746349]]}}, {"type": "Feature", "properties": {"city": "shymkent", "overture_id": "8187b4f3-60a7-418b-a1f4-db4d6f449afb", "overture_version": 1, "subtype": "road", "class": "trunk", "subclass": "link", "name_primary": null, "road_surface": [{"value": "paved", "between": null}], "connectors": 2, "length_m_geodesic": 462.8, "sources": [{"dataset": "OpenStreetMap", "license": "ODbL-1.0", "record_id": "w1013335548@5", "update_time": "2025-02-15T16:15:41Z"}]}, "geometry": {"type": "LineString", "coordinates": [[69.4547523, 42.4039714], [69.4547671, 42.4036539], [69.4540001, 42.4009226], [69.4538942, 42.4007871], [69.4537106, 42.4006762], [69.452768, 42.4004747]]}}, {"type": "Feature", "properties": {"city": "shymkent", "overture_id": "bf0940c1-d1ca-4697-9ebe-bf7e8fb955a7", "overture_version": 2, "subtype": "road", "class": "primary", "subclass": null, "name_primary": null, "road_surface": [{"value": "paved", "between": null}], "connectors": 2, "length_m_geodesic": 250.7, "sources": [{"dataset": "OpenStreetMap", "license": "ODbL-1.0", "record_id": "w244805260@7", "update_time": "2026-01-09T10:10:13Z"}]}, "geometry": {"type": "LineString", "coordinates": [[69.452768, 42.4004747], [69.4557673, 42.4008651]]}}, {"type": "Feature", "properties": {"city": "shymkent", "overture_id": "8c166542-c14f-49b0-afc0-5fcd1296ec3e", "overture_version": 1, "subtype": "road", "class": "tertiary", "subclass": null, "name_primary": null, "road_surface": null, "connectors": 2, "length_m_geodesic": 93.0, "sources": [{"dataset": "OpenStreetMap", "license": "ODbL-1.0", "record_id": "w279787747@23", "update_time": "2026-08-18T23:31:19Z"}]}, "geometry": {"type": "LineString", "coordinates": [[69.496279, 42.3891784], [69.4957873, 42.3884251]]}}, {"type": "Feature", "properties": {"city": "shymkent", "overture_id": "a40deee1-025d-41c8-a6fd-25ecf93c1740", "overture_version": 1, "subtype": "road", "class": "tertiary", "subclass": null, "name_primary": null, "road_surface": null, "connectors": 2, "length_m_geodesic": 15.2, "sources": [{"dataset": "OpenStreetMap", "license": "ODbL-1.0", "record_id": "w279787747@23", "update_time": "2026-08-18T23:31:19Z"}]}, "geometry": {"type": "LineString", "coordinates": [[69.4957873, 42.3884251], [69.495713, 42.3883]]}}, {"type": "Feature", "properties": {"city": "shymkent", "overture_id": "74ac9cbf-e952-429a-9f76-a96cb0886564", "overture_version": 1, "subtype": "road", "class": "tertiary", "subclass": null, "name_primary": null, "road_surface": null, "connectors": 2, "length_m_geodesic": 72.6, "sources": [{"dataset": "OpenStreetMap", "license": "ODbL-1.0", "record_id": "w279787747@23", "update_time": "2026-08-18T23:31:19Z"}]}, "geometry": {"type": "LineString", "coordinates": [[69.495713, 42.3883], [69.4953244, 42.3877133]]}}, {"type": "Feature", "properties": {"city": "shymkent", "overture_id": "80f82122-c12b-4d40-8240-eac854a73753", "overture_version": 1, "subtype": "road", "class": "tertiary", "subclass": null, "name_primary": null, "road_surface": null, "connectors": 2, "length_m_geodesic": 27.3, "sources": [{"dataset": "OpenStreetMap", "license": "ODbL-1.0", "record_id": "w279787747@23", "update_time": "2026-08-18T23:31:19Z"}]}, "geometry": {"type": "LineString", "coordinates": [[69.49522, 42.3875557], [69.4950757, 42.3873347]]}}, {"type": "Feature", "properties": {"city": "shymkent", "overture_id": "3ffda966-b6b2-4c06-b2da-82487bd42ece", "overture_version": 1, "subtype": "road", "class": "tertiary", "subclass": null, "name_primary": null, "road_surface": null, "connectors": 2, "length_m_geodesic": 19.5, "sources": [{"dataset": "OpenStreetMap", "license": "ODbL-1.0", "record_id": "w279787747@23", "update_time": "2026-08-18T23:31:19Z"}]}, "geometry": {"type": "LineString", "coordinates": [[69.4953244, 42.3877133], [69.49522, 42.3875557]]}}, {"type": "Feature", "properties": {"city": "shymkent", "overture_id": "bce77828-dbaf-423b-bfe5-a3c78f0274dc", "overture_version": 1, "subtype": "road", "class": "tertiary", "subclass": null, "name_primary": null, "road_surface": null, "connectors": 2, "length_m_geodesic": 58.4, "sources": [{"dataset": "OpenStreetMap", "license": "ODbL-1.0", "record_id": "w279787747@23", "update_time": "2026-08-18T23:31:19Z"}]}, "geometry": {"type": "LineString", "coordinates": [[69.4950757, 42.3873347], [69.4947858, 42.3868904], [69.4947615, 42.3868641]]}}, {"type": "Feature", "properties": {"city": "shymkent", "overture_id": "1282ff78-447e-401e-82a1-c3355f97c4fb", "overture_version": 1, "subtype": "road", "class": "tertiary", "subclass": null, "name_primary": null, "road_surface": null, "connectors": 2, "length_m_geodesic": 39.3, "sources": [{"dataset": "OpenStreetMap", "license": "ODbL-1.0", "record_id": "w279787747@23", "update_time": "2026-08-18T23:31:19Z"}]}, "geometry": {"type": "LineString", "coordinates": [[69.4947615, 42.3868641], [69.4944917, 42.3865723]]}}, {"type": "Feature", "properties": {"city": "shymkent", "overture_id": "bc9b09b2-36d5-4024-9beb-c2a5b79534fc", "overture_version": 2, "subtype": "road", "class": "unclassified", "subclass": null, "name_primary": null, "road_surface": null, "connectors": 2, "length_m_geodesic": 378.7, "sources": [{"dataset": "OpenStreetMap", "license": "ODbL-1.0", "record_id": "w1201618870@1", "update_time": "2026-04-21T13:52:33Z"}]}, "geometry": {"type": "LineString", "coordinates": [[69.4855374, 42.3976089], [69.4854811, 42.3977356], [69.4841775, 42.3993163], [69.4831744, 42.4005304]]}}, {"type": "Feature", "properties": {"city": "shymkent", "overture_id": "4ebfc438-b431-4b34-b385-d31dfeff794c", "overture_version": 1, "subtype": "road", "class": "unknown", "subclass": null, "name_primary": null, "road_surface": null, "connectors": 2, "length_m_geodesic": 259.9, "sources": [{"dataset": "TomTom", "license": "ODbL-1.0", "record_id": null, "update_time": null}]}, "geometry": {"type": "LineString", "coordinates": [[69.4679209, 42.3962437], [69.4661184, 42.3981643]]}}, {"type": "Feature", "properties": {"city": "shymkent", "overture_id": "8c751104-3b0a-4dde-94cb-8c038b921ff2", "overture_version": 2, "subtype": "road", "class": "cycleway", "subclass": "cycle_crossing", "name_primary": null, "road_surface": null, "connectors": 4, "length_m_geodesic": 49.1, "sources": [{"dataset": "OpenStreetMap", "license": "ODbL-1.0", "record_id": "w1383685051@1", "update_time": "2025-08-09T16:45:00Z"}]}, "geometry": {"type": "LineString", "coordinates": [[69.488243, 42.3804759], [69.4884557, 42.3804084], [69.4886042, 42.3803613], [69.4887921, 42.3803041]]}}, {"type": "Feature", "properties": {"city": "shymkent", "overture_id": "3b43869e-d800-4ab7-a8aa-45686fbf0ca6", "overture_version": 2, "subtype": "road", "class": "tertiary", "subclass": null, "name_primary": null, "road_surface": [{"value": "paved", "between": null}], "connectors": 5, "length_m_geodesic": 583.9, "sources": [{"dataset": "OpenStreetMap", "license": "ODbL-1.0", "record_id": "w1009907856@6", "update_time": "2025-08-09T16:45:00Z"}]}, "geometry": {"type": "LineString", "coordinates": [[69.4894461, 42.3821048], [69.4884557, 42.3804084], [69.4879237, 42.3795056], [69.486867, 42.3777122], [69.4866154, 42.3772852]]}}, {"type": "Feature", "properties": {"city": "shymkent", "overture_id": "2464fb93-6bf4-4c47-9bac-86536807eb32", "overture_version": 1, "subtype": "road", "class": "cycleway", "subclass": null, "name_primary": null, "road_surface": null, "connectors": 10, "length_m_geodesic": 1254.7, "sources": [{"dataset": "OpenStreetMap", "license": "ODbL-1.0", "record_id": "w1421197054@1", "update_time": "2025-08-09T16:45:00Z"}, {"dataset": "OpenStreetMap", "license": "ODbL-1.0", "record_id": "w1421197055@1", "update_time": "2025-08-09T16:45:00Z"}, {"dataset": "OpenStreetMap", "license": "ODbL-1.0", "record_id": "w1421197056@1", "update_time": "2025-08-09T16:45:00Z"}, {"dataset": "OpenStreetMap", "license": "ODbL-1.0", "record_id": "w1421197058@1", "update_time": "2025-08-09T16:45:00Z"}]}, "geometry": {"type": "LineString", "coordinates": [[69.4864355, 42.3717513], [69.4864161, 42.3718065], [69.4863572, 42.3718691], [69.4862961, 42.3719339], [69.486259, 42.3719736], [69.4862701, 42.3719976], [69.4862557, 42.3720459], [69.4862472, 42.3720742], [69.4859508, 42.372449], [69.4857555, 42.3727878], [69.4856193, 42.3731048], [69.4855721, 42.3732408], [69.4855141, 42.3735249], [69.4854857, 42.3738067], [69.4854806, 42.3741431], [69.4855223, 42.3744468], [69.4856161, 42.3747771], [69.4857917, 42.3751943], [69.4861373, 42.375794], [69.486348, 42.3761529], [69.487542, 42.3781867], [69.4877543, 42.3785484], [69.4883943, 42.3796386], [69.4885394, 42.3798857], [69.4887921, 42.3803041], [69.4895563, 42.3815693], [69.4899031, 42.3821823], [69.4898935, 42.3822026], [69.4898833, 42.3822243]]}}, {"type": "Feature", "properties": {"city": "shymkent", "overture_id": "922c07ed-b499-408b-9509-bb91d526a455", "overture_version": 1, "subtype": "road", "class": "cycleway", "subclass": null, "name_primary": null, "road_surface": [{"value": "paved", "between": [0.025798709, 0.964838096]}], "connectors": 12, "length_m_geodesic": 1308.6, "sources": [{"dataset": "OpenStreetMap", "license": "ODbL-1.0", "record_id": "w1383685053@2", "update_time": "2026-05-07T03:00:55Z"}, {"dataset": "OpenStreetMap", "license": "ODbL-1.0", "record_id": "w1421197045@1", "update_time": "2025-08-09T16:45:00Z"}, {"dataset": "OpenStreetMap", "license": "ODbL-1.0", "record_id": "w1421197046@1", "update_time": "2025-08-09T16:45:00Z"}, {"dataset": "OpenStreetMap", "license": "ODbL-1.0", "record_id": "w1421197047@1", "update_time": "2025-08-09T16:45:00Z"}, {"dataset": "OpenStreetMap", "license": "ODbL-1.0", "record_id": "w1383685046@2", "update_time": "2025-08-09T16:45:00Z"}]}, "geometry": {"type": "LineString", "coordinates": [[69.4897925, 42.3822539], [69.4897398, 42.3822707], [69.4895938, 42.3823158], [69.4895296, 42.3823379], [69.48942, 42.3823804], [69.4893971, 42.3823651], [69.4893793, 42.3823532], [69.4891315, 42.3819501], [69.488243, 42.3804759], [69.4877333, 42.379567], [69.4876846, 42.3794802], [69.4866773, 42.3777742], [69.4864847, 42.377448], [69.4855808, 42.3759163], [69.4852501, 42.3753489], [69.4851129, 42.375044], [69.4850036, 42.3747343], [69.4849517, 42.3745235], [69.4849131, 42.3743045], [69.4848984, 42.3740672], [69.4848985, 42.373826], [69.4849239, 42.3736036], [69.4849662, 42.3733758], [69.4850132, 42.3731612], [69.4851076, 42.3728939], [69.4852008, 42.3726578], [69.4853565, 42.3723635], [69.4855104, 42.3721385], [69.4855363, 42.3721137], [69.4855611, 42.372091], [69.4856286, 42.3720382], [69.4856919, 42.3720796], [69.4857786, 42.3720759], [69.4859847, 42.3720672], [69.4860674, 42.3720637]]}}, {"type": "Feature", "properties": {"city": "shymkent", "overture_id": "6557d755-925b-435c-8120-b55f04c902d7", "overture_version": 1, "subtype": "road", "class": "unclassified", "subclass": null, "name_primary": null, "road_surface": null, "connectors": 2, "length_m_geodesic": 12.7, "sources": [{"dataset": "OpenStreetMap", "license": "ODbL-1.0", "record_id": "w1201596318@1", "update_time": "2023-08-24T06:43:42Z"}]}, "geometry": {"type": "LineString", "coordinates": [[69.4866154, 42.3772852], [69.4867563, 42.3772395]]}}, {"type": "Feature", "properties": {"city": "shymkent", "overture_id": "8ad09997-b1b4-41f3-b777-15bf2e847911", "overture_version": 1, "subtype": "road", "class": "unclassified", "subclass": null, "name_primary": null, "road_surface": null, "connectors": 2, "length_m_geodesic": 13.5, "sources": [{"dataset": "OpenStreetMap", "license": "ODbL-1.0", "record_id": "w1201596317@1", "update_time": "2024-10-08T21:02:12Z"}]}, "geometry": {"type": "LineString", "coordinates": [[69.4856583, 42.37567], [69.4858066, 42.3756175]]}}, {"type": "Feature", "properties": {"city": "shymkent", "overture_id": "19ae98b0-70ed-4b89-9144-74cac5830fa7", "overture_version": 1, "subtype": "road", "class": "cycleway", "subclass": null, "name_primary": null, "road_surface": null, "connectors": 2, "length_m_geodesic": 18.7, "sources": [{"dataset": "OpenStreetMap", "license": "ODbL-1.0", "record_id": "w1421197057@1", "update_time": "2025-08-09T16:45:00Z"}]}, "geometry": {"type": "LineString", "coordinates": [[69.486259, 42.3719736], [69.4860674, 42.3720637]]}}, {"type": "Feature", "properties": {"city": "shymkent", "overture_id": "5618ff28-4d9e-46e2-ae6d-0bef33974e56", "overture_version": 1, "subtype": "road", "class": "cycleway", "subclass": null, "name_primary": null, "road_surface": null, "connectors": 5, "length_m_geodesic": 66.8, "sources": [{"dataset": "OpenStreetMap", "license": "ODbL-1.0", "record_id": "w1421197052@1", "update_time": "2025-08-09T16:45:00Z"}, {"dataset": "OpenStreetMap", "license": "ODbL-1.0", "record_id": "w1383685047@2", "update_time": "2025-08-09T16:45:00Z"}, {"dataset": "OpenStreetMap", "license": "ODbL-1.0", "record_id": "w1421197053@1", "update_time": "2025-08-09T16:45:00Z"}]}, "geometry": {"type": "LineString", "coordinates": [[69.4857729, 42.3718884], [69.4859119, 42.3718121], [69.4860241, 42.371799], [69.4862812, 42.3717691], [69.4863893, 42.3717566], [69.4864355, 42.3717513], [69.4865427, 42.3717389]]}}, {"type": "Feature", "properties": {"city": "shymkent", "overture_id": "a8816d63-bdd0-4f32-960a-71ebd32b2346", "overture_version": 2, "subtype": "road", "class": "cycleway", "subclass": "cycle_crossing", "name_primary": null, "road_surface": null, "connectors": 4, "length_m_geodesic": 47.2, "sources": [{"dataset": "OpenStreetMap", "license": "ODbL-1.0", "record_id": "w1383685044@1", "update_time": "2025-08-09T16:45:00Z"}]}, "geometry": {"type": "LineString", "coordinates": [[69.4879759, 42.3704765], [69.4880598, 42.3705952], [69.4881293, 42.3707086], [69.488218, 42.3708615]]}}, {"type": "Feature", "properties": {"city": "shymkent", "overture_id": "671709b7-d2b7-450a-a6e7-339d3824a7f7", "overture_version": 2, "subtype": "road", "class": "cycleway", "subclass": null, "name_primary": null, "road_surface": [{"value": "paved", "between": [0.021898204, 1.0]}], "connectors": 9, "length_m_geodesic": 1068.6, "sources": [{"dataset": "OpenStreetMap", "license": "ODbL-1.0", "record_id": "w1421197048@1", "update_time": "2025-08-09T16:45:00Z"}, {"dataset": "OpenStreetMap", "license": "ODbL-1.0", "record_id": "w1421197049@1", "update_time": "2025-08-09T16:45:00Z"}, {"dataset": "OpenStreetMap", "license": "ODbL-1.0", "record_id": "w1421197050@2", "update_time": "2025-12-23T15:44:29Z"}]}, "geometry": {"type": "LineString", "coordinates": [[69.4856286, 42.3720382], [69.4857087, 42.3719686], [69.4857857, 42.3719017], [69.4857729, 42.3718884], [69.4857613, 42.3718763], [69.4857717, 42.3718117], [69.4861937, 42.3714076], [69.4865213, 42.3711626], [69.4867313, 42.3710274], [69.4872419, 42.3707516], [69.4875293, 42.3706195], [69.4879759, 42.3704765], [69.4880121, 42.3704649], [69.4888923, 42.3701958], [69.4891447, 42.3701186], [69.4912137, 42.3694112], [69.4913465, 42.3693667], [69.49288, 42.3688521], [69.4930043, 42.3688104], [69.4947325, 42.3682405], [69.4947862, 42.3682228], [69.4968506, 42.3675521]]}}, {"type": "Feature", "properties": {"city": "shymkent", "overture_id": "e33558d7-a357-4eb6-89a3-29e893a9b079", "overture_version": 2, "subtype": "road", "class": "cycleway", "subclass": "cycle_crossing", "name_primary": null, "road_surface": null, "connectors": 4, "length_m_geodesic": 47.7, "sources": [{"dataset": "OpenStreetMap", "license": "ODbL-1.0", "record_id": "w1383685060@1", "update_time": "2025-08-09T16:45:00Z"}]}, "geometry": {"type": "LineString", "coordinates": [[69.4913465, 42.3693667], [69.4914232, 42.3694906], [69.4914918, 42.3696048], [69.4915138, 42.3696415], [69.4915796, 42.3697599]]}}, {"type": "Feature", "properties": {"city": "shymkent", "overture_id": "1f2bfc51-0499-462a-b091-945425bae51c", "overture_version": 1, "subtype": "road", "class": "unknown", "subclass": null, "name_primary": null, "road_surface": null, "connectors": 2, "length_m_geodesic": 51.2, "sources": [{"dataset": "TomTom", "license": "ODbL-1.0", "record_id": null, "update_time": null}]}, "geometry": {"type": "LineString", "coordinates": [[69.4958909, 42.3796102], [69.4955151, 42.3799779]]}}, {"type": "Feature", "properties": {"city": "shymkent", "overture_id": "a92e01ba-daa9-4ea2-b9ef-8bb4c8ac6c13", "overture_version": 1, "subtype": "road", "class": "unclassified", "subclass": null, "name_primary": null, "road_surface": [{"value": "paved", "between": null}], "connectors": 3, "length_m_geodesic": 67.9, "sources": [{"dataset": "OpenStreetMap", "license": "ODbL-1.0", "record_id": "w1322362919@1", "update_time": "2024-10-11T14:03:23Z"}]}, "geometry": {"type": "LineString", "coordinates": [[69.4953633, 42.3669203], [69.4952229, 42.3669511], [69.494923, 42.3670313], [69.4945898, 42.3671313]]}}, {"type": "Feature", "properties": {"city": "shymkent", "overture_id": "8087bc74-6a5f-48fe-a5b2-9d4e4b4b7d83", "overture_version": 1, "subtype": "road", "class": "unclassified", "subclass": null, "name_primary": null, "road_surface": [{"value": "paved", "between": null}], "connectors": 7, "length_m_geodesic": 10919.8, "sources": [{"dataset": "OpenStreetMap", "license": "ODbL-1.0", "record_id": "w342555749@7", "update_time": "2023-11-07T07:42:48Z"}]}, "geometry": {"type": "LineString", "coordinates": [[69.5003895, 42.2942619], [69.4993871, 42.2937056], [69.4984277, 42.2931731], [69.4976793, 42.2927578], [69.4967405, 42.2922367], [69.4904717, 42.2887574], [69.4889797, 42.2873465], [69.4837806, 42.2841885], [69.4829178, 42.2840253], [69.4819059, 42.2842029], [69.4813999, 42.2844764], [69.4808031, 42.2855658], [69.4794171, 42.2861496], [69.4782236, 42.2862648], [69.4728186, 42.2843046], [69.4724776, 42.2843358], [69.4718629, 42.284553], [69.4710923, 42.2846887], [69.4698501, 42.2847542], [69.4649512, 42.2840484], [69.4569162, 42.2803353], [69.4558337, 42.2799349], [69.4525678, 42.2794326], [69.4498837, 42.2785598], [69.4374846, 42.2727814], [69.4357072, 42.2723687], [69.4330476, 42.2713318], [69.4300766, 42.2699014], [69.4263272, 42.2678373], [69.4167267, 42.2639825], [69.4148325, 42.2633344], [69.4132237, 42.2629888], [69.4108755, 42.2622687], [69.405459, 42.2618462], [69.4026307, 42.2617646], [69.3998673, 42.2620622], [69.3971947, 42.2623215], [69.3936334, 42.2623839], [69.3917522, 42.2622687], [69.3862775, 42.2623866], [69.3845646, 42.262301], [69.382985, 42.2623392]]}}, {"type": "Feature", "properties": {"city": "shymkent", "overture_id": "2391d5b0-18e7-494d-ae88-60418b1c5dfd", "overture_version": 1, "subtype": "road", "class": "secondary", "subclass": null, "name_primary": null, "road_surface": [{"value": "paved", "between": null}], "connectors": 2, "length_m_geodesic": 580.2, "sources": [{"dataset": "OpenStreetMap", "license": "ODbL-1.0", "record_id": "r18567077@3", "update_time": null}, {"dataset": "OpenStreetMap", "license": "ODbL-1.0", "record_id": "w137354765@23", "update_time": "2026-04-18T05:27:28Z"}]}, "geometry": {"type": "LineString", "coordinates": [[69.5297637, 42.2180746], [69.5277633, 42.2149953], [69.5272956, 42.2136898], [69.5271744, 42.2132462]]}}, {"type": "Feature", "properties": {"city": "shymkent", "overture_id": "3c2d6469-687c-4663-8cb8-9747541f13d1", "overture_version": 1, "subtype": "road", "class": "secondary", "subclass": null, "name_primary": null, "road_surface": null, "connectors": 2, "length_m_geodesic": 184.4, "sources": [{"dataset": "OpenStreetMap", "license": "ODbL-1.0", "record_id": "r18567077@3", "update_time": null}, {"dataset": "OpenStreetMap", "license": "ODbL-1.0", "record_id": "w137354758@5", "update_time": "2025-01-18T16:20:16Z"}]}, "geometry": {"type": "LineString", "coordinates": [[69.5297637, 42.2180746], [69.5298918, 42.2182802], [69.5299736, 42.2185037], [69.530105, 42.2190648], [69.530172, 42.2192684], [69.5304202, 42.2196488]]}}, {"type": "Feature", "properties": {"city": "shymkent", "overture_id": "5d935941-502f-48dd-b6f5-dd92120048c7", "overture_version": 1, "subtype": "road", "class": "secondary", "subclass": null, "name_primary": null, "road_surface": null, "connectors": 2, "length_m_geodesic": 96.2, "sources": [{"dataset": "OpenStreetMap", "license": "ODbL-1.0", "record_id": "r18567077@3", "update_time": null}, {"dataset": "OpenStreetMap", "license": "ODbL-1.0", "record_id": "w137354804@5", "update_time": "2025-01-18T16:20:16Z"}]}, "geometry": {"type": "LineString", "coordinates": [[69.5290967, 42.218595], [69.5293258, 42.2185737], [69.5294559, 42.2185558], [69.5295974, 42.2185086], [69.529696, 42.2184341], [69.529759, 42.2183512], [69.5297952, 42.218234], [69.5297637, 42.2180746]]}}, {"type": "Feature", "properties": {"city": "shymkent", "overture_id": "19acec92-e832-4cf4-a41a-5cc40dde4e30", "overture_version": 1, "subtype": "road", "class": "unknown", "subclass": null, "name_primary": null, "road_surface": null, "connectors": 2, "length_m_geodesic": 615.8, "sources": [{"dataset": "TomTom", "license": "ODbL-1.0", "record_id": null, "update_time": null}]}, "geometry": {"type": "LineString", "coordinates": [[69.5388128, 42.2233136], [69.5394847, 42.2241036], [69.5395825, 42.2242515], [69.5396424, 42.224395], [69.5396889, 42.2246161], [69.5397217, 42.2250126], [69.5397534, 42.2260859], [69.5397563, 42.2264941], [69.5397691, 42.2266948], [69.5397921, 42.2268452], [69.5398178, 42.2269339], [69.539861, 42.227024], [69.5399962, 42.2272549], [69.5400254, 42.2273238], [69.5400441, 42.2273991], [69.5401043, 42.2278846], [69.5401051, 42.2286496]]}}, {"type": "Feature", "properties": {"city": "shymkent", "overture_id": "a0373159-6783-4211-b122-00034d6b0cf8", "overture_version": 1, "subtype": "road", "class": "secondary", "subclass": null, "name_primary": "улица Исмаилова", "road_surface": null, "connectors": 2, "length_m_geodesic": 761.1, "sources": [{"dataset": "OpenStreetMap", "license": "ODbL-1.0", "record_id": "w135892380@8", "update_time": "2026-05-06T16:11:28Z"}]}, "geometry": {"type": "LineString", "coordinates": [[69.5614808, 42.3052493], [69.5605893, 42.305587], [69.5563858, 42.307147], [69.5544803, 42.3078541], [69.5536066, 42.3086665]]}}, {"type": "Feature", "properties": {"city": "shymkent", "overture_id": "a9555add-b684-4be4-90c8-c8ce31d42bf6", "overture_version": 4, "subtype": "road", "class": "secondary", "subclass": null, "name_primary": "проспект Абая", "road_surface": [{"value": "paved", "between": null}], "connectors": 4, "length_m_geodesic": 177.7, "sources": [{"dataset": "OpenStreetMap", "license": "ODbL-1.0", "record_id": "w115438604@29", "update_time": "2026-05-07T06:11:15Z"}]}, "geometry": {"type": "LineString", "coordinates": [[69.5554947, 42.3147714], [69.5559606, 42.3150174], [69.5570349, 42.3156246], [69.5572202, 42.3157293]]}}, {"type": "Feature", "properties": {"city": "shymkent", "overture_id": "ed9b7692-3d25-4b9c-bd76-7f5d3c229505", "overture_version": 4, "subtype": "road", "class": "secondary", "subclass": null, "name_primary": "улица Гагарина", "road_surface": [{"value": "paved", "between": null}], "connectors": 4, "length_m_geodesic": 141.9, "sources": [{"dataset": "OpenStreetMap", "license": "ODbL-1.0", "record_id": "w1554288693@1", "update_time": "2026-09-01T16:29:10Z"}]}, "geometry": {"type": "LineString", "coordinates": [[69.5572202, 42.3157293], [69.5570298, 42.315881], [69.5564711, 42.316326], [69.5560612, 42.3166739]]}}, {"type": "Feature", "properties": {"city": "shymkent", "overture_id": "c6300a89-5202-4be4-9db8-e3ee3364e5f9", "overture_version": 1, "subtype": "road", "class": "secondary", "subclass": null, "name_primary": "улица Гагарина", "road_surface": [{"value": "paved", "between": null}], "connectors": 3, "length_m_geodesic": 100.5, "sources": [{"dataset": "OpenStreetMap", "license": "ODbL-1.0", "record_id": "w1554288693@1", "update_time": "2026-09-01T16:29:10Z"}]}, "geometry": {"type": "LineString", "coordinates": [[69.5560612, 42.3166739], [69.5558897, 42.3168127], [69.5552374, 42.3173405]]}}, {"type": "Feature", "properties": {"city": "shymkent", "overture_id": "29c894d2-d947-4088-a3ac-7c0ef29a3055", "overture_version": 1, "subtype": "road", "class": "secondary", "subclass": null, "name_primary": "проспект Абая", "road_surface": [{"value": "paved", "between": null}], "connectors": 7, "length_m_geodesic": 175.9, "sources": [{"dataset": "OpenStreetMap", "license": "ODbL-1.0", "record_id": "w115438604@29", "update_time": "2026-05-07T06:11:15Z"}]}, "geometry": {"type": "LineString", "coordinates": [[69.5537544, 42.313856], [69.5538523, 42.3139064], [69.5541932, 42.314082], [69.554551, 42.3142715], [69.5546529, 42.3143255], [69.5553515, 42.3146955], [69.5554947, 42.3147714]]}}, {"type": "Feature", "properties": {"city": "shymkent", "overture_id": "93856f0b-bdd8-4280-ae9b-a2423da94353", "overture_version": 1, "subtype": "road", "class": "unknown", "subclass": null, "name_primary": null, "road_surface": null, "connectors": 2, "length_m_geodesic": 27.1, "sources": [{"dataset": "TomTom", "license": "ODbL-1.0", "record_id": null, "update_time": null}]}, "geometry": {"type": "LineString", "coordinates": [[69.5562163, 42.3341071], [69.5564952, 42.333978]]}}, {"type": "Feature", "properties": {"city": "shymkent", "overture_id": "b117452f-9d1b-407b-bc1d-5631d6ce234d", "overture_version": 1, "subtype": "road", "class": "unknown", "subclass": null, "name_primary": null, "road_surface": null, "connectors": 2, "length_m_geodesic": 83.6, "sources": [{"dataset": "TomTom", "license": "ODbL-1.0", "record_id": null, "update_time": null}]}, "geometry": {"type": "LineString", "coordinates": [[69.5568162, 42.3386566], [69.5559892, 42.339093]]}}, {"type": "Feature", "properties": {"city": "shymkent", "overture_id": "48b5bdd2-baa1-4b6b-aa10-7d79a761d921", "overture_version": 1, "subtype": "road", "class": "unknown", "subclass": null, "name_primary": null, "road_surface": null, "connectors": 2, "length_m_geodesic": 99.0, "sources": [{"dataset": "TomTom", "license": "ODbL-1.0", "record_id": null, "update_time": null}]}, "geometry": {"type": "LineString", "coordinates": [[69.5561415, 42.3461566], [69.5558626, 42.3466645], [69.5558157, 42.3467586], [69.5557996, 42.3467973], [69.5557795, 42.3468231], [69.5557473, 42.3468528], [69.5556963, 42.3469152], [69.5556534, 42.3469678]]}}, {"type": "Feature", "properties": {"city": "shymkent", "overture_id": "e9931ceb-3bf2-482a-a378-fe6f645f8060", "overture_version": 1, "subtype": "road", "class": "unknown", "subclass": null, "name_primary": null, "road_surface": null, "connectors": 2, "length_m_geodesic": 90.9, "sources": [{"dataset": "TomTom", "license": "ODbL-1.0", "record_id": null, "update_time": null}]}, "geometry": {"type": "LineString", "coordinates": [[69.5421662, 42.3476074], [69.5422028, 42.3472703], [69.5422296, 42.3467905]]}}, {"type": "Feature", "properties": {"city": "shymkent", "overture_id": "7fb20feb-0bb0-468f-9e96-b8b40460c977", "overture_version": 1, "subtype": "road", "class": "unknown", "subclass": null, "name_primary": null, "road_surface": null, "connectors": 2, "length_m_geodesic": 91.2, "sources": [{"dataset": "TomTom", "license": "ODbL-1.0", "record_id": null, "update_time": null}]}, "geometry": {"type": "LineString", "coordinates": [[69.5330797, 42.3282058], [69.5335073, 42.327449]]}}, {"type": "Feature", "properties": {"city": "shymkent", "overture_id": "c91edaf5-0630-4bb4-97b7-631677b4bd28", "overture_version": 1, "subtype": "road", "class": "steps", "subclass": null, "name_primary": null, "road_surface": null, "connectors": 2, "length_m_geodesic": 21.0, "sources": [{"dataset": "OpenStreetMap", "license": "ODbL-1.0", "record_id": "w646003027@1", "update_time": "2023-07-27T16:20:58Z"}]}, "geometry": {"type": "LineString", "coordinates": [[69.5302463, 42.3518819], [69.5300192, 42.3517968]]}}, {"type": "Feature", "properties": {"city": "shymkent", "overture_id": "ba595683-0db8-4d62-8b3b-9fb78e275696", "overture_version": 1, "subtype": "road", "class": "pedestrian", "subclass": null, "name_primary": null, "road_surface": null, "connectors": 2, "length_m_geodesic": 89.1, "sources": [{"dataset": "OpenStreetMap", "license": "ODbL-1.0", "record_id": "w366095146@1", "update_time": "2024-07-24T17:11:20Z"}]}, "geometry": {"type": "LineString", "coordinates": [[69.4985625, 42.3811863], [69.4990771, 42.3807812], [69.4988245, 42.3806219]]}}, {"type": "Feature", "properties": {"city": "shymkent", "overture_id": "300807bc-9d0c-4668-a3a4-0fa1a5704623", "overture_version": 2, "subtype": "road", "class": "steps", "subclass": null, "name_primary": null, "road_surface": null, "connectors": 2, "length_m_geodesic": 12.3, "sources": [{"dataset": "OpenStreetMap", "license": "ODbL-1.0", "record_id": "w1450462990@1", "update_time": "2025-11-14T08:02:06Z"}]}, "geometry": {"type": "LineString", "coordinates": [[69.6094012, 42.345617], [69.6095494, 42.3456291]]}}, {"type": "Feature", "properties": {"city": "shymkent", "overture_id": "f610e1f7-1a16-4f8b-9e84-ed93bde79bbf", "overture_version": 2, "subtype": "road", "class": "steps", "subclass": null, "name_primary": null, "road_surface": null, "connectors": 2, "length_m_geodesic": 17.5, "sources": [{"dataset": "OpenStreetMap", "license": "ODbL-1.0", "record_id": "w1450462989@1", "update_time": "2025-11-14T08:02:06Z"}]}, "geometry": {"type": "LineString", "coordinates": [[69.6099211, 42.3458634], [69.6098764, 42.345709]]}}, {"type": "Feature", "properties": {"city": "shymkent", "overture_id": "bb9bdcfc-6f91-4fd2-8fbe-367aebdc4b83", "overture_version": 2, "subtype": "road", "class": "steps", "subclass": null, "name_primary": null, "road_surface": null, "connectors": 2, "length_m_geodesic": 15.3, "sources": [{"dataset": "OpenStreetMap", "license": "ODbL-1.0", "record_id": "w1450462988@1", "update_time": "2025-11-14T08:02:06Z"}]}, "geometry": {"type": "LineString", "coordinates": [[69.6098764, 42.345709], [69.6100056, 42.34561]]}}, {"type": "Feature", "properties": {"city": "shymkent", "overture_id": "21862474-adc8-4f54-9151-bed5212d17ec", "overture_version": 2, "subtype": "road", "class": "steps", "subclass": null, "name_primary": null, "road_surface": null, "connectors": 2, "length_m_geodesic": 15.9, "sources": [{"dataset": "OpenStreetMap", "license": "ODbL-1.0", "record_id": "w1450462986@1", "update_time": "2025-11-14T08:02:06Z"}]}, "geometry": {"type": "LineString", "coordinates": [[69.6099287, 42.34531], [69.6097391, 42.3453368]]}}, {"type": "Feature", "properties": {"city": "shymkent", "overture_id": "51519a59-86cf-4465-9608-4f4886edabb0", "overture_version": 2, "subtype": "road", "class": "steps", "subclass": null, "name_primary": null, "road_surface": null, "connectors": 2, "length_m_geodesic": 12.7, "sources": [{"dataset": "OpenStreetMap", "license": "ODbL-1.0", "record_id": "w1450462987@1", "update_time": "2025-11-14T08:02:06Z"}]}, "geometry": {"type": "LineString", "coordinates": [[69.6095845, 42.3453408], [69.6097391, 42.3453368]]}}, {"type": "Feature", "properties": {"city": "shymkent", "overture_id": "4a675021-76da-4ff8-b2cf-79b5e0b70a7a", "overture_version": 2, "subtype": "road", "class": "steps", "subclass": null, "name_primary": null, "road_surface": null, "connectors": 2, "length_m_geodesic": 14.6, "sources": [{"dataset": "OpenStreetMap", "license": "ODbL-1.0", "record_id": "w1450462981@1", "update_time": "2025-11-14T08:02:06Z"}]}, "geometry": {"type": "LineString", "coordinates": [[69.6086108, 42.3459703], [69.608788, 42.3459805]]}}, {"type": "Feature", "properties": {"city": "shymkent", "overture_id": "b35feba1-691e-4232-84bd-63e2b8e93ece", "overture_version": 2, "subtype": "road", "class": "steps", "subclass": null, "name_primary": null, "road_surface": null, "connectors": 2, "length_m_geodesic": 15.4, "sources": [{"dataset": "OpenStreetMap", "license": "ODbL-1.0", "record_id": "w1450462980@1", "update_time": "2025-11-14T08:02:06Z"}]}, "geometry": {"type": "LineString", "coordinates": [[69.6086108, 42.3459703], [69.6084241, 42.3459639]]}}, {"type": "Feature", "properties": {"city": "shymkent", "overture_id": "5e9800f1-1840-4b34-9dc3-2121f61f09d0", "overture_version": 1, "subtype": "road", "class": "living_street", "subclass": null, "name_primary": "Циолковского", "road_surface": [{"value": "paved", "between": null}], "connectors": 2, "length_m_geodesic": 199.6, "sources": [{"dataset": "OpenStreetMap", "license": "ODbL-1.0", "record_id": "w367655252@3", "update_time": "2018-02-25T11:14:21Z"}]}, "geometry": {"type": "LineString", "coordinates": [[69.6107473, 42.3281928], [69.6092881, 42.3284231], [69.6087325, 42.3285592], [69.6084044, 42.3286373]]}}, {"type": "Feature", "properties": {"city": "shymkent", "overture_id": "943e69c1-e454-4632-ab3d-12092c85ed21", "overture_version": 1, "subtype": "road", "class": "living_street", "subclass": null, "name_primary": "Циолковского", "road_surface": [{"value": "paved", "between": null}], "connectors": 2, "length_m_geodesic": 117.0, "sources": [{"dataset": "OpenStreetMap", "license": "ODbL-1.0", "record_id": "w367655252@3", "update_time": "2018-02-25T11:14:21Z"}]}, "geometry": {"type": "LineString", "coordinates": [[69.6062037, 42.3292143], [69.6048511, 42.329535]]}}, {"type": "Feature", "properties": {"city": "shymkent", "overture_id": "13036ec6-1928-4f8e-9de4-8deee776f027", "overture_version": 1, "subtype": "road", "class": "living_street", "subclass": null, "name_primary": "Циолковского", "road_surface": [{"value": "paved", "between": null}], "connectors": 2, "length_m_geodesic": 107.3, "sources": [{"dataset": "OpenStreetMap", "license": "ODbL-1.0", "record_id": "w367655252@3", "update_time": "2018-02-25T11:14:21Z"}]}, "geometry": {"type": "LineString", "coordinates": [[69.6074516, 42.3289391], [69.6062037, 42.3292143]]}}, {"type": "Feature", "properties": {"city": "shymkent", "overture_id": "cd6b7c57-622e-44d4-9c18-e74fb91c1e7d", "overture_version": 1, "subtype": "road", "class": "living_street", "subclass": null, "name_primary": "Циолковского", "road_surface": [{"value": "paved", "between": null}], "connectors": 2, "length_m_geodesic": 88.5, "sources": [{"dataset": "OpenStreetMap", "license": "ODbL-1.0", "record_id": "w367655252@3", "update_time": "2018-02-25T11:14:21Z"}]}, "geometry": {"type": "LineString", "coordinates": [[69.6084044, 42.3286373], [69.6083078, 42.3287502], [69.6074516, 42.3289391]]}}, {"type": "Feature", "properties": {"city": "shymkent", "overture_id": "b714345b-4598-4367-9b34-ae8e0e56d393", "overture_version": 1, "subtype": "road", "class": "living_street", "subclass": null, "name_primary": "улица Алимбетова", "road_surface": [{"value": "paved", "between": null}], "connectors": 3, "length_m_geodesic": 192.1, "sources": [{"dataset": "OpenStreetMap", "license": "ODbL-1.0", "record_id": "w367657369@4", "update_time": "2023-03-07T12:49:20Z"}]}, "geometry": {"type": "LineString", "coordinates": [[69.6118609, 42.325125], [69.6108342, 42.325383], [69.6107668, 42.3254065], [69.6104886, 42.3255032], [69.6102244, 42.3256234], [69.6097023, 42.325762]]}}, {"type": "Feature", "properties": {"city": "shymkent", "overture_id": "79670d8f-1ac5-4906-9575-0b0c0c3e6970", "overture_version": 1, "subtype": "road", "class": "living_street", "subclass": null, "name_primary": "улица Алимбетова", "road_surface": [{"value": "paved", "between": null}], "connectors": 2, "length_m_geodesic": 94.7, "sources": [{"dataset": "OpenStreetMap", "license": "ODbL-1.0", "record_id": "w367657369@4", "update_time": "2023-03-07T12:49:20Z"}]}, "geometry": {"type": "LineString", "coordinates": [[69.6129101, 42.3248131], [69.6123522, 42.3250332], [69.6121564, 42.3251086], [69.6118609, 42.325125]]}}, {"type": "Feature", "properties": {"city": "shymkent", "overture_id": "0177e480-54cd-4661-a0a9-1e89ca831698", "overture_version": 2, "subtype": "road", "class": "pedestrian", "subclass": null, "name_primary": null, "road_surface": null, "connectors": 4, "length_m_geodesic": 236.0, "sources": [{"dataset": "OpenStreetMap", "license": "ODbL-1.0", "record_id": "w1410883967@2", "update_time": "2025-11-17T18:46:06Z"}]}, "geometry": {"type": "LineString", "coordinates": [[69.6096717, 42.3025226], [69.6096875, 42.3022237], [69.6096325, 42.3016616], [69.6095721, 42.3014771], [69.6095762, 42.3013809], [69.6096218, 42.3012281], [69.6097371, 42.3010476], [69.6100187, 42.3008016], [69.6103057, 42.3007758], [69.610354, 42.3008492]]}}, {"type": "Feature", "properties": {"city": "shymkent", "overture_id": "3a6d24ca-b4ee-4d6d-ad72-df8865e1d3c9", "overture_version": 2, "subtype": "road", "class": "pedestrian", "subclass": null, "name_primary": null, "road_surface": [{"value": "paving_stones", "between": null}], "connectors": 12, "length_m_geodesic": 1086.4, "sources": [{"dataset": "OpenStreetMap", "license": "ODbL-1.0", "record_id": "w1451405429@1", "update_time": "2025-11-17T18:46:06Z"}, {"dataset": "OpenStreetMap", "license": "ODbL-1.0", "record_id": "w1451405430@1", "update_time": "2025-11-17T18:46:06Z"}, {"dataset": "OpenStreetMap", "license": "ODbL-1.0", "record_id": "w1110329474@6", "update_time": "2025-11-17T18:46:06Z"}]}, "geometry": {"type": "LineString", "coordinates": [[69.5997826, 42.3087891], [69.6000772, 42.3087359], [69.6004354, 42.3086712], [69.6009178, 42.3083385], [69.601116, 42.3082018], [69.6019006, 42.3076876], [69.601951, 42.3076545], [69.6022065, 42.3075018], [69.6024254, 42.3073747], [69.603102, 42.3069816], [69.6031579, 42.3069251], [69.6032327, 42.3067189], [69.6032952, 42.3065464], [69.6033413, 42.3064845], [69.6037801, 42.3063439], [69.6041193, 42.3062703], [69.6044732, 42.3062069], [69.6046496, 42.3061525], [69.6046966, 42.306138], [69.6047874, 42.3061804], [69.6052432, 42.3060236], [69.6053117, 42.3059447], [69.6053358, 42.3059163], [69.6052697, 42.3058659], [69.6057655, 42.3052357], [69.6059793, 42.3050754], [69.6063172, 42.3047358], [69.6068845, 42.3038718], [69.6070183, 42.3036681], [69.6072017, 42.3034589], [69.6073081, 42.3033375], [69.6075991, 42.3031323], [69.6078148, 42.3030337], [69.6078705, 42.3030082], [69.6079957, 42.3029592], [69.6081916, 42.3028803], [69.6082856, 42.3028006], [69.6086488, 42.3024178], [69.6087187, 42.3023459]]}}, {"type": "Feature", "properties": {"city": "shymkent", "overture_id": "fb110dc5-6b40-4302-87b6-08ee66641655", "overture_version": 1, "subtype": "road", "class": "living_street", "subclass": null, "name_primary": null, "road_surface": [{"value": "paved", "between": null}], "connectors": 5, "length_m_geodesic": 96.1, "sources": [{"dataset": "OpenStreetMap", "license": "ODbL-1.0", "record_id": "w130001815@5", "update_time": "2024-05-26T08:47:45Z"}]}, "geometry": {"type": "LineString", "coordinates": [[69.5976426, 42.3210879], [69.5976709, 42.3211632], [69.597789, 42.3214778], [69.5979272, 42.3218144], [69.5979679, 42.3219183]]}}, {"type": "Feature", "properties": {"city": "shymkent", "overture_id": "ba84c4ca-005e-4521-a7f0-3dadfaaaa6cf", "overture_version": 1, "subtype": "road", "class": "living_street", "subclass": null, "name_primary": null, "road_surface": null, "connectors": 2, "length_m_geodesic": 188.1, "sources": [{"dataset": "OpenStreetMap", "license": "ODbL-1.0", "record_id": "w130001812@1", "update_time": "2023-10-25T06:52:35Z"}]}, "geometry": {"type": "LineString", "coordinates": [[69.60141, 42.3179679], [69.5992731, 42.3185609]]}}, {"type": "Feature", "properties": {"city": "shymkent", "overture_id": "2cfb2c6a-ae07-41d0-98ec-40b0ca16a6a8", "overture_version": 2, "subtype": "road", "class": "pedestrian", "subclass": null, "name_primary": "Бейбітшілік даңғылы", "road_surface": [{"value": "paving_stones", "between": null}], "connectors": 7, "length_m_geodesic": 506.1, "sources": [{"dataset": "OpenStreetMap", "license": "ODbL-1.0", "record_id": "w885512329@9", "update_time": "2026-08-31T10:11:14Z"}]}, "geometry": {"type": "LineString", "coordinates": [[69.5842043, 42.3194723], [69.5842303, 42.3194288], [69.5842556, 42.3193861], [69.5845418, 42.3189192], [69.5849042, 42.3183278], [69.5854779, 42.3173655], [69.5855369, 42.3173231], [69.5869265, 42.3163237], [69.5875892, 42.3158505], [69.5876557, 42.3158043]]}}, {"type": "Feature", "properties": {"city": "shymkent", "overture_id": "588863d4-def7-414e-b284-a3957388da53", "overture_version": 2, "subtype": "road", "class": "pedestrian", "subclass": null, "name_primary": "улица Красная армия", "road_surface": null, "connectors": 2, "length_m_geodesic": 158.6, "sources": [{"dataset": "OpenStreetMap", "license": "ODbL-1.0", "record_id": "w372979246@3", "update_time": "2025-06-29T06:12:14Z"}]}, "geometry": {"type": "LineString", "coordinates": [[69.5899328, 42.308701], [69.5889686, 42.3085505], [69.5880444, 42.3084298]]}}, {"type": "Feature", "properties": {"city": "shymkent", "overture_id": "abed815b-2c6f-443c-befc-3c31244ca155", "overture_version": 1, "subtype": "road", "class": "pedestrian", "subclass": null, "name_primary": null, "road_surface": null, "connectors": 3, "length_m_geodesic": 244.9, "sources": [{"dataset": "OpenStreetMap", "license": "ODbL-1.0", "record_id": "w1090355734@1", "update_time": "2022-08-30T00:14:32Z"}]}, "geometry": {"type": "LineString", "coordinates": [[69.638768, 42.3617109], [69.6385272, 42.3617565], [69.6374568, 42.3621005], [69.6360474, 42.3625927]]}}]}