{"type":"FeatureCollection","features":[{"type":"Feature","properties":{"origin_id":"grid-00","target_id":"7b39e048-341b-454a-a63c-4b7e1ae73e9f","target_role":"school","policy_id":"pedestrian-v1-exploratory","distance_mm":657780,"incomplete":true,"part":"snap","role":"origin"},"geometry":{"type":"LineString","coordinates":[[71.4240976,51.1666264],[71.42446385172303,51.166660745342014]]}},{"type":"Feature","properties":{"origin_id":"grid-00","target_id":"7b39e048-341b-454a-a63c-4b7e1ae73e9f","target_role":"school","policy_id":"pedestrian-v1-exploratory","distance_mm":657780,"incomplete":true,"part":"network"},"geometry":{"type":"LineString","coordinates":[[71.42446385172303,51.166660745342014],[71.4244377,51.1667704],[71.4243664,51.1670356],[71.4241454,51.1679448],[71.4241025,51.1680998],[71.4240481,51.1682571],[71.424008,51.1683943],[71.4238291,51.1690537],[71.42379,51.169198],[71.4237204,51.1694479],[71.423713,51.1694745],[71.4236671,51.1696289],[71.4236365,51.1697353],[71.4238407,51.1697673],[71.4237159,51.1702016],[71.4235242,51.1709976],[71.42492576329457,51.17115848745406]]}},{"type":"Feature","properties":{"origin_id":"grid-00","target_id":"7b39e048-341b-454a-a63c-4b7e1ae73e9f","target_role":"school","policy_id":"pedestrian-v1-exploratory","distance_mm":657780,"incomplete":true,"part":"snap","role":"target"},"geometry":{"type":"LineString","coordinates":[[71.42492576329457,51.17115848745406],[71.42501,51.17087]]}},{"type":"Feature","properties":{"origin_id":"grid-00","target_id":"8ca53724-c558-46b7-826b-13e3e8fbb7e6","target_role":"school","policy_id":"pedestrian-v1-exploratory","distance_mm":1727515,"incomplete":true,"part":"snap","role":"origin"},"geometry":{"type":"LineString","coordinates":[[71.4240976,51.1666264],[71.42446385172303,51.166660745342014]]}},{"type":"Feature","properties":{"origin_id":"grid-00","target_id":"8ca53724-c558-46b7-826b-13e3e8fbb7e6","target_role":"school","policy_id":"pedestrian-v1-exploratory","distance_mm":1727515,"incomplete":true,"part":"network"},"geometry":{"type":"LineString","coordinates":[[71.42446385172303,51.166660745342014],[71.4245351,51.166362],[71.4245642,51.1662453],[71.4246348,51.1659564],[71.4247419,51.165545],[71.4248465,51.1652827],[71.4250461,51.1653072],[71.4250696,51.1652061],[71.4259648,51.1653137],[71.4263266,51.1653831],[71.4270657,51.1654859],[71.4273678,51.1655241],[71.4276775,51.1655675],[71.4288654,51.1657089],[71.42902,51.165727],[71.4300443,51.1658478],[71.4301354,51.1658591],[71.4313531,51.1660004],[71.4315035,51.1660179],[71.4316463,51.1660347],[71.431907,51.1660652],[71.433805,51.1662871],[71.4341424,51.1663253],[71.4342945,51.1663394],[71.436639,51.1666151],[71.4372216,51.1666839],[71.4372473,51.1666869],[71.4374056,51.1667059],[71.4375013,51.1667138],[71.4385948,51.1668365],[71.4389946,51.1668791],[71.4397669,51.166964],[71.4399152,51.1669805],[71.4400358,51.1669942],[71.4401729,51.1670088],[71.4409037,51.1670905],[71.4422264,51.1672503],[71.4423794,51.1672679],[71.4444374,51.1674823],[71.4445001,51.1672424],[71.4446569,51.1666418],[71.4449462,51.1666805],[71.44528645820967,51.16672190830883]]}},{"type":"Feature","properties":{"origin_id":"grid-00","target_id":"8ca53724-c558-46b7-826b-13e3e8fbb7e6","target_role":"school","policy_id":"pedestrian-v1-exploratory","distance_mm":1727515,"incomplete":true,"part":"snap","role":"target"},"geometry":{"type":"LineString","coordinates":[[71.44528645820967,51.16672190830883],[71.445305,51.166662]]}},{"type":"Feature","properties":{"origin_id":"grid-00","target_id":"a1e56dec-ec3b-4c84-aa96-a4ca5762caf2","target_role":"school","policy_id":"pedestrian-v1-exploratory","distance_mm":856408,"incomplete":true,"part":"snap","role":"origin"},"geometry":{"type":"LineString","coordinates":[[71.4240976,51.1666264],[71.42446385172303,51.166660745342014]]}},{"type":"Feature","properties":{"origin_id":"grid-00","target_id":"a1e56dec-ec3b-4c84-aa96-a4ca5762caf2","target_role":"school","policy_id":"pedestrian-v1-exploratory","distance_mm":856408,"incomplete":true,"part":"network"},"geometry":{"type":"LineString","coordinates":[[71.42446385172303,51.166660745342014],[71.4244377,51.1667704],[71.4249784,51.1668196],[71.4250861,51.1667812],[71.4261758,51.1668926],[71.4261549,51.1670125],[71.4265683,51.1670571],[71.4269248,51.1671008],[71.4268654,51.1673152],[71.4270753,51.1673372],[71.4275496,51.1673902],[71.4276314,51.1674498],[71.4279532,51.1674952],[71.4284795,51.1675588],[71.4286629,51.167581],[71.4288397,51.1676024],[71.4289693,51.1676173],[71.4290333,51.1676245],[71.4294954,51.1676859],[71.4295762,51.1676915],[71.4296921,51.1677055],[71.4303902,51.1677899],[71.4310652,51.1678723],[71.4324818,51.1680429],[71.4338828,51.1682122],[71.4342472,51.1682563],[71.4341395,51.1686068],[71.43411954390609,51.16866977743292]]}},{"type":"Feature","properties":{"origin_id":"grid-00","target_id":"a1e56dec-ec3b-4c84-aa96-a4ca5762caf2","target_role":"school","policy_id":"pedestrian-v1-exploratory","distance_mm":856408,"incomplete":true,"part":"snap","role":"target"},"geometry":{"type":"LineString","coordinates":[[71.43411954390609,51.16866977743292],[71.43372,51.16862]]}},{"type":"Feature","properties":{"origin_id":"grid-00","target_id":"a4483f53-7de8-4df1-b61b-b4066b0ad5dd","target_role":"school","policy_id":"pedestrian-v1-exploratory","distance_mm":279428,"incomplete":true,"part":"snap","role":"origin"},"geometry":{"type":"LineString","coordinates":[[71.4240976,51.1666264],[71.42446385172303,51.166660745342014]]}},{"type":"Feature","properties":{"origin_id":"grid-00","target_id":"a4483f53-7de8-4df1-b61b-b4066b0ad5dd","target_role":"school","policy_id":"pedestrian-v1-exploratory","distance_mm":279428,"incomplete":true,"part":"network"},"geometry":{"type":"LineString","coordinates":[[71.42446385172303,51.166660745342014],[71.4244377,51.1667704],[71.4243664,51.1670356],[71.4241454,51.1679448],[71.4239451,51.1679252],[71.4238502,51.1679443],[71.42292940521206,51.167854905541915]]}},{"type":"Feature","properties":{"origin_id":"grid-00","target_id":"a4483f53-7de8-4df1-b61b-b4066b0ad5dd","target_role":"school","policy_id":"pedestrian-v1-exploratory","distance_mm":279428,"incomplete":true,"part":"snap","role":"target"},"geometry":{"type":"LineString","coordinates":[[71.42292940521206,51.167854905541915],[71.42298,51.16765]]}},{"type":"Feature","properties":{"origin_id":"grid-00","target_id":"b5dd5f1a-9d55-48b1-9d68-7172ea84da3f","target_role":"school","policy_id":"pedestrian-v1-exploratory","distance_mm":1620517,"incomplete":true,"part":"snap","role":"origin"},"geometry":{"type":"LineString","coordinates":[[71.4240976,51.1666264],[71.42446385172303,51.166660745342014]]}},{"type":"Feature","properties":{"origin_id":"grid-00","target_id":"b5dd5f1a-9d55-48b1-9d68-7172ea84da3f","target_role":"school","policy_id":"pedestrian-v1-exploratory","distance_mm":1620517,"incomplete":true,"part":"network"},"geometry":{"type":"LineString","coordinates":[[71.42446385172303,51.166660745342014],[71.4245351,51.166362],[71.4245642,51.1662453],[71.4246348,51.1659564],[71.4247419,51.165545],[71.4248465,51.1652827],[71.4250461,51.1653072],[71.4250696,51.1652061],[71.4259648,51.1653137],[71.4263266,51.1653831],[71.4270657,51.1654859],[71.4273678,51.1655241],[71.4276775,51.1655675],[71.4288654,51.1657089],[71.42902,51.165727],[71.4300443,51.1658478],[71.4301354,51.1658591],[71.4313531,51.1660004],[71.4315035,51.1660179],[71.4316463,51.1660347],[71.431907,51.1660652],[71.433805,51.1662871],[71.4341424,51.1663253],[71.4341788,51.1662332],[71.4342224,51.1662129],[71.4342948,51.1662207],[71.434379,51.1662298],[71.4346158,51.1661312],[71.437237,51.1664283],[71.4373289,51.1664387],[71.4374784,51.1664557],[71.4375195,51.1663146],[71.4376335,51.1663275],[71.4377068,51.1661169],[71.437948,51.1653732],[71.4393902,51.1655499],[71.4394848,51.1655604],[71.4395449,51.1655479],[71.439578,51.1655209],[71.4396281,51.1655267],[71.4401923,51.1655921],[71.440318,51.1656067],[71.4404123,51.1653035],[71.4404236,51.1652632],[71.4404695,51.1650985],[71.4405973,51.164672],[71.4408191,51.1646914],[71.4409773,51.164711],[71.4409546,51.1647867],[71.4410961,51.1648031],[71.44179291014692,51.16488587709192]]}},{"type":"Feature","properties":{"origin_id":"grid-00","target_id":"b5dd5f1a-9d55-48b1-9d68-7172ea84da3f","target_role":"school","policy_id":"pedestrian-v1-exploratory","distance_mm":1620517,"incomplete":true,"part":"snap","role":"target"},"geometry":{"type":"LineString","coordinates":[[71.44179291014692,51.16488587709192],[71.44184,51.16473]]}},{"type":"Feature","properties":{"origin_id":"grid-00","target_id":"c83fb2da-1be8-4d7d-8d4a-fc95b6d5bf5a","target_role":"school","policy_id":"pedestrian-v1-exploratory","distance_mm":199736,"incomplete":true,"part":"snap","role":"origin"},"geometry":{"type":"LineString","coordinates":[[71.4240976,51.1666264],[71.42446385172303,51.166660745342014]]}},{"type":"Feature","properties":{"origin_id":"grid-00","target_id":"c83fb2da-1be8-4d7d-8d4a-fc95b6d5bf5a","target_role":"school","policy_id":"pedestrian-v1-exploratory","distance_mm":199736,"incomplete":true,"part":"network"},"geometry":{"type":"LineString","coordinates":[[71.42446385172303,51.166660745342014],[71.4244377,51.1667704],[71.4243664,51.1670356],[71.4237712,51.1669688],[71.4235375,51.1675908]]}},{"type":"Feature","properties":{"origin_id":"grid-00","target_id":"c83fb2da-1be8-4d7d-8d4a-fc95b6d5bf5a","target_role":"school","policy_id":"pedestrian-v1-exploratory","distance_mm":199736,"incomplete":true,"part":"snap","role":"target"},"geometry":{"type":"LineString","coordinates":[[71.4235375,51.1675908],[71.423338,51.1677]]}},{"type":"Feature","properties":{"origin_id":"grid-00","target_id":"c97435da-cd05-4549-bec1-ff297e858554","target_role":"school","policy_id":"pedestrian-v1-exploratory","distance_mm":1550504,"incomplete":true,"part":"snap","role":"origin"},"geometry":{"type":"LineString","coordinates":[[71.4240976,51.1666264],[71.42446385172303,51.166660745342014]]}},{"type":"Feature","properties":{"origin_id":"grid-00","target_id":"c97435da-cd05-4549-bec1-ff297e858554","target_role":"school","policy_id":"pedestrian-v1-exploratory","distance_mm":1550504,"incomplete":true,"part":"network"},"geometry":{"type":"LineString","coordinates":[[71.42446385172303,51.166660745342014],[71.4244377,51.1667704],[71.4243664,51.1670356],[71.4241454,51.1679448],[71.4241025,51.1680998],[71.4240481,51.1682571],[71.424008,51.1683943],[71.4238291,51.1690537],[71.42379,51.169198],[71.4237204,51.1694479],[71.423713,51.1694745],[71.4236671,51.1696289],[71.4236365,51.1697353],[71.4232952,51.1709638],[71.423262,51.1710796],[71.423238,51.1711538],[71.4232199,51.1712257],[71.4231495,51.1714822],[71.4230034,51.1720104],[71.4229934,51.1720467],[71.422931,51.1722643],[71.4228753,51.1724704],[71.4227203,51.1730193],[71.4224164,51.1740745],[71.4222585,51.1746694],[71.4222015,51.174884],[71.4219649,51.1756706],[71.4219461,51.1757463],[71.4217691,51.1763693],[71.4217423,51.1764636],[71.4215986,51.1765969],[71.4215475,51.1766316],[71.4213809,51.1766913],[71.4214511,51.1767469],[71.4214184,51.1768486],[71.4213778,51.1770068],[71.4213574,51.1771123],[71.4191969,51.1768357],[71.41897,51.1775989],[71.4194537,51.1776586]]}},{"type":"Feature","properties":{"origin_id":"grid-00","target_id":"c97435da-cd05-4549-bec1-ff297e858554","target_role":"school","policy_id":"pedestrian-v1-exploratory","distance_mm":1550504,"incomplete":true,"part":"snap","role":"target"},"geometry":{"type":"LineString","coordinates":[[71.4194537,51.1776586],[71.420262,51.177527]]}},{"type":"Feature","properties":{"origin_id":"grid-00","target_id":"de04f003-bb3d-4ea7-93e1-cd825e5c1783","target_role":"school","policy_id":"pedestrian-v1-exploratory","distance_mm":1823087,"incomplete":true,"part":"snap","role":"origin"},"geometry":{"type":"LineString","coordinates":[[71.4240976,51.1666264],[71.42446385172303,51.166660745342014]]}},{"type":"Feature","properties":{"origin_id":"grid-00","target_id":"de04f003-bb3d-4ea7-93e1-cd825e5c1783","target_role":"school","policy_id":"pedestrian-v1-exploratory","distance_mm":1823087,"incomplete":true,"part":"network"},"geometry":{"type":"LineString","coordinates":[[71.42446385172303,51.166660745342014],[71.4244377,51.1667704],[71.4243664,51.1670356],[71.4241454,51.1679448],[71.4241025,51.1680998],[71.4240481,51.1682571],[71.424008,51.1683943],[71.4238291,51.1690537],[71.42379,51.169198],[71.4237204,51.1694479],[71.423713,51.1694745],[71.4236671,51.1696289],[71.4236365,51.1697353],[71.4232952,51.1709638],[71.423262,51.1710796],[71.423238,51.1711538],[71.4232199,51.1712257],[71.4231495,51.1714822],[71.4230034,51.1720104],[71.4229934,51.1720467],[71.422931,51.1722643],[71.4228753,51.1724704],[71.4227203,51.1730193],[71.4224164,51.1740745],[71.4222585,51.1746694],[71.4222015,51.174884],[71.4219649,51.1756706],[71.4219461,51.1757463],[71.4217691,51.1763693],[71.4218335,51.176561],[71.421871,51.1766593],[71.4219207,51.17673],[71.4219582,51.1767543],[71.4220709,51.1768031],[71.4222962,51.1768544],[71.4227258,51.1769937],[71.4237881,51.1771102],[71.4237364,51.1772787],[71.4236998,51.1773971],[71.4237021,51.1775002],[71.4236057,51.1779552],[71.42356,51.1781652],[71.4235397,51.1783433],[71.4234535,51.178636],[71.4233012,51.1791228],[71.4232378,51.1792321],[71.4234208,51.1792538],[71.4235852,51.1792732],[71.4237518,51.1793149],[71.4240772,51.1793594],[71.4241022,51.1793628],[71.4252785,51.1794982],[71.4253324,51.179517],[71.4254075,51.1795448],[71.4254974,51.179559],[71.42655331014424,51.17968570565065]]}},{"type":"Feature","properties":{"origin_id":"grid-00","target_id":"de04f003-bb3d-4ea7-93e1-cd825e5c1783","target_role":"school","policy_id":"pedestrian-v1-exploratory","distance_mm":1823087,"incomplete":true,"part":"snap","role":"target"},"geometry":{"type":"LineString","coordinates":[[71.42655331014424,51.17968570565065],[71.426672,51.179297]]}},{"type":"Feature","properties":{"origin_id":"grid-00","target_id":"cand-A","target_role":"candidate","policy_id":"pedestrian-v1-exploratory","distance_mm":1279484,"incomplete":true,"part":"snap","role":"origin"},"geometry":{"type":"LineString","coordinates":[[71.4240976,51.1666264],[71.42446385172303,51.166660745342014]]}},{"type":"Feature","properties":{"origin_id":"grid-00","target_id":"cand-A","target_role":"candidate","policy_id":"pedestrian-v1-exploratory","distance_mm":1279484,"incomplete":true,"part":"network"},"geometry":{"type":"LineString","coordinates":[[71.42446385172303,51.166660745342014],[71.4244377,51.1667704],[71.4243664,51.1670356],[71.4241454,51.1679448],[71.4243505,51.1679676],[71.4262444,51.1681584],[71.4262752,51.1681899],[71.4263219,51.1682511],[71.4264809,51.1682695],[71.4265907,51.1682823],[71.426553,51.1683942],[71.4265146,51.1685255],[71.4263656,51.1690569],[71.4261349,51.1698797],[71.4259266,51.170674],[71.4259896,51.170972],[71.4260312,51.1711333],[71.4260746,51.1712277],[71.4259961,51.1712864],[71.42596,51.1714013],[71.425939,51.1714639],[71.4259185,51.1715321],[71.4257035,51.1722397],[71.4256837,51.1723031],[71.4256575,51.1723987],[71.4256376,51.1724679],[71.4255872,51.1726295],[71.4255611,51.172727],[71.4254518,51.173224],[71.42533,51.1736569],[71.4252758,51.1736956],[71.4252017,51.1739476],[71.4259443,51.1740871],[71.4258197,51.1744694],[71.4262083,51.1745171],[71.4267335,51.1745816],[71.4275386,51.1746894],[71.4276106,51.1746952],[71.4276645,51.1746999],[71.42836726433379,51.17478822969744]]}},{"type":"Feature","properties":{"origin_id":"grid-00","target_id":"cand-A","target_role":"candidate","policy_id":"pedestrian-v1-exploratory","distance_mm":1279484,"incomplete":true,"part":"snap","role":"target"},"geometry":{"type":"LineString","coordinates":[[71.42836726433379,51.17478822969744],[71.4283918,51.1747115]]}},{"type":"Feature","properties":{"origin_id":"grid-00","target_id":"cand-B","target_role":"candidate","policy_id":"pedestrian-v1-exploratory","distance_mm":1092771,"incomplete":true,"part":"snap","role":"origin"},"geometry":{"type":"LineString","coordinates":[[71.4240976,51.1666264],[71.42446385172303,51.166660745342014]]}},{"type":"Feature","properties":{"origin_id":"grid-00","target_id":"cand-B","target_role":"candidate","policy_id":"pedestrian-v1-exploratory","distance_mm":1092771,"incomplete":true,"part":"network"},"geometry":{"type":"LineString","coordinates":[[71.42446385172303,51.166660745342014],[71.4244377,51.1667704],[71.4249784,51.1668196],[71.4250861,51.1667812],[71.4261758,51.1668926],[71.4261549,51.1670125],[71.4265683,51.1670571],[71.4269248,51.1671008],[71.4268654,51.1673152],[71.4270753,51.1673372],[71.4275496,51.1673902],[71.4276314,51.1674498],[71.4279532,51.1674952],[71.4284795,51.1675588],[71.4286629,51.167581],[71.4288397,51.1676024],[71.4289693,51.1676173],[71.4290333,51.1676245],[71.4294954,51.1676859],[71.4295762,51.1676915],[71.4296921,51.1677055],[71.4303902,51.1677899],[71.4310652,51.1678723],[71.4324818,51.1680429],[71.4338828,51.1682122],[71.4342472,51.1682563],[71.4341395,51.1686068],[71.4339938,51.1690666],[71.43695453426312,51.16940872403121]]}},{"type":"Feature","properties":{"origin_id":"grid-00","target_id":"cand-B","target_role":"candidate","policy_id":"pedestrian-v1-exploratory","distance_mm":1092771,"incomplete":true,"part":"snap","role":"target"},"geometry":{"type":"LineString","coordinates":[[71.43695453426312,51.16940872403121],[71.4369802,51.1693214]]}}]}
