{"type":"FeatureCollection","features":[{"type":"Feature","properties":{"origin_id":"grid-00","target_id":"01961e84-815f-4bd1-85c3-6bf1734256ec","target_role":"school","policy_id":"pedestrian-v1-exploratory","distance_mm":1869772,"incomplete":true,"part":"snap","role":"origin"},"geometry":{"type":"LineString","coordinates":[[69.5982236,42.3102382],[69.59834119467757,42.31021591372646]]}},{"type":"Feature","properties":{"origin_id":"grid-00","target_id":"01961e84-815f-4bd1-85c3-6bf1734256ec","target_role":"school","policy_id":"pedestrian-v1-exploratory","distance_mm":1869772,"incomplete":true,"part":"network"},"geometry":{"type":"LineString","coordinates":[[69.59834119467757,42.31021591372646],[69.5984079,42.3104084],[69.5984394,42.3104992],[69.5985168,42.3104863],[69.5987619,42.3111477],[69.5990081,42.3118274],[69.599928,42.311601],[69.6000878,42.3115617],[69.6002922,42.3115114],[69.6010586,42.3113227],[69.6015824,42.3112232],[69.6027176,42.3110076],[69.6032005,42.3109262],[69.6032981,42.3109482],[69.6035313,42.3110931],[69.6036579,42.3112386],[69.6038125,42.3113602],[69.6039314,42.3112992],[69.6046463,42.3118515],[69.6047971,42.3119647],[69.604922,42.3119362],[69.6053285,42.3122169],[69.6054909,42.3123291],[69.6059988,42.3126799],[69.6065974,42.3130933],[69.6067931,42.3135395],[69.6068179,42.3135961],[69.6068925,42.3137662],[69.6071587,42.3143732],[69.6073328,42.3147724],[69.6074274,42.3149899],[69.6074863,42.3151232],[69.6077824,42.3157951],[69.6078067,42.3158519],[69.6078386,42.3159282],[69.6078614,42.3159838],[69.6079398,42.3161698],[69.6080115,42.3163359],[69.6082218,42.3168143],[69.6083708,42.3171525],[69.6084292,42.3172857],[69.6086555,42.3178085],[69.6088005,42.3181488],[69.6089057,42.3183986],[69.609194,42.3190743],[69.6093658,42.3194744],[69.609496,42.319773],[69.6097671,42.320384],[69.61049057821062,42.320204991351574]]}},{"type":"Feature","properties":{"origin_id":"grid-00","target_id":"01961e84-815f-4bd1-85c3-6bf1734256ec","target_role":"school","policy_id":"pedestrian-v1-exploratory","distance_mm":1869772,"incomplete":true,"part":"snap","role":"target"},"geometry":{"type":"LineString","coordinates":[[69.61049057821062,42.320204991351574],[69.61052,42.32027]]}},{"type":"Feature","properties":{"origin_id":"grid-00","target_id":"01eb7090-bb5f-4e52-b3c9-4ef95707ad67","target_role":"school","policy_id":"pedestrian-v1-exploratory","distance_mm":997148,"incomplete":true,"part":"snap","role":"origin"},"geometry":{"type":"LineString","coordinates":[[69.5982236,42.3102382],[69.59834119467757,42.31021591372646]]}},{"type":"Feature","properties":{"origin_id":"grid-00","target_id":"01eb7090-bb5f-4e52-b3c9-4ef95707ad67","target_role":"school","policy_id":"pedestrian-v1-exploratory","distance_mm":997148,"incomplete":true,"part":"network"},"geometry":{"type":"LineString","coordinates":[[69.59834119467757,42.31021591372646],[69.5984079,42.3104084],[69.5984394,42.3104992],[69.5985168,42.3104863],[69.5987619,42.3111477],[69.5990081,42.3118274],[69.5995251,42.3131608],[69.6005165,42.3129357],[69.6006298,42.313203],[69.60092,42.3138934],[69.6009565,42.3139249],[69.6010644,42.3139406],[69.6011494,42.3141798],[69.6019467,42.3139876],[69.6020032,42.3141141],[69.6020343,42.3141837],[69.602347,42.3149532],[69.602408,42.3150825],[69.6025193,42.3153314],[69.6025715,42.3154577],[69.6026196,42.3155721],[69.60315487921476,42.31666231509088]]}},{"type":"Feature","properties":{"origin_id":"grid-00","target_id":"01eb7090-bb5f-4e52-b3c9-4ef95707ad67","target_role":"school","policy_id":"pedestrian-v1-exploratory","distance_mm":997148,"incomplete":true,"part":"snap","role":"target"},"geometry":{"type":"LineString","coordinates":[[69.60315487921476,42.31666231509088],[69.60294,42.31672]]}},{"type":"Feature","properties":{"origin_id":"grid-00","target_id":"176c5993-4b62-4e90-849f-88addc0153bb","target_role":"school","policy_id":"pedestrian-v1-exploratory","distance_mm":1770060,"incomplete":true,"part":"snap","role":"origin"},"geometry":{"type":"LineString","coordinates":[[69.5982236,42.3102382],[69.59834119467757,42.31021591372646]]}},{"type":"Feature","properties":{"origin_id":"grid-00","target_id":"176c5993-4b62-4e90-849f-88addc0153bb","target_role":"school","policy_id":"pedestrian-v1-exploratory","distance_mm":1770060,"incomplete":true,"part":"network"},"geometry":{"type":"LineString","coordinates":[[69.59834119467757,42.31021591372646],[69.5984079,42.3104084],[69.5984394,42.3104992],[69.5985168,42.3104863],[69.5987619,42.3111477],[69.5990081,42.3118274],[69.5995251,42.3131608],[69.6005165,42.3129357],[69.6006298,42.313203],[69.60092,42.3138934],[69.6009565,42.3139249],[69.6010644,42.3139406],[69.6011494,42.3141798],[69.6019467,42.3139876],[69.6020032,42.3141141],[69.6020343,42.3141837],[69.602347,42.3149532],[69.602408,42.3150825],[69.6025193,42.3153314],[69.6025715,42.3154577],[69.6026196,42.3155721],[69.6032432,42.3168422],[69.6032663,42.3169024],[69.603297,42.3169695],[69.6033306,42.3170282],[69.6033707,42.3170187],[69.603487,42.3169905],[69.6038028,42.3177112],[69.6040367,42.3182479],[69.6045699,42.3194715],[69.6051286,42.3208198],[69.6051789,42.320941],[69.6054509,42.3215906],[69.6057014,42.322201],[69.6059843,42.3229266],[69.60564687426314,42.32300276779721]]}},{"type":"Feature","properties":{"origin_id":"grid-00","target_id":"176c5993-4b62-4e90-849f-88addc0153bb","target_role":"school","policy_id":"pedestrian-v1-exploratory","distance_mm":1770060,"incomplete":true,"part":"snap","role":"target"},"geometry":{"type":"LineString","coordinates":[[69.60564687426314,42.32300276779721],[69.605699,42.323129]]}},{"type":"Feature","properties":{"origin_id":"grid-00","target_id":"18df815b-170a-437c-977f-0769690315d4","target_role":"school","policy_id":"pedestrian-v1-exploratory","distance_mm":1771907,"incomplete":true,"part":"snap","role":"origin"},"geometry":{"type":"LineString","coordinates":[[69.5982236,42.3102382],[69.59834119467757,42.31021591372646]]}},{"type":"Feature","properties":{"origin_id":"grid-00","target_id":"18df815b-170a-437c-977f-0769690315d4","target_role":"school","policy_id":"pedestrian-v1-exploratory","distance_mm":1771907,"incomplete":true,"part":"network"},"geometry":{"type":"LineString","coordinates":[[69.59834119467757,42.31021591372646],[69.5984079,42.3104084],[69.5984394,42.3104992],[69.5985168,42.3104863],[69.5987619,42.3111477],[69.5990081,42.3118274],[69.599928,42.311601],[69.6000878,42.3115617],[69.6002922,42.3115114],[69.6010586,42.3113227],[69.6015824,42.3112232],[69.6027176,42.3110076],[69.6032005,42.3109262],[69.6032981,42.3109482],[69.6035313,42.3110931],[69.6036579,42.3112386],[69.6038125,42.3113602],[69.6039314,42.3112992],[69.6046463,42.3118515],[69.6047971,42.3119647],[69.604922,42.3119362],[69.6053285,42.3122169],[69.6054909,42.3123291],[69.6059988,42.3126799],[69.6065974,42.3130933],[69.6067931,42.3135395],[69.6068179,42.3135961],[69.6068925,42.3137662],[69.6071587,42.3143732],[69.6088566,42.3139613],[69.6089921,42.3139285],[69.6093946,42.3138308],[69.6116001,42.3133523],[69.612062,42.3132342],[69.6125856,42.3131003],[69.6134364,42.3129103],[69.6136875,42.3128489],[69.6147441139955,42.31259038917182]]}},{"type":"Feature","properties":{"origin_id":"grid-00","target_id":"18df815b-170a-437c-977f-0769690315d4","target_role":"school","policy_id":"pedestrian-v1-exploratory","distance_mm":1771907,"incomplete":true,"part":"snap","role":"target"},"geometry":{"type":"LineString","coordinates":[[69.6147441139955,42.31259038917182],[69.61482,42.31276]]}},{"type":"Feature","properties":{"origin_id":"grid-00","target_id":"51ac9e88-456d-4b3a-a657-d3cbc516c708","target_role":"school","policy_id":"pedestrian-v1-exploratory","distance_mm":1037944,"incomplete":true,"part":"snap","role":"origin"},"geometry":{"type":"LineString","coordinates":[[69.5982236,42.3102382],[69.59834119467757,42.31021591372646]]}},{"type":"Feature","properties":{"origin_id":"grid-00","target_id":"51ac9e88-456d-4b3a-a657-d3cbc516c708","target_role":"school","policy_id":"pedestrian-v1-exploratory","distance_mm":1037944,"incomplete":true,"part":"network"},"geometry":{"type":"LineString","coordinates":[[69.59834119467757,42.31021591372646],[69.5984079,42.3104084],[69.5984394,42.3104992],[69.5985248,42.3107457],[69.5986703,42.3111622],[69.5989098,42.3118516],[69.5982522,42.3120165],[69.5978008,42.3122413],[69.5974428,42.3124542],[69.5970486,42.3126887],[69.5962815,42.31291],[69.5961282,42.3129986],[69.5959119,42.3131603],[69.5957274,42.3132758],[69.5954812,42.3135046],[69.5953868,42.3135818],[69.5953463,42.3136012],[69.5953983,42.3141189],[69.5954441,42.3143939],[69.5955006,42.3146319],[69.595471,42.314874],[69.595528,42.315026],[69.5955867,42.3151906],[69.5956839,42.3154221],[69.5958462,42.3158056],[69.5956651,42.315859],[69.5957271,42.3160054],[69.5958386,42.3163206],[69.5961793,42.3171145],[69.5961126,42.3171308],[69.5960566,42.3171425],[69.596022,42.3170637],[69.59586734058556,42.31668496452496]]}},{"type":"Feature","properties":{"origin_id":"grid-00","target_id":"51ac9e88-456d-4b3a-a657-d3cbc516c708","target_role":"school","policy_id":"pedestrian-v1-exploratory","distance_mm":1037944,"incomplete":true,"part":"snap","role":"target"},"geometry":{"type":"LineString","coordinates":[[69.59586734058556,42.31668496452496],[69.5958,42.3167]]}},{"type":"Feature","properties":{"origin_id":"grid-00","target_id":"537980b9-4d8b-4c25-8e27-a6af60ffac34","target_role":"school","policy_id":"pedestrian-v1-exploratory","distance_mm":1604232,"incomplete":true,"part":"snap","role":"origin"},"geometry":{"type":"LineString","coordinates":[[69.5982236,42.3102382],[69.59834119467757,42.31021591372646]]}},{"type":"Feature","properties":{"origin_id":"grid-00","target_id":"537980b9-4d8b-4c25-8e27-a6af60ffac34","target_role":"school","policy_id":"pedestrian-v1-exploratory","distance_mm":1604232,"incomplete":true,"part":"network"},"geometry":{"type":"LineString","coordinates":[[69.59834119467757,42.31021591372646],[69.5984079,42.3104084],[69.5984394,42.3104992],[69.5985168,42.3104863],[69.5987619,42.3111477],[69.5990081,42.3118274],[69.5995251,42.3131608],[69.6005165,42.3129357],[69.6006298,42.313203],[69.60092,42.3138934],[69.6009565,42.3139249],[69.6010644,42.3139406],[69.6011494,42.3141798],[69.6019467,42.3139876],[69.6020032,42.3141141],[69.6020343,42.3141837],[69.602347,42.3149532],[69.602408,42.3150825],[69.6025193,42.3153314],[69.6025715,42.3154577],[69.6026196,42.3155721],[69.6032432,42.3168422],[69.6032663,42.3169024],[69.603297,42.3169695],[69.6033306,42.3170282],[69.6033707,42.3170187],[69.603487,42.3169905],[69.6038028,42.3177112],[69.6040367,42.3182479],[69.6045699,42.3194715],[69.6051286,42.3208198],[69.6051789,42.320941],[69.6054509,42.3215906],[69.60519243721127,42.32165143714974]]}},{"type":"Feature","properties":{"origin_id":"grid-00","target_id":"537980b9-4d8b-4c25-8e27-a6af60ffac34","target_role":"school","policy_id":"pedestrian-v1-exploratory","distance_mm":1604232,"incomplete":true,"part":"snap","role":"target"},"geometry":{"type":"LineString","coordinates":[[69.60519243721127,42.32165143714974],[69.605231,42.321741]]}},{"type":"Feature","properties":{"origin_id":"grid-00","target_id":"68c8f007-75bc-42f6-8da8-baa72042bde4","target_role":"school","policy_id":"pedestrian-v1-exploratory","distance_mm":1037944,"incomplete":true,"part":"snap","role":"origin"},"geometry":{"type":"LineString","coordinates":[[69.5982236,42.3102382],[69.59834119467757,42.31021591372646]]}},{"type":"Feature","properties":{"origin_id":"grid-00","target_id":"68c8f007-75bc-42f6-8da8-baa72042bde4","target_role":"school","policy_id":"pedestrian-v1-exploratory","distance_mm":1037944,"incomplete":true,"part":"network"},"geometry":{"type":"LineString","coordinates":[[69.59834119467757,42.31021591372646],[69.5984079,42.3104084],[69.5984394,42.3104992],[69.5985248,42.3107457],[69.5986703,42.3111622],[69.5989098,42.3118516],[69.5982522,42.3120165],[69.5978008,42.3122413],[69.5974428,42.3124542],[69.5970486,42.3126887],[69.5962815,42.31291],[69.5961282,42.3129986],[69.5959119,42.3131603],[69.5957274,42.3132758],[69.5954812,42.3135046],[69.5953868,42.3135818],[69.5953463,42.3136012],[69.5953983,42.3141189],[69.5954441,42.3143939],[69.5955006,42.3146319],[69.595471,42.314874],[69.595528,42.315026],[69.5955867,42.3151906],[69.5956839,42.3154221],[69.5958462,42.3158056],[69.5956651,42.315859],[69.5957271,42.3160054],[69.5958386,42.3163206],[69.5961793,42.3171145],[69.5961126,42.3171308],[69.5960566,42.3171425],[69.596022,42.3170637],[69.59586734058556,42.31668496452496]]}},{"type":"Feature","properties":{"origin_id":"grid-00","target_id":"68c8f007-75bc-42f6-8da8-baa72042bde4","target_role":"school","policy_id":"pedestrian-v1-exploratory","distance_mm":1037944,"incomplete":true,"part":"snap","role":"target"},"geometry":{"type":"LineString","coordinates":[[69.59586734058556,42.31668496452496],[69.5958,42.3167]]}},{"type":"Feature","properties":{"origin_id":"grid-00","target_id":"931d6da5-e9db-4523-a6fd-79c88f235f88","target_role":"school","policy_id":"pedestrian-v1-exploratory","distance_mm":577025,"incomplete":true,"part":"snap","role":"origin"},"geometry":{"type":"LineString","coordinates":[[69.5982236,42.3102382],[69.59834119467757,42.31021591372646]]}},{"type":"Feature","properties":{"origin_id":"grid-00","target_id":"931d6da5-e9db-4523-a6fd-79c88f235f88","target_role":"school","policy_id":"pedestrian-v1-exploratory","distance_mm":577025,"incomplete":true,"part":"network"},"geometry":{"type":"LineString","coordinates":[[69.59834119467757,42.31021591372646],[69.5984079,42.3104084],[69.5984394,42.3104992],[69.5985248,42.3107457],[69.5986703,42.3111622],[69.5989098,42.3118516],[69.5992477,42.3127178],[69.5993123,42.3128836],[69.5994214,42.3131844],[69.5998052,42.3141871],[69.5999295,42.3145119],[69.5998736,42.3145285],[69.59982,42.3145445],[69.59930260200676,42.314698348013685]]}},{"type":"Feature","properties":{"origin_id":"grid-00","target_id":"931d6da5-e9db-4523-a6fd-79c88f235f88","target_role":"school","policy_id":"pedestrian-v1-exploratory","distance_mm":577025,"incomplete":true,"part":"snap","role":"target"},"geometry":{"type":"LineString","coordinates":[[69.59930260200676,42.314698348013685],[69.599229,42.314563]]}},{"type":"Feature","properties":{"origin_id":"grid-00","target_id":"99759f95-3ddb-4d87-8091-c301f9c23c9b","target_role":"school","policy_id":"pedestrian-v1-exploratory","distance_mm":1904338,"incomplete":true,"part":"snap","role":"origin"},"geometry":{"type":"LineString","coordinates":[[69.5982236,42.3102382],[69.59834119467757,42.31021591372646]]}},{"type":"Feature","properties":{"origin_id":"grid-00","target_id":"99759f95-3ddb-4d87-8091-c301f9c23c9b","target_role":"school","policy_id":"pedestrian-v1-exploratory","distance_mm":1904338,"incomplete":true,"part":"network"},"geometry":{"type":"LineString","coordinates":[[69.59834119467757,42.31021591372646],[69.5984079,42.3104084],[69.5984394,42.3104992],[69.5985248,42.3107457],[69.5986703,42.3111622],[69.5989098,42.3118516],[69.5982522,42.3120165],[69.5978008,42.3122413],[69.5974428,42.3124542],[69.5970486,42.3126887],[69.5962815,42.31291],[69.5961282,42.3129986],[69.5959119,42.3131603],[69.5957274,42.3132758],[69.5954812,42.3135046],[69.5953868,42.3135818],[69.5953463,42.3136012],[69.5953983,42.3141189],[69.5954441,42.3143939],[69.5955006,42.3146319],[69.595471,42.314874],[69.595528,42.315026],[69.5955867,42.3151906],[69.5956839,42.3154221],[69.5958462,42.3158056],[69.5956651,42.315859],[69.5957271,42.3160054],[69.5952806,42.3160768],[69.5945482,42.3161895],[69.5945635,42.3162474],[69.5945747,42.3162899],[69.5946511,42.3165787],[69.5946551,42.3166055],[69.594647,42.3166305],[69.5946256,42.3166561],[69.5945987,42.3166642],[69.5934802,42.3169557],[69.5933032,42.3170311],[69.5931879,42.3170847],[69.5930859,42.3171739],[69.5930538,42.3172215],[69.5931141,42.3175057],[69.5931369,42.3175798],[69.5931634,42.3176701],[69.5928095,42.3177127],[69.5928144,42.3177647],[69.593018,42.3187152],[69.593133,42.3191364],[69.5931396,42.3191709],[69.5931487,42.319218],[69.5931612,42.319283],[69.5931775,42.3193679],[69.5931892,42.3194281],[69.593386,42.3199029],[69.5937098,42.3206758],[69.5938855,42.321148],[69.5939765,42.3213748],[69.5939403,42.3213862],[69.5941151,42.3218227],[69.5941441,42.3219004],[69.594171,42.3219658],[69.5941851,42.322],[69.5943944,42.3225078],[69.5946632,42.3231411],[69.5946901,42.3232045],[69.5948400839619,42.32355782607863]]}},{"type":"Feature","properties":{"origin_id":"grid-00","target_id":"99759f95-3ddb-4d87-8091-c301f9c23c9b","target_role":"school","policy_id":"pedestrian-v1-exploratory","distance_mm":1904338,"incomplete":true,"part":"snap","role":"target"},"geometry":{"type":"LineString","coordinates":[[69.5948400839619,42.32355782607863],[69.59496,42.32353]]}},{"type":"Feature","properties":{"origin_id":"grid-00","target_id":"9d31b953-ccc4-42bd-a3a3-3e4e21f44051","target_role":"school","policy_id":"pedestrian-v1-exploratory","distance_mm":1037944,"incomplete":true,"part":"snap","role":"origin"},"geometry":{"type":"LineString","coordinates":[[69.5982236,42.3102382],[69.59834119467757,42.31021591372646]]}},{"type":"Feature","properties":{"origin_id":"grid-00","target_id":"9d31b953-ccc4-42bd-a3a3-3e4e21f44051","target_role":"school","policy_id":"pedestrian-v1-exploratory","distance_mm":1037944,"incomplete":true,"part":"network"},"geometry":{"type":"LineString","coordinates":[[69.59834119467757,42.31021591372646],[69.5984079,42.3104084],[69.5984394,42.3104992],[69.5985248,42.3107457],[69.5986703,42.3111622],[69.5989098,42.3118516],[69.5982522,42.3120165],[69.5978008,42.3122413],[69.5974428,42.3124542],[69.5970486,42.3126887],[69.5962815,42.31291],[69.5961282,42.3129986],[69.5959119,42.3131603],[69.5957274,42.3132758],[69.5954812,42.3135046],[69.5953868,42.3135818],[69.5953463,42.3136012],[69.5953983,42.3141189],[69.5954441,42.3143939],[69.5955006,42.3146319],[69.595471,42.314874],[69.595528,42.315026],[69.5955867,42.3151906],[69.5956839,42.3154221],[69.5958462,42.3158056],[69.5956651,42.315859],[69.5957271,42.3160054],[69.5958386,42.3163206],[69.5961793,42.3171145],[69.5961126,42.3171308],[69.5960566,42.3171425],[69.596022,42.3170637],[69.59586734058556,42.31668496452496]]}},{"type":"Feature","properties":{"origin_id":"grid-00","target_id":"9d31b953-ccc4-42bd-a3a3-3e4e21f44051","target_role":"school","policy_id":"pedestrian-v1-exploratory","distance_mm":1037944,"incomplete":true,"part":"snap","role":"target"},"geometry":{"type":"LineString","coordinates":[[69.59586734058556,42.31668496452496],[69.5958,42.3167]]}},{"type":"Feature","properties":{"origin_id":"grid-00","target_id":"a2cb79c8-c922-47a9-96a2-6cc326bbc3d6","target_role":"school","policy_id":"pedestrian-v1-exploratory","distance_mm":1904338,"incomplete":true,"part":"snap","role":"origin"},"geometry":{"type":"LineString","coordinates":[[69.5982236,42.3102382],[69.59834119467757,42.31021591372646]]}},{"type":"Feature","properties":{"origin_id":"grid-00","target_id":"a2cb79c8-c922-47a9-96a2-6cc326bbc3d6","target_role":"school","policy_id":"pedestrian-v1-exploratory","distance_mm":1904338,"incomplete":true,"part":"network"},"geometry":{"type":"LineString","coordinates":[[69.59834119467757,42.31021591372646],[69.5984079,42.3104084],[69.5984394,42.3104992],[69.5985248,42.3107457],[69.5986703,42.3111622],[69.5989098,42.3118516],[69.5982522,42.3120165],[69.5978008,42.3122413],[69.5974428,42.3124542],[69.5970486,42.3126887],[69.5962815,42.31291],[69.5961282,42.3129986],[69.5959119,42.3131603],[69.5957274,42.3132758],[69.5954812,42.3135046],[69.5953868,42.3135818],[69.5953463,42.3136012],[69.5953983,42.3141189],[69.5954441,42.3143939],[69.5955006,42.3146319],[69.595471,42.314874],[69.595528,42.315026],[69.5955867,42.3151906],[69.5956839,42.3154221],[69.5958462,42.3158056],[69.5956651,42.315859],[69.5957271,42.3160054],[69.5952806,42.3160768],[69.5945482,42.3161895],[69.5945635,42.3162474],[69.5945747,42.3162899],[69.5946511,42.3165787],[69.5946551,42.3166055],[69.594647,42.3166305],[69.5946256,42.3166561],[69.5945987,42.3166642],[69.5934802,42.3169557],[69.5933032,42.3170311],[69.5931879,42.3170847],[69.5930859,42.3171739],[69.5930538,42.3172215],[69.5931141,42.3175057],[69.5931369,42.3175798],[69.5931634,42.3176701],[69.5928095,42.3177127],[69.5928144,42.3177647],[69.593018,42.3187152],[69.593133,42.3191364],[69.5931396,42.3191709],[69.5931487,42.319218],[69.5931612,42.319283],[69.5931775,42.3193679],[69.5931892,42.3194281],[69.593386,42.3199029],[69.5937098,42.3206758],[69.5938855,42.321148],[69.5939765,42.3213748],[69.5939403,42.3213862],[69.5941151,42.3218227],[69.5941441,42.3219004],[69.594171,42.3219658],[69.5941851,42.322],[69.5943944,42.3225078],[69.5946632,42.3231411],[69.5946901,42.3232045],[69.5948400839619,42.32355782607863]]}},{"type":"Feature","properties":{"origin_id":"grid-00","target_id":"a2cb79c8-c922-47a9-96a2-6cc326bbc3d6","target_role":"school","policy_id":"pedestrian-v1-exploratory","distance_mm":1904338,"incomplete":true,"part":"snap","role":"target"},"geometry":{"type":"LineString","coordinates":[[69.5948400839619,42.32355782607863],[69.59496,42.32353]]}},{"type":"Feature","properties":{"origin_id":"grid-00","target_id":"b428a01b-fb2a-4dc1-b118-2127814b1fe9","target_role":"school","policy_id":"pedestrian-v1-exploratory","distance_mm":1351361,"incomplete":true,"part":"snap","role":"origin"},"geometry":{"type":"LineString","coordinates":[[69.5982236,42.3102382],[69.59834119467757,42.31021591372646]]}},{"type":"Feature","properties":{"origin_id":"grid-00","target_id":"b428a01b-fb2a-4dc1-b118-2127814b1fe9","target_role":"school","policy_id":"pedestrian-v1-exploratory","distance_mm":1351361,"incomplete":true,"part":"network"},"geometry":{"type":"LineString","coordinates":[[69.59834119467757,42.31021591372646],[69.5984079,42.3104084],[69.5984394,42.3104992],[69.5985248,42.3107457],[69.5986703,42.3111622],[69.5989098,42.3118516],[69.5992477,42.3127178],[69.5993123,42.3128836],[69.5994214,42.3131844],[69.5998052,42.3141871],[69.5999295,42.3145119],[69.5999733,42.3146265],[69.5998784,42.3146571],[69.599928,42.3147527],[69.5995534,42.3148725],[69.5999363,42.315615],[69.6000171,42.3157639],[69.6001193,42.3157679],[69.6002142,42.3157962],[69.6002915,42.3158457],[69.6003429,42.3159112],[69.6003543,42.3159538],[69.6005227,42.3159338],[69.60116,42.3173381],[69.6010298,42.3173658],[69.6010547,42.3174342],[69.6010774,42.3174966],[69.601108,42.3175657],[69.5990599,42.3180477],[69.5992074,42.3183859],[69.5992546,42.318519],[69.5991893,42.31854],[69.5991491,42.3185529],[69.5991477,42.3185856],[69.5991571,42.3186193],[69.5992201,42.3187611],[69.5993462,42.3190457],[69.5994226,42.3192232],[69.5994581,42.3192797],[69.5988756,42.3194166],[69.598791,42.3191968]]}},{"type":"Feature","properties":{"origin_id":"grid-00","target_id":"b428a01b-fb2a-4dc1-b118-2127814b1fe9","target_role":"school","policy_id":"pedestrian-v1-exploratory","distance_mm":1351361,"incomplete":true,"part":"snap","role":"target"},"geometry":{"type":"LineString","coordinates":[[69.598791,42.3191968],[69.59895,42.31906]]}},{"type":"Feature","properties":{"origin_id":"grid-00","target_id":"baeda67d-e701-4c2a-bba6-10a13466e76d","target_role":"school","policy_id":"pedestrian-v1-exploratory","distance_mm":2584983,"incomplete":true,"part":"snap","role":"origin"},"geometry":{"type":"LineString","coordinates":[[69.5982236,42.3102382],[69.59834119467757,42.31021591372646]]}},{"type":"Feature","properties":{"origin_id":"grid-00","target_id":"baeda67d-e701-4c2a-bba6-10a13466e76d","target_role":"school","policy_id":"pedestrian-v1-exploratory","distance_mm":2584983,"incomplete":true,"part":"network"},"geometry":{"type":"LineString","coordinates":[[69.59834119467757,42.31021591372646],[69.5984079,42.3104084],[69.5984394,42.3104992],[69.5985168,42.3104863],[69.5987619,42.3111477],[69.5990081,42.3118274],[69.599928,42.311601],[69.6000878,42.3115617],[69.6002922,42.3115114],[69.6010586,42.3113227],[69.6015824,42.3112232],[69.6027176,42.3110076],[69.6032005,42.3109262],[69.6032981,42.3109482],[69.6035313,42.3110931],[69.6036579,42.3112386],[69.6038125,42.3113602],[69.6039314,42.3112992],[69.6046463,42.3118515],[69.6047971,42.3119647],[69.604922,42.3119362],[69.6053285,42.3122169],[69.6054909,42.3123291],[69.6059988,42.3126799],[69.6065974,42.3130933],[69.6067931,42.3135395],[69.6068179,42.3135961],[69.6068925,42.3137662],[69.6071587,42.3143732],[69.6073328,42.3147724],[69.6074274,42.3149899],[69.6074863,42.3151232],[69.6077824,42.3157951],[69.6078067,42.3158519],[69.6078386,42.3159282],[69.6078614,42.3159838],[69.6079398,42.3161698],[69.6080115,42.3163359],[69.6082218,42.3168143],[69.6083708,42.3171525],[69.6084292,42.3172857],[69.6086555,42.3178085],[69.6088005,42.3181488],[69.6089057,42.3183986],[69.609194,42.3190743],[69.6093658,42.3194744],[69.609496,42.319773],[69.6097671,42.320384],[69.6098263,42.3205161],[69.6101164,42.321173],[69.6103126,42.3211261],[69.6110478,42.3209502],[69.6122939,42.320652],[69.6126234,42.3213763],[69.6129136,42.322014],[69.6140584,42.3217563],[69.6143579,42.3223741],[69.6146764,42.3230729],[69.6150149,42.3229912],[69.6153894,42.3229133],[69.6155402,42.3228926],[69.6155592327229,42.322891843864646]]}},{"type":"Feature","properties":{"origin_id":"grid-00","target_id":"baeda67d-e701-4c2a-bba6-10a13466e76d","target_role":"school","policy_id":"pedestrian-v1-exploratory","distance_mm":2584983,"incomplete":true,"part":"snap","role":"target"},"geometry":{"type":"LineString","coordinates":[[69.6155592327229,42.322891843864646],[69.61557,42.32304]]}},{"type":"Feature","properties":{"origin_id":"grid-00","target_id":"bcd265d0-0799-4dbf-8b15-23bae752a4d2","target_role":"school","policy_id":"pedestrian-v1-exploratory","distance_mm":2584983,"incomplete":true,"part":"snap","role":"origin"},"geometry":{"type":"LineString","coordinates":[[69.5982236,42.3102382],[69.59834119467757,42.31021591372646]]}},{"type":"Feature","properties":{"origin_id":"grid-00","target_id":"bcd265d0-0799-4dbf-8b15-23bae752a4d2","target_role":"school","policy_id":"pedestrian-v1-exploratory","distance_mm":2584983,"incomplete":true,"part":"network"},"geometry":{"type":"LineString","coordinates":[[69.59834119467757,42.31021591372646],[69.5984079,42.3104084],[69.5984394,42.3104992],[69.5985168,42.3104863],[69.5987619,42.3111477],[69.5990081,42.3118274],[69.599928,42.311601],[69.6000878,42.3115617],[69.6002922,42.3115114],[69.6010586,42.3113227],[69.6015824,42.3112232],[69.6027176,42.3110076],[69.6032005,42.3109262],[69.6032981,42.3109482],[69.6035313,42.3110931],[69.6036579,42.3112386],[69.6038125,42.3113602],[69.6039314,42.3112992],[69.6046463,42.3118515],[69.6047971,42.3119647],[69.604922,42.3119362],[69.6053285,42.3122169],[69.6054909,42.3123291],[69.6059988,42.3126799],[69.6065974,42.3130933],[69.6067931,42.3135395],[69.6068179,42.3135961],[69.6068925,42.3137662],[69.6071587,42.3143732],[69.6073328,42.3147724],[69.6074274,42.3149899],[69.6074863,42.3151232],[69.6077824,42.3157951],[69.6078067,42.3158519],[69.6078386,42.3159282],[69.6078614,42.3159838],[69.6079398,42.3161698],[69.6080115,42.3163359],[69.6082218,42.3168143],[69.6083708,42.3171525],[69.6084292,42.3172857],[69.6086555,42.3178085],[69.6088005,42.3181488],[69.6089057,42.3183986],[69.609194,42.3190743],[69.6093658,42.3194744],[69.609496,42.319773],[69.6097671,42.320384],[69.6098263,42.3205161],[69.6101164,42.321173],[69.6103126,42.3211261],[69.6110478,42.3209502],[69.6122939,42.320652],[69.6126234,42.3213763],[69.6129136,42.322014],[69.6140584,42.3217563],[69.6143579,42.3223741],[69.6146764,42.3230729],[69.6150149,42.3229912],[69.6153894,42.3229133],[69.6155402,42.3228926],[69.6155592327229,42.322891843864646]]}},{"type":"Feature","properties":{"origin_id":"grid-00","target_id":"bcd265d0-0799-4dbf-8b15-23bae752a4d2","target_role":"school","policy_id":"pedestrian-v1-exploratory","distance_mm":2584983,"incomplete":true,"part":"snap","role":"target"},"geometry":{"type":"LineString","coordinates":[[69.6155592327229,42.322891843864646],[69.61557,42.32304]]}},{"type":"Feature","properties":{"origin_id":"grid-00","target_id":"fd50a858-462d-477f-8bc6-a8d3e03a9576","target_role":"school","policy_id":"pedestrian-v1-exploratory","distance_mm":1094371,"incomplete":true,"part":"snap","role":"origin"},"geometry":{"type":"LineString","coordinates":[[69.5982236,42.3102382],[69.59834119467757,42.31021591372646]]}},{"type":"Feature","properties":{"origin_id":"grid-00","target_id":"fd50a858-462d-477f-8bc6-a8d3e03a9576","target_role":"school","policy_id":"pedestrian-v1-exploratory","distance_mm":1094371,"incomplete":true,"part":"network"},"geometry":{"type":"LineString","coordinates":[[69.59834119467757,42.31021591372646],[69.5984079,42.3104084],[69.5984394,42.3104992],[69.5985168,42.3104863],[69.5987619,42.3111477],[69.5990081,42.3118274],[69.5995251,42.3131608],[69.6005165,42.3129357],[69.6006298,42.313203],[69.60092,42.3138934],[69.6009565,42.3139249],[69.6010644,42.3139406],[69.6011494,42.3141798],[69.6019467,42.3139876],[69.6020032,42.3141141],[69.6020343,42.3141837],[69.602347,42.3149532],[69.602408,42.3150825],[69.6025193,42.3153314],[69.6025715,42.3154577],[69.6026196,42.3155721],[69.6032432,42.3168422],[69.6032663,42.3169024],[69.603297,42.3169695],[69.6029155,42.3170604],[69.6029451,42.3171219],[69.60303753019984,42.31732532966325]]}},{"type":"Feature","properties":{"origin_id":"grid-00","target_id":"fd50a858-462d-477f-8bc6-a8d3e03a9576","target_role":"school","policy_id":"pedestrian-v1-exploratory","distance_mm":1094371,"incomplete":true,"part":"snap","role":"target"},"geometry":{"type":"LineString","coordinates":[[69.60303753019984,42.31732532966325],[69.60322,42.31728]]}},{"type":"Feature","properties":{"origin_id":"grid-00","target_id":"cand-A","target_role":"candidate","policy_id":"pedestrian-v1-exploratory","distance_mm":1063215,"incomplete":true,"part":"snap","role":"origin"},"geometry":{"type":"LineString","coordinates":[[69.5982236,42.3102382],[69.59834119467757,42.31021591372646]]}},{"type":"Feature","properties":{"origin_id":"grid-00","target_id":"cand-A","target_role":"candidate","policy_id":"pedestrian-v1-exploratory","distance_mm":1063215,"incomplete":true,"part":"network"},"geometry":{"type":"LineString","coordinates":[[69.59834119467757,42.31021591372646],[69.5984079,42.3104084],[69.5984394,42.3104992],[69.5985248,42.3107457],[69.5986703,42.3111622],[69.5989098,42.3118516],[69.5992477,42.3127178],[69.5993123,42.3128836],[69.5994214,42.3131844],[69.5998052,42.3141871],[69.5999295,42.3145119],[69.5999733,42.3146265],[69.5998784,42.3146571],[69.599928,42.3147527],[69.5995534,42.3148725],[69.5999363,42.315615],[69.6000171,42.3157639],[69.6001193,42.3157679],[69.6002142,42.3157962],[69.6002915,42.3158457],[69.6003429,42.3159112],[69.6003543,42.3159538],[69.6005227,42.3159338],[69.60116,42.3173381],[69.6010298,42.3173658],[69.6010547,42.3174342],[69.6010774,42.3174966],[69.601108,42.3175657],[69.6012272,42.3175386],[69.60141,42.3179679],[69.6015671,42.3183222],[69.60183088986669,42.31824978612754]]}},{"type":"Feature","properties":{"origin_id":"grid-00","target_id":"cand-A","target_role":"candidate","policy_id":"pedestrian-v1-exploratory","distance_mm":1063215,"incomplete":true,"part":"snap","role":"target"},"geometry":{"type":"LineString","coordinates":[[69.60183088986669,42.31824978612754],[69.6018676,42.3183229]]}},{"type":"Feature","properties":{"origin_id":"grid-00","target_id":"cand-B","target_role":"candidate","policy_id":"pedestrian-v1-exploratory","distance_mm":1202880,"incomplete":true,"part":"snap","role":"origin"},"geometry":{"type":"LineString","coordinates":[[69.5982236,42.3102382],[69.59834119467757,42.31021591372646]]}},{"type":"Feature","properties":{"origin_id":"grid-00","target_id":"cand-B","target_role":"candidate","policy_id":"pedestrian-v1-exploratory","distance_mm":1202880,"incomplete":true,"part":"network"},"geometry":{"type":"LineString","coordinates":[[69.59834119467757,42.31021591372646],[69.5984079,42.3104084],[69.5984394,42.3104992],[69.5985168,42.3104863],[69.5987619,42.3111477],[69.5990081,42.3118274],[69.599928,42.311601],[69.6000878,42.3115617],[69.6002922,42.3115114],[69.6010586,42.3113227],[69.6015824,42.3112232],[69.6027176,42.3110076],[69.6032005,42.3109262],[69.6032981,42.3109482],[69.6035313,42.3110931],[69.6036579,42.3112386],[69.6038125,42.3113602],[69.6039314,42.3112992],[69.6046463,42.3118515],[69.6047971,42.3119647],[69.604922,42.3119362],[69.6053285,42.3122169],[69.6054909,42.3123291],[69.6059988,42.3126799],[69.6065974,42.3130933],[69.6073419,42.3129107],[69.6076197,42.3128426],[69.6077384,42.3128135],[69.6082479,42.3126886],[69.6088404,42.3125433],[69.6089765,42.3128595],[69.6090217752537,42.312964600629726]]}},{"type":"Feature","properties":{"origin_id":"grid-00","target_id":"cand-B","target_role":"candidate","policy_id":"pedestrian-v1-exploratory","distance_mm":1202880,"incomplete":true,"part":"snap","role":"target"},"geometry":{"type":"LineString","coordinates":[[69.6090217752537,42.312964600629726],[69.6091555,42.3129331]]}}]}
