{"type":"FeatureCollection","name":"shymkent_places_social","release":"2026-09-23.1","city":"shymkent","bbox":[69.593365,42.306645,69.617658,42.324611],"attribution":["Overture Maps Foundation","© OpenStreetMap contributors (ODbL-1.0)"],"kind":"observed_secondary (Overture/OSM), not an official registry","features":[{"type":"Feature","id":"01961e84-815f-4bd1-85c3-6bf1734256ec","geometry":{"type":"Point","coordinates":[69.61052,42.32027]},"properties":{"city":"shymkent","k10_group":"school","overture_id":"01961e84-815f-4bd1-85c3-6bf1734256ec","overture_version":5,"name_primary":"Реклама 42","basic_category":"middle_school","taxonomy":{"primary":"middle_school","hierarchy":["education","place_of_learning","school","middle_school"],"alternates":null},"confidence":0.786377251,"operating_status":null,"addresses":[{"freeform":"Республика көшесі 5","locality":"Шымкент","postcode":null,"region":null,"country":"KZ"}],"sources":[{"property":"","dataset":"meta","license":"CDLA-Permissive-2.0","record_id":"135783212958156","update_time":"2026-09-14T00:00:00.000Z","confidence":0.786377251,"between":null,"provider":"meta","resource":"meta","version":"2026-09-14"},{"property":"/properties/confidence","dataset":"Overture","license":"CDLA-Permissive-2.0","record_id":null,"update_time":"2026-09-17T22:52:12Z","confidence":null,"between":null,"provider":"overture","resource":"confidence_calculation","version":"2026-09-17"}],"kind":"observed_secondary"}},{"type":"Feature","id":"01eb7090-bb5f-4e52-b3c9-4ef95707ad67","geometry":{"type":"Point","coordinates":[69.60294,42.31672]},"properties":{"city":"shymkent","k10_group":"school","overture_id":"01eb7090-bb5f-4e52-b3c9-4ef95707ad67","overture_version":9,"name_primary":"М.Х.Дулати атындағы үш тілде оқытатын N8 мамандандырылған  гимназия\" КММ","basic_category":"high_school","taxonomy":{"primary":"high_school","hierarchy":["education","place_of_learning","school","high_school"],"alternates":null},"confidence":0.661982119,"operating_status":null,"addresses":[{"freeform":"Қазыбек Би көшесі 29","locality":"Шымкент","postcode":null,"region":null,"country":"KZ"}],"sources":[{"property":"","dataset":"meta","license":"CDLA-Permissive-2.0","record_id":"109733650870275","update_time":"2026-09-14T00:00:00.000Z","confidence":0.661982119,"between":null,"provider":"meta","resource":"meta","version":"2026-09-14"},{"property":"/properties/confidence","dataset":"Overture","license":"CDLA-Permissive-2.0","record_id":null,"update_time":"2026-09-17T22:52:12Z","confidence":null,"between":null,"provider":"overture","resource":"confidence_calculation","version":"2026-09-17"}],"kind":"observed_secondary"}},{"type":"Feature","id":"059c59dd-3c50-4dbe-8fee-c7ad1129a29b","geometry":{"type":"Point","coordinates":[69.5958,42.3167]},"properties":{"city":"shymkent","k10_group":"outpatient_clinic","overture_id":"059c59dd-3c50-4dbe-8fee-c7ad1129a29b","overture_version":3,"name_primary":"Dr.Sattarkulovich","basic_category":"diagnostics_imaging_or_lab_service","taxonomy":{"primary":"doctors_office","hierarchy":["health_care","outpatient_care_facility","diagnostics_imaging_or_lab_service","doctors_office"],"alternates":null},"confidence":0.704938114,"operating_status":null,"addresses":[{"freeform":"Dr.Sattarkulovich clinic","locality":"Шымкент","postcode":"Рыскулбекова 2","region":null,"country":"KZ"}],"sources":[{"property":"","dataset":"meta","license":"CDLA-Permissive-2.0","record_id":"1418660554873664","update_time":"2026-08-24T00:00:00.000Z","confidence":0.704938114,"between":null,"provider":"meta","resource":"meta","version":"2026-08-24"},{"property":"/properties/confidence","dataset":"Overture","license":"CDLA-Permissive-2.0","record_id":null,"update_time":"2026-09-17T22:52:12Z","confidence":null,"between":null,"provider":"overture","resource":"confidence_calculation","version":"2026-09-17"}],"kind":"observed_secondary"}},{"type":"Feature","id":"06dd25e4-78c5-4412-9949-41714f8c2a64","geometry":{"type":"Point","coordinates":[69.6125318,42.3157191]},"properties":{"city":"shymkent","k10_group":"pharmacy","overture_id":"06dd25e4-78c5-4412-9949-41714f8c2a64","overture_version":3,"name_primary":"Зерде фарма Первый","basic_category":"pharmacy_and_drug_store","taxonomy":{"primary":"pharmacy","hierarchy":["shopping","specialty_store","pharmacy_and_drug_store","pharmacy"],"alternates":null},"confidence":0.562556088,"operating_status":null,"addresses":[{"freeform":null,"locality":"Шымкент","postcode":null,"region":null,"country":"KZ"}],"sources":[{"property":"","dataset":"meta","license":"CDLA-Permissive-2.0","record_id":"3214720595220300","update_time":"2026-09-14T00:00:00.000Z","confidence":0.562556088,"between":null,"provider":"meta","resource":"meta","version":"2026-09-14"},{"property":"/properties/confidence","dataset":"Overture","license":"CDLA-Permissive-2.0","record_id":null,"update_time":"2026-09-17T22:52:12Z","confidence":null,"between":null,"provider":"overture","resource":"confidence_calculation","version":"2026-09-17"}],"kind":"observed_secondary"}},{"type":"Feature","id":"122547d2-f7ca-409e-9dc2-0d4d15288b57","geometry":{"type":"Point","coordinates":[69.6042,42.3225]},"properties":{"city":"shymkent","k10_group":"college_university","overture_id":"122547d2-f7ca-409e-9dc2-0d4d15288b57","overture_version":9,"name_primary":"Шымкент Медициналық Колледжі","basic_category":"college_university","taxonomy":{"primary":"college_university","hierarchy":["education","place_of_learning","college_university"],"alternates":null},"confidence":0.547781587,"operating_status":null,"addresses":[{"freeform":null,"locality":"Шымкент","postcode":null,"region":null,"country":"KZ"}],"sources":[{"property":"","dataset":"meta","license":"CDLA-Permissive-2.0","record_id":"365495600767575","update_time":"2026-09-14T00:00:00.000Z","confidence":0.547781587,"between":null,"provider":"meta","resource":"meta","version":"2026-09-14"},{"property":"/properties/confidence","dataset":"Overture","license":"CDLA-Permissive-2.0","record_id":null,"update_time":"2026-09-17T22:52:12Z","confidence":null,"between":null,"provider":"overture","resource":"confidence_calculation","version":"2026-09-17"}],"kind":"observed_secondary"}},{"type":"Feature","id":"176c5993-4b62-4e90-849f-88addc0153bb","geometry":{"type":"Point","coordinates":[69.60569888,42.32312924]},"properties":{"city":"shymkent","k10_group":"school","overture_id":"176c5993-4b62-4e90-849f-88addc0153bb","overture_version":2,"name_primary":"Dostyk Bilim Beru Ortalygy","basic_category":"middle_school","taxonomy":{"primary":"middle_school","hierarchy":["education","place_of_learning","school","middle_school"],"alternates":null},"confidence":0.385462672,"operating_status":null,"addresses":[{"freeform":"Қазыбек Би көшесі 57","locality":"Шымкент","postcode":null,"region":null,"country":"KZ"}],"sources":[{"property":"","dataset":"meta","license":"CDLA-Permissive-2.0","record_id":"198636846666153","update_time":"2026-09-14T00:00:00.000Z","confidence":0.385462672,"between":null,"provider":"meta","resource":"meta","version":"2026-09-14"},{"property":"/properties/confidence","dataset":"Overture","license":"CDLA-Permissive-2.0","record_id":null,"update_time":"2026-09-17T22:52:12Z","confidence":null,"between":null,"provider":"overture","resource":"confidence_calculation","version":"2026-09-17"}],"kind":"observed_secondary"}},{"type":"Feature","id":"180ff6d9-ce9b-4994-b717-18f5732c546e","geometry":{"type":"Point","coordinates":[69.6076099,42.31898]},"properties":{"city":"shymkent","k10_group":"college_university","overture_id":"180ff6d9-ce9b-4994-b717-18f5732c546e","overture_version":8,"name_primary":"Инновационно-технологический колледж","basic_category":"college_university","taxonomy":{"primary":"college_university","hierarchy":["education","place_of_learning","college_university"],"alternates":null},"confidence":0.477860183,"operating_status":null,"addresses":[{"freeform":"Казахстан, ЮКО, г. Шымкент, ул. Иляева, №67","locality":"Шымкент","postcode":"160011","region":null,"country":"KZ"}],"sources":[{"property":"","dataset":"meta","license":"CDLA-Permissive-2.0","record_id":"1040999109296722","update_time":"2026-09-14T00:00:00.000Z","confidence":0.477860183,"between":null,"provider":"meta","resource":"meta","version":"2026-09-14"},{"property":"/properties/confidence","dataset":"Overture","license":"CDLA-Permissive-2.0","record_id":null,"update_time":"2026-09-17T22:52:12Z","confidence":null,"between":null,"provider":"overture","resource":"confidence_calculation","version":"2026-09-17"}],"kind":"observed_secondary"}},{"type":"Feature","id":"18df815b-170a-437c-977f-0769690315d4","geometry":{"type":"Point","coordinates":[69.61482,42.31276]},"properties":{"city":"shymkent","k10_group":"school","overture_id":"18df815b-170a-437c-977f-0769690315d4","overture_version":9,"name_primary":"Ақпан батыр Атындағы Орта Мектеп","basic_category":"elementary_school","taxonomy":{"primary":"elementary_school","hierarchy":["education","place_of_learning","school","elementary_school"],"alternates":null},"confidence":0.762339175,"operating_status":null,"addresses":[{"freeform":null,"locality":"Шымкент","postcode":null,"region":null,"country":"KZ"}],"sources":[{"property":"","dataset":"meta","license":"CDLA-Permissive-2.0","record_id":"321415295158302","update_time":"2026-09-14T00:00:00.000Z","confidence":0.762339175,"between":null,"provider":"meta","resource":"meta","version":"2026-09-14"},{"property":"/properties/confidence","dataset":"Overture","license":"CDLA-Permissive-2.0","record_id":null,"update_time":"2026-09-17T22:52:12Z","confidence":null,"between":null,"provider":"overture","resource":"confidence_calculation","version":"2026-09-17"}],"kind":"observed_secondary"}},{"type":"Feature","id":"1b81c33b-d088-46b1-a390-8d6d81102c21","geometry":{"type":"Point","coordinates":[69.60322,42.31728]},"properties":{"city":"shymkent","k10_group":"hospital","overture_id":"1b81c33b-d088-46b1-a390-8d6d81102c21","overture_version":8,"name_primary":"Эко центр доктора Тарарака","basic_category":"hospital","taxonomy":{"primary":"hospital","hierarchy":["health_care","hospital"],"alternates":null},"confidence":0.486507356,"operating_status":null,"addresses":[{"freeform":"Қазыбек Би көшесі 33","locality":"Шымкент","postcode":null,"region":null,"country":"KZ"}],"sources":[{"property":"","dataset":"meta","license":"CDLA-Permissive-2.0","record_id":"1933602613518173","update_time":"2026-09-14T00:00:00.000Z","confidence":0.486507356,"between":null,"provider":"meta","resource":"meta","version":"2026-09-14"},{"property":"/properties/confidence","dataset":"Overture","license":"CDLA-Permissive-2.0","record_id":null,"update_time":"2026-09-17T22:52:12Z","confidence":null,"between":null,"provider":"overture","resource":"confidence_calculation","version":"2026-09-17"}],"kind":"observed_secondary"}},{"type":"Feature","id":"1cb001b2-d62f-4c28-ba0a-864ffa56808f","geometry":{"type":"Point","coordinates":[69.60775690337917,42.30693436880866]},"properties":{"city":"shymkent","k10_group":"outpatient_clinic","overture_id":"1cb001b2-d62f-4c28-ba0a-864ffa56808f","overture_version":3,"name_primary":"Пространство Где Всё Возможно","basic_category":"complementary_and_alternative_medicine","taxonomy":{"primary":"naturopathic_medicine","hierarchy":["health_care","outpatient_care_facility","complementary_and_alternative_medicine","naturopathic_medicine"],"alternates":null},"confidence":0.729417443,"operating_status":null,"addresses":[{"freeform":null,"locality":"Шымкент","postcode":null,"region":null,"country":"KZ"}],"sources":[{"property":"","dataset":"meta","license":"CDLA-Permissive-2.0","record_id":"1795525484098587","update_time":"2026-09-14T00:00:00.000Z","confidence":0.729417443,"between":null,"provider":"meta","resource":"meta","version":"2026-09-14"},{"property":"/properties/confidence","dataset":"Overture","license":"CDLA-Permissive-2.0","record_id":null,"update_time":"2026-09-17T22:52:12Z","confidence":null,"between":null,"provider":"overture","resource":"confidence_calculation","version":"2026-09-17"}],"kind":"observed_secondary"}},{"type":"Feature","id":"206c4e33-9be6-4347-b44e-f4e01a52a240","geometry":{"type":"Point","coordinates":[69.60848,42.31739]},"properties":{"city":"shymkent","k10_group":"preschool","overture_id":"206c4e33-9be6-4347-b44e-f4e01a52a240","overture_version":9,"name_primary":"Кос Ана","basic_category":"preschool","taxonomy":{"primary":"preschool","hierarchy":["education","place_of_learning","school","preschool"],"alternates":null},"confidence":0.804671228,"operating_status":null,"addresses":[{"freeform":"улица Ташенова ","locality":"Шымкент","postcode":"160000","region":null,"country":"KZ"}],"sources":[{"property":"","dataset":"meta","license":"CDLA-Permissive-2.0","record_id":"798511846958258","update_time":"2026-09-14T00:00:00.000Z","confidence":0.804671228,"between":null,"provider":"meta","resource":"meta","version":"2026-09-14"},{"property":"/properties/confidence","dataset":"Overture","license":"CDLA-Permissive-2.0","record_id":null,"update_time":"2026-09-17T22:52:12Z","confidence":null,"between":null,"provider":"overture","resource":"confidence_calculation","version":"2026-09-17"}],"kind":"observed_secondary"}},{"type":"Feature","id":"2264dcf0-549d-451a-b846-3f207d411e0c","geometry":{"type":"Point","coordinates":[69.5958,42.3167]},"properties":{"city":"shymkent","k10_group":"outpatient_clinic","overture_id":"2264dcf0-549d-451a-b846-3f207d411e0c","overture_version":10,"name_primary":"Сункар","basic_category":"diagnostics_imaging_or_lab_service","taxonomy":{"primary":"doctors_office","hierarchy":["health_care","outpatient_care_facility","diagnostics_imaging_or_lab_service","doctors_office"],"alternates":null},"confidence":0.4561221,"operating_status":null,"addresses":[{"freeform":"Дулат, проспект Тауке Хана 45","locality":"Шымкент","postcode":null,"region":null,"country":"KZ"}],"sources":[{"property":"","dataset":"meta","license":"CDLA-Permissive-2.0","record_id":"501978790148696","update_time":"2026-09-14T00:00:00.000Z","confidence":0.4561221,"between":null,"provider":"meta","resource":"meta","version":"2026-09-14"},{"property":"/properties/confidence","dataset":"Overture","license":"CDLA-Permissive-2.0","record_id":null,"update_time":"2026-09-17T22:52:12Z","confidence":null,"between":null,"provider":"overture","resource":"confidence_calculation","version":"2026-09-17"}],"kind":"observed_secondary"}},{"type":"Feature","id":"33e31486-ad2c-4974-9844-ac7a679e3865","geometry":{"type":"Point","coordinates":[69.59622589,42.31925287]},"properties":{"city":"shymkent","k10_group":"pharmacy","overture_id":"33e31486-ad2c-4974-9844-ac7a679e3865","overture_version":9,"name_primary":"Europharma","basic_category":"pharmacy_and_drug_store","taxonomy":{"primary":"pharmacy","hierarchy":["shopping","specialty_store","pharmacy_and_drug_store","pharmacy"],"alternates":null},"confidence":0.534623384,"operating_status":null,"addresses":[{"freeform":"Тәуке Хан көшесі 13","locality":"Шымкент","postcode":null,"region":null,"country":"KZ"}],"sources":[{"property":"","dataset":"meta","license":"CDLA-Permissive-2.0","record_id":"105834234533294","update_time":"2026-09-14T00:00:00.000Z","confidence":0.534623384,"between":null,"provider":"meta","resource":"meta","version":"2026-09-14"},{"property":"/properties/confidence","dataset":"Overture","license":"CDLA-Permissive-2.0","record_id":null,"update_time":"2026-09-17T22:52:12Z","confidence":null,"between":null,"provider":"overture","resource":"confidence_calculation","version":"2026-09-17"}],"kind":"observed_secondary"}},{"type":"Feature","id":"477b7659-21b2-4f90-a526-2817bc77fe79","geometry":{"type":"Point","coordinates":[69.60702,42.31757]},"properties":{"city":"shymkent","k10_group":"college_university","overture_id":"477b7659-21b2-4f90-a526-2817bc77fe79","overture_version":3,"name_primary":"South kazakh medical university","basic_category":"college_university","taxonomy":{"primary":"college_university","hierarchy":["education","place_of_learning","college_university"],"alternates":null},"confidence":0.756329238,"operating_status":null,"addresses":[{"freeform":"shymkent","locality":"Шымкент","postcode":"160000","region":null,"country":"KZ"}],"sources":[{"property":"","dataset":"meta","license":"CDLA-Permissive-2.0","record_id":"102317052366640","update_time":"2026-09-14T00:00:00.000Z","confidence":0.756329238,"between":null,"provider":"meta","resource":"meta","version":"2026-09-14"},{"property":"/properties/confidence","dataset":"Overture","license":"CDLA-Permissive-2.0","record_id":null,"update_time":"2026-09-17T22:52:12Z","confidence":null,"between":null,"provider":"overture","resource":"confidence_calculation","version":"2026-09-17"}],"kind":"observed_secondary"}},{"type":"Feature","id":"49504010-6983-4673-a9ad-c6aff2179092","geometry":{"type":"Point","coordinates":[69.59811418477645,42.31218133585466]},"properties":{"city":"shymkent","k10_group":"hospital","overture_id":"49504010-6983-4673-a9ad-c6aff2179092","overture_version":10,"name_primary":"Interteach","basic_category":"hospital","taxonomy":{"primary":"hospital","hierarchy":["health_care","hospital"],"alternates":null},"confidence":0.548408031,"operating_status":null,"addresses":[{"freeform":null,"locality":"Шымкент","postcode":null,"region":null,"country":"KZ"}],"sources":[{"property":"","dataset":"meta","license":"CDLA-Permissive-2.0","record_id":"315660596009078","update_time":"2026-09-14T00:00:00.000Z","confidence":0.548408031,"between":null,"provider":"meta","resource":"meta","version":"2026-09-14"},{"property":"/properties/confidence","dataset":"Overture","license":"CDLA-Permissive-2.0","record_id":null,"update_time":"2026-09-17T22:52:12Z","confidence":null,"between":null,"provider":"overture","resource":"confidence_calculation","version":"2026-09-17"}],"kind":"observed_secondary"}},{"type":"Feature","id":"50802484-b7f9-492e-8a4c-f75312fc7751","geometry":{"type":"Point","coordinates":[69.60702,42.31757]},"properties":{"city":"shymkent","k10_group":"outpatient_clinic","overture_id":"50802484-b7f9-492e-8a4c-f75312fc7751","overture_version":3,"name_primary":"Kosmetolog Жазира","basic_category":"physical_medicine_and_rehabilitation","taxonomy":{"primary":"speech_therapy","hierarchy":["health_care","outpatient_care_facility","physical_medicine_and_rehabilitation","speech_therapy"],"alternates":null},"confidence":0.068057396,"operating_status":null,"addresses":[{"freeform":"Казахстан","locality":"Шымкент","postcode":null,"region":null,"country":"KZ"}],"sources":[{"property":"","dataset":"meta","license":"CDLA-Permissive-2.0","record_id":"359415810580985","update_time":"2026-09-14T00:00:00.000Z","confidence":0.068057396,"between":null,"provider":"meta","resource":"meta","version":"2026-09-14"},{"property":"/properties/confidence","dataset":"Overture","license":"CDLA-Permissive-2.0","record_id":null,"update_time":"2026-09-17T22:52:12Z","confidence":null,"between":null,"provider":"overture","resource":"confidence_calculation","version":"2026-09-17"}],"kind":"observed_secondary"}},{"type":"Feature","id":"51ac9e88-456d-4b3a-a657-d3cbc516c708","geometry":{"type":"Point","coordinates":[69.5958,42.3167]},"properties":{"city":"shymkent","k10_group":"school","overture_id":"51ac9e88-456d-4b3a-a657-d3cbc516c708","overture_version":2,"name_primary":"Reklama 8888","basic_category":"place_of_learning","taxonomy":{"primary":"public_school","hierarchy":["education","place_of_learning","school","public_school"],"alternates":null},"confidence":0.25357008,"operating_status":null,"addresses":[{"freeform":null,"locality":"Шымкент","postcode":null,"region":null,"country":"KZ"}],"sources":[{"property":"","dataset":"meta","license":"CDLA-Permissive-2.0","record_id":"457518577441642","update_time":"2026-09-14T00:00:00.000Z","confidence":0.25357008,"between":null,"provider":"meta","resource":"meta","version":"2026-09-14"},{"property":"/properties/confidence","dataset":"Overture","license":"CDLA-Permissive-2.0","record_id":null,"update_time":"2026-09-17T22:52:12Z","confidence":null,"between":null,"provider":"overture","resource":"confidence_calculation","version":"2026-09-17"}],"kind":"observed_secondary"}},{"type":"Feature","id":"537980b9-4d8b-4c25-8e27-a6af60ffac34","geometry":{"type":"Point","coordinates":[69.6052309,42.3217412]},"properties":{"city":"shymkent","k10_group":"school","overture_id":"537980b9-4d8b-4c25-8e27-a6af60ffac34","overture_version":8,"name_primary":"Жолдасбекова Атындағы 9 Лицей","basic_category":"elementary_school","taxonomy":{"primary":"elementary_school","hierarchy":["education","place_of_learning","school","elementary_school"],"alternates":null},"confidence":0.582845032,"operating_status":null,"addresses":[{"freeform":"Қазыбек Би көшесі","locality":"Шымкент","postcode":null,"region":null,"country":"KZ"}],"sources":[{"property":"","dataset":"meta","license":"CDLA-Permissive-2.0","record_id":"496982004171164","update_time":"2026-09-14T00:00:00.000Z","confidence":0.582845032,"between":null,"provider":"meta","resource":"meta","version":"2026-09-14"},{"property":"/properties/confidence","dataset":"Overture","license":"CDLA-Permissive-2.0","record_id":null,"update_time":"2026-09-17T22:52:12Z","confidence":null,"between":null,"provider":"overture","resource":"confidence_calculation","version":"2026-09-17"}],"kind":"observed_secondary"}},{"type":"Feature","id":"5bb60365-3e3a-4b02-b66b-89f49fc55f2d","geometry":{"type":"Point","coordinates":[69.60272817769074,42.315937354163985]},"properties":{"city":"shymkent","k10_group":"hospital","overture_id":"5bb60365-3e3a-4b02-b66b-89f49fc55f2d","overture_version":10,"name_primary":"ОКБ г.Шымкент","basic_category":"hospital","taxonomy":{"primary":"hospital","hierarchy":["health_care","hospital"],"alternates":null},"confidence":0.518738925,"operating_status":null,"addresses":[{"freeform":"","locality":"Шымкент","postcode":"","region":null,"country":"KZ"}],"sources":[{"property":"","dataset":"meta","license":"CDLA-Permissive-2.0","record_id":"451643815377487","update_time":"2026-09-14T00:00:00.000Z","confidence":0.518738925,"between":null,"provider":"meta","resource":"meta","version":"2026-09-14"},{"property":"/properties/confidence","dataset":"Overture","license":"CDLA-Permissive-2.0","record_id":null,"update_time":"2026-09-17T22:52:12Z","confidence":null,"between":null,"provider":"overture","resource":"confidence_calculation","version":"2026-09-17"}],"kind":"observed_secondary"}},{"type":"Feature","id":"6092aa47-e39d-4da8-989b-9d5128d3a775","geometry":{"type":"Point","coordinates":[69.598667621613,42.314551921237]},"properties":{"city":"shymkent","k10_group":"college_university","overture_id":"6092aa47-e39d-4da8-989b-9d5128d3a775","overture_version":9,"name_primary":"Tashenev University","basic_category":"college_university","taxonomy":{"primary":"college_university","hierarchy":["education","place_of_learning","college_university"],"alternates":null},"confidence":0.95037967,"operating_status":null,"addresses":[{"freeform":"Tokaev 27a","locality":"Шымкент","postcode":null,"region":null,"country":"KZ"}],"sources":[{"property":"","dataset":"meta","license":"CDLA-Permissive-2.0","record_id":"103709259055186","update_time":"2026-09-14T00:00:00.000Z","confidence":0.95037967,"between":null,"provider":"meta","resource":"meta","version":"2026-09-14"},{"property":"/properties/confidence","dataset":"Overture","license":"CDLA-Permissive-2.0","record_id":null,"update_time":"2026-09-17T22:52:12Z","confidence":null,"between":null,"provider":"overture","resource":"confidence_calculation","version":"2026-09-17"}],"kind":"observed_secondary"}},{"type":"Feature","id":"621acb4b-a1bd-45ce-891f-c0a4634a6103","geometry":{"type":"Point","coordinates":[69.601821899414,42.317790576114]},"properties":{"city":"shymkent","k10_group":"outpatient_clinic","overture_id":"621acb4b-a1bd-45ce-891f-c0a4634a6103","overture_version":2,"name_primary":"MasterDent","basic_category":"dental_clinic","taxonomy":{"primary":"dental_clinic","hierarchy":["health_care","outpatient_care_facility","dental_clinic"],"alternates":null},"confidence":0.567424953,"operating_status":null,"addresses":[{"freeform":"Хайдара Дулати көшесі 6","locality":"Шымкент","postcode":null,"region":null,"country":"KZ"}],"sources":[{"property":"","dataset":"meta","license":"CDLA-Permissive-2.0","record_id":"282369154970240","update_time":"2026-09-14T00:00:00.000Z","confidence":0.567424953,"between":null,"provider":"meta","resource":"meta","version":"2026-09-14"},{"property":"/properties/confidence","dataset":"Overture","license":"CDLA-Permissive-2.0","record_id":null,"update_time":"2026-09-17T22:52:12Z","confidence":null,"between":null,"provider":"overture","resource":"confidence_calculation","version":"2026-09-17"}],"kind":"observed_secondary"}},{"type":"Feature","id":"622b4786-89fa-4853-b109-18054e3ebe0d","geometry":{"type":"Point","coordinates":[69.60702,42.31757]},"properties":{"city":"shymkent","k10_group":"outpatient_clinic","overture_id":"622b4786-89fa-4853-b109-18054e3ebe0d","overture_version":3,"name_primary":"Aza Бизнес Страница Шымкент","basic_category":"specialized_health_care","taxonomy":{"primary":"orthopedics","hierarchy":["health_care","outpatient_care_facility","specialized_health_care","musculoskeletal_medicine","orthopedics"],"alternates":null},"confidence":0.270772368,"operating_status":null,"addresses":[{"freeform":"Казахстан","locality":"Шымкент","postcode":null,"region":null,"country":"KZ"}],"sources":[{"property":"","dataset":"meta","license":"CDLA-Permissive-2.0","record_id":"108996182001512","update_time":"2026-09-14T00:00:00.000Z","confidence":0.270772368,"between":null,"provider":"meta","resource":"meta","version":"2026-09-14"},{"property":"/properties/confidence","dataset":"Overture","license":"CDLA-Permissive-2.0","record_id":null,"update_time":"2026-09-17T22:52:12Z","confidence":null,"between":null,"provider":"overture","resource":"confidence_calculation","version":"2026-09-17"}],"kind":"observed_secondary"}},{"type":"Feature","id":"65f8fe5f-ad9f-485f-93b3-472605beb57a","geometry":{"type":"Point","coordinates":[69.59707,42.3209]},"properties":{"city":"shymkent","k10_group":"government_office","overture_id":"65f8fe5f-ad9f-485f-93b3-472605beb57a","overture_version":1,"name_primary":"Департамент Агентства по защите и развитию конкуренции по городу Шымкент","basic_category":"government_office","taxonomy":{"primary":"government_office","hierarchy":["community_and_government","government_office"],"alternates":null},"confidence":0.345108867,"operating_status":null,"addresses":[{"freeform":"Ғани Иляев көшесі 24","locality":"Шымкент","postcode":null,"region":null,"country":"KZ"}],"sources":[{"property":"","dataset":"meta","license":"CDLA-Permissive-2.0","record_id":"109172818422097","update_time":"2026-09-14T00:00:00.000Z","confidence":0.345108867,"between":null,"provider":"meta","resource":"meta","version":"2026-09-14"},{"property":"/properties/confidence","dataset":"Overture","license":"CDLA-Permissive-2.0","record_id":null,"update_time":"2026-09-17T22:52:12Z","confidence":null,"between":null,"provider":"overture","resource":"confidence_calculation","version":"2026-09-17"}],"kind":"observed_secondary"}},{"type":"Feature","id":"68c8f007-75bc-42f6-8da8-baa72042bde4","geometry":{"type":"Point","coordinates":[69.5958,42.3167]},"properties":{"city":"shymkent","k10_group":"school","overture_id":"68c8f007-75bc-42f6-8da8-baa72042bde4","overture_version":9,"name_primary":"Baiterek School","basic_category":"place_of_learning","taxonomy":{"primary":"private_school","hierarchy":["education","place_of_learning","school","private_school"],"alternates":null},"confidence":0.776216388,"operating_status":null,"addresses":[{"freeform":"Рыскулова 141","locality":"Шымкент","postcode":null,"region":null,"country":"KZ"}],"sources":[{"property":"","dataset":"meta","license":"CDLA-Permissive-2.0","record_id":"104043422727734","update_time":"2026-09-14T00:00:00.000Z","confidence":0.776216388,"between":null,"provider":"meta","resource":"meta","version":"2026-09-14"},{"property":"/properties/confidence","dataset":"Overture","license":"CDLA-Permissive-2.0","record_id":null,"update_time":"2026-09-17T22:52:12Z","confidence":null,"between":null,"provider":"overture","resource":"confidence_calculation","version":"2026-09-17"}],"kind":"observed_secondary"}},{"type":"Feature","id":"6d4636dd-c9f3-4d9b-8c01-b361e86c8659","geometry":{"type":"Point","coordinates":[69.5958,42.3167]},"properties":{"city":"shymkent","k10_group":"college_university","overture_id":"6d4636dd-c9f3-4d9b-8c01-b361e86c8659","overture_version":8,"name_primary":"КИПУДН - Казахстанский инженерно-педагогический университет Дружбы народов","basic_category":"college_university","taxonomy":{"primary":"college_university","hierarchy":["education","place_of_learning","college_university"],"alternates":null},"confidence":0.457874417,"operating_status":null,"addresses":[{"freeform":"Төле Би көшесі 32","locality":"Шымкент","postcode":null,"region":null,"country":"KZ"}],"sources":[{"property":"","dataset":"meta","license":"CDLA-Permissive-2.0","record_id":"650426355056005","update_time":"2026-09-14T00:00:00.000Z","confidence":0.457874417,"between":null,"provider":"meta","resource":"meta","version":"2026-09-14"},{"property":"/properties/confidence","dataset":"Overture","license":"CDLA-Permissive-2.0","record_id":null,"update_time":"2026-09-17T22:52:12Z","confidence":null,"between":null,"provider":"overture","resource":"confidence_calculation","version":"2026-09-17"}],"kind":"observed_secondary"}},{"type":"Feature","id":"6e92676a-1297-446d-9956-731023da6339","geometry":{"type":"Point","coordinates":[69.59527,42.32423]},"properties":{"city":"shymkent","k10_group":"outpatient_clinic","overture_id":"6e92676a-1297-446d-9956-731023da6339","overture_version":8,"name_primary":"Стомотология","basic_category":"dental_clinic","taxonomy":{"primary":"general_dentistry","hierarchy":["health_care","outpatient_care_facility","dental_clinic","general_dentistry"],"alternates":null},"confidence":0.364115953,"operating_status":null,"addresses":[{"freeform":"Ахмет Байтұрсынов көшесі 20","locality":"Шымкент","postcode":null,"region":null,"country":"KZ"}],"sources":[{"property":"","dataset":"meta","license":"CDLA-Permissive-2.0","record_id":"102890309332872","update_time":"2026-09-14T00:00:00.000Z","confidence":0.364115953,"between":null,"provider":"meta","resource":"meta","version":"2026-09-14"},{"property":"/properties/confidence","dataset":"Overture","license":"CDLA-Permissive-2.0","record_id":null,"update_time":"2026-09-17T22:52:12Z","confidence":null,"between":null,"provider":"overture","resource":"confidence_calculation","version":"2026-09-17"}],"kind":"observed_secondary"}},{"type":"Feature","id":"72782e25-fc97-49cf-94f8-fa48a9b25c84","geometry":{"type":"Point","coordinates":[69.59431,42.32292]},"properties":{"city":"shymkent","k10_group":"college_university","overture_id":"72782e25-fc97-49cf-94f8-fa48a9b25c84","overture_version":1,"name_primary":"ОҚМПУ - \"Үміт\" Білім алушыларға қызмет көрсету орталығы","basic_category":"college_university","taxonomy":{"primary":"college_university","hierarchy":["education","place_of_learning","college_university"],"alternates":null},"confidence":0.340542644,"operating_status":null,"addresses":[{"freeform":"Ахмет Байтұрсынов көшесі 15А","locality":"Шымкент","postcode":null,"region":null,"country":"KZ"}],"sources":[{"property":"","dataset":"meta","license":"CDLA-Permissive-2.0","record_id":"337021730980877","update_time":"2026-09-14T00:00:00.000Z","confidence":0.340542644,"between":null,"provider":"meta","resource":"meta","version":"2026-09-14"},{"property":"/properties/confidence","dataset":"Overture","license":"CDLA-Permissive-2.0","record_id":null,"update_time":"2026-09-17T22:52:12Z","confidence":null,"between":null,"provider":"overture","resource":"confidence_calculation","version":"2026-09-17"}],"kind":"observed_secondary"}},{"type":"Feature","id":"7bc29930-e875-4c3d-b805-97cbcfc81159","geometry":{"type":"Point","coordinates":[69.5958,42.3167]},"properties":{"city":"shymkent","k10_group":"government_office","overture_id":"7bc29930-e875-4c3d-b805-97cbcfc81159","overture_version":8,"name_primary":"Казахстан","basic_category":"government_office","taxonomy":{"primary":"government_office","hierarchy":["community_and_government","government_office"],"alternates":null},"confidence":0.491920948,"operating_status":null,"addresses":[{"freeform":"Шымкент","locality":"Шымкент","postcode":null,"region":null,"country":"KZ"}],"sources":[{"property":"","dataset":"meta","license":"CDLA-Permissive-2.0","record_id":"357443458428885","update_time":"2026-09-14T00:00:00.000Z","confidence":0.491920948,"between":null,"provider":"meta","resource":"meta","version":"2026-09-14"},{"property":"/properties/confidence","dataset":"Overture","license":"CDLA-Permissive-2.0","record_id":null,"update_time":"2026-09-17T22:52:12Z","confidence":null,"between":null,"provider":"overture","resource":"confidence_calculation","version":"2026-09-17"}],"kind":"observed_secondary"}},{"type":"Feature","id":"7cd057e0-fd66-4026-8d41-717b3d1d0c60","geometry":{"type":"Point","coordinates":[69.60939586,42.31437001]},"properties":{"city":"shymkent","k10_group":"outpatient_clinic","overture_id":"7cd057e0-fd66-4026-8d41-717b3d1d0c60","overture_version":3,"name_primary":"Easy Health Shymkent","basic_category":"complementary_and_alternative_medicine","taxonomy":{"primary":"naturopathic_medicine","hierarchy":["health_care","outpatient_care_facility","complementary_and_alternative_medicine","naturopathic_medicine"],"alternates":null},"confidence":0.274347991,"operating_status":null,"addresses":[{"freeform":"Улица Т. Орынбаева 23","locality":"Шымкент","postcode":"","region":null,"country":"KZ"}],"sources":[{"property":"","dataset":"meta","license":"CDLA-Permissive-2.0","record_id":"1092057477314002","update_time":"2026-09-14T00:00:00.000Z","confidence":0.274347991,"between":null,"provider":"meta","resource":"meta","version":"2026-09-14"},{"property":"/properties/confidence","dataset":"Overture","license":"CDLA-Permissive-2.0","record_id":null,"update_time":"2026-09-17T22:52:12Z","confidence":null,"between":null,"provider":"overture","resource":"confidence_calculation","version":"2026-09-17"}],"kind":"observed_secondary"}},{"type":"Feature","id":"833280f2-ff82-4dd6-a174-d2a9203420fa","geometry":{"type":"Point","coordinates":[69.60702,42.31758]},"properties":{"city":"shymkent","k10_group":"outpatient_clinic","overture_id":"833280f2-ff82-4dd6-a174-d2a9203420fa","overture_version":1,"name_primary":"ИП Ауелбекова Р.И.","basic_category":"diagnostics_imaging_or_lab_service","taxonomy":{"primary":"doctors_office","hierarchy":["health_care","outpatient_care_facility","diagnostics_imaging_or_lab_service","doctors_office"],"alternates":null},"confidence":0.415448666,"operating_status":null,"addresses":[{"freeform":"Алматинская 25а","locality":"Shymkent","postcode":null,"region":null,"country":"KZ"}],"sources":[{"property":"","dataset":"meta","license":"CDLA-Permissive-2.0","record_id":"102619214751763","update_time":"2026-09-14T00:00:00.000Z","confidence":0.415448666,"between":null,"provider":"meta","resource":"meta","version":"2026-09-14"},{"property":"/properties/confidence","dataset":"Overture","license":"CDLA-Permissive-2.0","record_id":null,"update_time":"2026-09-17T22:52:12Z","confidence":null,"between":null,"provider":"overture","resource":"confidence_calculation","version":"2026-09-17"}],"kind":"observed_secondary"}},{"type":"Feature","id":"931d6da5-e9db-4523-a6fd-79c88f235f88","geometry":{"type":"Point","coordinates":[69.599228706692,42.314563100334]},"properties":{"city":"shymkent","k10_group":"school","overture_id":"931d6da5-e9db-4523-a6fd-79c88f235f88","overture_version":8,"name_primary":"Учебный центр Меруерт","basic_category":"place_of_learning","taxonomy":{"primary":"school","hierarchy":["education","place_of_learning","school"],"alternates":null},"confidence":0.680496335,"operating_status":null,"addresses":[{"freeform":"Токаева 27","locality":"Шымкент","postcode":"160000","region":null,"country":"KZ"}],"sources":[{"property":"","dataset":"meta","license":"CDLA-Permissive-2.0","record_id":"101309298709568","update_time":"2026-09-14T00:00:00.000Z","confidence":0.680496335,"between":null,"provider":"meta","resource":"meta","version":"2026-09-14"},{"property":"/properties/confidence","dataset":"Overture","license":"CDLA-Permissive-2.0","record_id":null,"update_time":"2026-09-17T22:52:12Z","confidence":null,"between":null,"provider":"overture","resource":"confidence_calculation","version":"2026-09-17"}],"kind":"observed_secondary"}},{"type":"Feature","id":"99759f95-3ddb-4d87-8091-c301f9c23c9b","geometry":{"type":"Point","coordinates":[69.59496,42.32353]},"properties":{"city":"shymkent","k10_group":"school","overture_id":"99759f95-3ddb-4d87-8091-c301f9c23c9b","overture_version":8,"name_primary":"Express toefl","basic_category":"place_of_learning","taxonomy":{"primary":"school","hierarchy":["education","place_of_learning","school"],"alternates":null},"confidence":0.329779059,"operating_status":null,"addresses":[{"freeform":"Ахмет Байтұрсынов көшесі 18","locality":"Шымкент","postcode":null,"region":null,"country":"KZ"}],"sources":[{"property":"","dataset":"meta","license":"CDLA-Permissive-2.0","record_id":"103951562798946","update_time":"2026-09-14T00:00:00.000Z","confidence":0.329779059,"between":null,"provider":"meta","resource":"meta","version":"2026-09-14"},{"property":"/properties/confidence","dataset":"Overture","license":"CDLA-Permissive-2.0","record_id":null,"update_time":"2026-09-17T22:52:12Z","confidence":null,"between":null,"provider":"overture","resource":"confidence_calculation","version":"2026-09-17"}],"kind":"observed_secondary"}},{"type":"Feature","id":"99c68068-aa6e-4ff2-af5f-455675f93313","geometry":{"type":"Point","coordinates":[69.59586,42.32122]},"properties":{"city":"shymkent","k10_group":"outpatient_clinic","overture_id":"99c68068-aa6e-4ff2-af5f-455675f93313","overture_version":3,"name_primary":"MicoOne Orthodontics Kazakhstan","basic_category":"dental_clinic","taxonomy":{"primary":"orthodontics","hierarchy":["health_care","outpatient_care_facility","dental_clinic","orthodontics"],"alternates":null},"confidence":0.515205264,"operating_status":null,"addresses":[{"freeform":"Ғани Иляев көшесі 22","locality":"Шымкент","postcode":null,"region":null,"country":"KZ"}],"sources":[{"property":"","dataset":"meta","license":"CDLA-Permissive-2.0","record_id":"312878188568494","update_time":"2026-09-14T00:00:00.000Z","confidence":0.515205264,"between":null,"provider":"meta","resource":"meta","version":"2026-09-14"},{"property":"/properties/confidence","dataset":"Overture","license":"CDLA-Permissive-2.0","record_id":null,"update_time":"2026-09-17T22:52:12Z","confidence":null,"between":null,"provider":"overture","resource":"confidence_calculation","version":"2026-09-17"}],"kind":"observed_secondary"}},{"type":"Feature","id":"9d31b953-ccc4-42bd-a3a3-3e4e21f44051","geometry":{"type":"Point","coordinates":[69.5958,42.3167]},"properties":{"city":"shymkent","k10_group":"school","overture_id":"9d31b953-ccc4-42bd-a3a3-3e4e21f44051","overture_version":1,"name_primary":"Реклама 3131","basic_category":"middle_school","taxonomy":{"primary":"middle_school","hierarchy":["education","place_of_learning","school","middle_school"],"alternates":null},"confidence":0.25510174,"operating_status":null,"addresses":[{"freeform":"шәуілдір","locality":"Шымкент","postcode":null,"region":null,"country":"KZ"}],"sources":[{"property":"","dataset":"meta","license":"CDLA-Permissive-2.0","record_id":"698764723318625","update_time":"2026-09-14T00:00:00.000Z","confidence":0.25510174,"between":null,"provider":"meta","resource":"meta","version":"2026-09-14"},{"property":"/properties/confidence","dataset":"Overture","license":"CDLA-Permissive-2.0","record_id":null,"update_time":"2026-09-17T22:52:12Z","confidence":null,"between":null,"provider":"overture","resource":"confidence_calculation","version":"2026-09-17"}],"kind":"observed_secondary"}},{"type":"Feature","id":"a10bb8cf-c446-4066-9cda-a5befa189a60","geometry":{"type":"Point","coordinates":[69.61684011,42.31345349]},"properties":{"city":"shymkent","k10_group":"outpatient_clinic","overture_id":"a10bb8cf-c446-4066-9cda-a5befa189a60","overture_version":9,"name_primary":"ProfMedService","basic_category":"outpatient_care_facility","taxonomy":{"primary":"outpatient_care_facility","hierarchy":["health_care","outpatient_care_facility"],"alternates":null},"confidence":0.680755377,"operating_status":null,"addresses":[{"freeform":"Tauke Khan Ave 130","locality":"Шымкент","postcode":"160011","region":null,"country":"KZ"}],"sources":[{"property":"","dataset":"meta","license":"CDLA-Permissive-2.0","record_id":"350295158913547","update_time":"2026-09-14T00:00:00.000Z","confidence":0.680755377,"between":null,"provider":"meta","resource":"meta","version":"2026-09-14"},{"property":"/properties/confidence","dataset":"Overture","license":"CDLA-Permissive-2.0","record_id":null,"update_time":"2026-09-17T22:52:12Z","confidence":null,"between":null,"provider":"overture","resource":"confidence_calculation","version":"2026-09-17"}],"kind":"observed_secondary"}},{"type":"Feature","id":"a2cb79c8-c922-47a9-96a2-6cc326bbc3d6","geometry":{"type":"Point","coordinates":[69.59496,42.32353]},"properties":{"city":"shymkent","k10_group":"school","overture_id":"a2cb79c8-c922-47a9-96a2-6cc326bbc3d6","overture_version":6,"name_primary":"Kasipkoy.kurs","basic_category":"place_of_learning","taxonomy":{"primary":"school","hierarchy":["education","place_of_learning","school"],"alternates":null},"confidence":0.376029402,"operating_status":null,"addresses":[{"freeform":"Ахмет Байтұрсынов көшесі 18","locality":"Шымкент","postcode":null,"region":null,"country":"KZ"}],"sources":[{"property":"","dataset":"meta","license":"CDLA-Permissive-2.0","record_id":"115444977828089","update_time":"2026-09-14T00:00:00.000Z","confidence":0.376029402,"between":null,"provider":"meta","resource":"meta","version":"2026-09-14"},{"property":"/properties/confidence","dataset":"Overture","license":"CDLA-Permissive-2.0","record_id":null,"update_time":"2026-09-17T22:52:12Z","confidence":null,"between":null,"provider":"overture","resource":"confidence_calculation","version":"2026-09-17"}],"kind":"observed_secondary"}},{"type":"Feature","id":"a718be31-9efe-4018-aa33-da51ab78157c","geometry":{"type":"Point","coordinates":[69.59759906,42.32365619]},"properties":{"city":"shymkent","k10_group":"college_university","overture_id":"a718be31-9efe-4018-aa33-da51ab78157c","overture_version":6,"name_primary":"Politehnikalyq Kolledj","basic_category":"college_university","taxonomy":{"primary":"college_university","hierarchy":["education","place_of_learning","college_university"],"alternates":null},"confidence":0.75896138,"operating_status":null,"addresses":[{"freeform":"Желтоқсан көшесі 30","locality":"Шымкент","postcode":null,"region":null,"country":"KZ"}],"sources":[{"property":"","dataset":"meta","license":"CDLA-Permissive-2.0","record_id":"2175402952724841","update_time":"2026-09-14T00:00:00.000Z","confidence":0.75896138,"between":null,"provider":"meta","resource":"meta","version":"2026-09-14"},{"property":"/properties/confidence","dataset":"Overture","license":"CDLA-Permissive-2.0","record_id":null,"update_time":"2026-09-17T22:52:12Z","confidence":null,"between":null,"provider":"overture","resource":"confidence_calculation","version":"2026-09-17"}],"kind":"observed_secondary"}},{"type":"Feature","id":"b08d41c4-c682-4335-94fc-65dac48411ed","geometry":{"type":"Point","coordinates":[69.5958,42.3167]},"properties":{"city":"shymkent","k10_group":"pharmacy","overture_id":"b08d41c4-c682-4335-94fc-65dac48411ed","overture_version":8,"name_primary":"Фитофарм","basic_category":"pharmacy_and_drug_store","taxonomy":{"primary":"pharmacy","hierarchy":["shopping","specialty_store","pharmacy_and_drug_store","pharmacy"],"alternates":null},"confidence":0.596348226,"operating_status":null,"addresses":[{"freeform":"улица Валиханова 200Б","locality":"Шымкент","postcode":"160008","region":null,"country":"KZ"}],"sources":[{"property":"","dataset":"meta","license":"CDLA-Permissive-2.0","record_id":"450893978351876","update_time":"2026-09-14T00:00:00.000Z","confidence":0.596348226,"between":null,"provider":"meta","resource":"meta","version":"2026-09-14"},{"property":"/properties/confidence","dataset":"Overture","license":"CDLA-Permissive-2.0","record_id":null,"update_time":"2026-09-17T22:52:12Z","confidence":null,"between":null,"provider":"overture","resource":"confidence_calculation","version":"2026-09-17"}],"kind":"observed_secondary"}},{"type":"Feature","id":"b428a01b-fb2a-4dc1-b118-2127814b1fe9","geometry":{"type":"Point","coordinates":[69.59895,42.31906]},"properties":{"city":"shymkent","k10_group":"school","overture_id":"b428a01b-fb2a-4dc1-b118-2127814b1fe9","overture_version":11,"name_primary":"Монтессори Детский Сад \"Бала Би\"","basic_category":"place_of_learning","taxonomy":{"primary":"school","hierarchy":["education","place_of_learning","school"],"alternates":null},"confidence":0.948854268,"operating_status":null,"addresses":[{"freeform":"Шәймерденов көшесі 5","locality":"Шымкент","postcode":null,"region":null,"country":"KZ"}],"sources":[{"property":"","dataset":"meta","license":"CDLA-Permissive-2.0","record_id":"652390848258401","update_time":"2026-09-14T00:00:00.000Z","confidence":0.948854268,"between":null,"provider":"meta","resource":"meta","version":"2026-09-14"},{"property":"/properties/confidence","dataset":"Overture","license":"CDLA-Permissive-2.0","record_id":null,"update_time":"2026-09-17T22:52:12Z","confidence":null,"between":null,"provider":"overture","resource":"confidence_calculation","version":"2026-09-17"}],"kind":"observed_secondary"}},{"type":"Feature","id":"b845d434-7da3-4755-9ae9-bb6d40fc7520","geometry":{"type":"Point","coordinates":[69.602416,42.323312]},"properties":{"city":"shymkent","k10_group":"outpatient_clinic","overture_id":"b845d434-7da3-4755-9ae9-bb6d40fc7520","overture_version":10,"name_primary":"Стоматологическая клиника Диастом","basic_category":"dental_clinic","taxonomy":{"primary":"dental_clinic","hierarchy":["health_care","outpatient_care_facility","dental_clinic"],"alternates":null},"confidence":0.880953372,"operating_status":null,"addresses":[{"freeform":"Желтоқсан көшесі 29","locality":"Шымкент","postcode":null,"region":null,"country":"KZ"}],"sources":[{"property":"","dataset":"meta","license":"CDLA-Permissive-2.0","record_id":"711528382271242","update_time":"2026-09-14T00:00:00.000Z","confidence":0.880953372,"between":null,"provider":"meta","resource":"meta","version":"2026-09-14"},{"property":"/properties/confidence","dataset":"Overture","license":"CDLA-Permissive-2.0","record_id":null,"update_time":"2026-09-17T22:52:12Z","confidence":null,"between":null,"provider":"overture","resource":"confidence_calculation","version":"2026-09-17"}],"kind":"observed_secondary"}},{"type":"Feature","id":"b9656404-dad2-4021-b6ef-65a9fbab074a","geometry":{"type":"Point","coordinates":[69.60702,42.31758]},"properties":{"city":"shymkent","k10_group":"college_university","overture_id":"b9656404-dad2-4021-b6ef-65a9fbab074a","overture_version":8,"name_primary":"Высший педагогический колледж Shymkent","basic_category":"college_university","taxonomy":{"primary":"college_university","hierarchy":["education","place_of_learning","college_university"],"alternates":null},"confidence":0.637722373,"operating_status":null,"addresses":[{"freeform":"Байгиленов көшесі 20","locality":"Шымкент","postcode":null,"region":null,"country":"KZ"}],"sources":[{"property":"","dataset":"meta","license":"CDLA-Permissive-2.0","record_id":"1197184010332720","update_time":"2026-09-14T00:00:00.000Z","confidence":0.637722373,"between":null,"provider":"meta","resource":"meta","version":"2026-09-14"},{"property":"/properties/confidence","dataset":"Overture","license":"CDLA-Permissive-2.0","record_id":null,"update_time":"2026-09-17T22:52:12Z","confidence":null,"between":null,"provider":"overture","resource":"confidence_calculation","version":"2026-09-17"}],"kind":"observed_secondary"}},{"type":"Feature","id":"baeda67d-e701-4c2a-bba6-10a13466e76d","geometry":{"type":"Point","coordinates":[69.61557,42.32304]},"properties":{"city":"shymkent","k10_group":"school","overture_id":"baeda67d-e701-4c2a-bba6-10a13466e76d","overture_version":1,"name_primary":"ALEM мектебі","basic_category":"place_of_learning","taxonomy":{"primary":"private_school","hierarchy":["education","place_of_learning","school","private_school"],"alternates":null},"confidence":0.438176662,"operating_status":null,"addresses":[{"freeform":"Ж. Адырбеков көшесі 87б","locality":"Шымкент","postcode":null,"region":null,"country":"KZ"}],"sources":[{"property":"","dataset":"meta","license":"CDLA-Permissive-2.0","record_id":"100576409602303","update_time":"2026-09-14T00:00:00.000Z","confidence":0.438176662,"between":null,"provider":"meta","resource":"meta","version":"2026-09-14"},{"property":"/properties/confidence","dataset":"Overture","license":"CDLA-Permissive-2.0","record_id":null,"update_time":"2026-09-17T22:52:12Z","confidence":null,"between":null,"provider":"overture","resource":"confidence_calculation","version":"2026-09-17"}],"kind":"observed_secondary"}},{"type":"Feature","id":"bcd265d0-0799-4dbf-8b15-23bae752a4d2","geometry":{"type":"Point","coordinates":[69.61557,42.32304]},"properties":{"city":"shymkent","k10_group":"school","overture_id":"bcd265d0-0799-4dbf-8b15-23bae752a4d2","overture_version":2,"name_primary":"Алем мектеп","basic_category":"middle_school","taxonomy":{"primary":"middle_school","hierarchy":["education","place_of_learning","school","middle_school"],"alternates":null},"confidence":0.524984539,"operating_status":null,"addresses":[{"freeform":"Ж. Адырбеков көшесі 87","locality":"Шымкент","postcode":null,"region":null,"country":"KZ"}],"sources":[{"property":"","dataset":"meta","license":"CDLA-Permissive-2.0","record_id":"117725867952475","update_time":"2026-09-14T00:00:00.000Z","confidence":0.524984539,"between":null,"provider":"meta","resource":"meta","version":"2026-09-14"},{"property":"/properties/confidence","dataset":"Overture","license":"CDLA-Permissive-2.0","record_id":null,"update_time":"2026-09-17T22:52:12Z","confidence":null,"between":null,"provider":"overture","resource":"confidence_calculation","version":"2026-09-17"}],"kind":"observed_secondary"}},{"type":"Feature","id":"c08c14c0-2911-4945-8417-f8a0bc0a539f","geometry":{"type":"Point","coordinates":[69.60869,42.31553]},"properties":{"city":"shymkent","k10_group":"government_office","overture_id":"c08c14c0-2911-4945-8417-f8a0bc0a539f","overture_version":5,"name_primary":"Медициналық фармацевтикалық бақылау Шымкент қаласы бойынша Департаменті","basic_category":"government_office","taxonomy":{"primary":"government_office","hierarchy":["community_and_government","government_office"],"alternates":null},"confidence":0.386280656,"operating_status":null,"addresses":[{"freeform":"Тәуке хан даңғылы 82","locality":"Шымкент","postcode":null,"region":null,"country":"KZ"}],"sources":[{"property":"","dataset":"meta","license":"CDLA-Permissive-2.0","record_id":"100993415344075","update_time":"2026-09-14T00:00:00.000Z","confidence":0.386280656,"between":null,"provider":"meta","resource":"meta","version":"2026-09-14"},{"property":"/properties/confidence","dataset":"Overture","license":"CDLA-Permissive-2.0","record_id":null,"update_time":"2026-09-17T22:52:12Z","confidence":null,"between":null,"provider":"overture","resource":"confidence_calculation","version":"2026-09-17"}],"kind":"observed_secondary"}},{"type":"Feature","id":"c2990416-dca7-4e3a-b539-30e69cadf724","geometry":{"type":"Point","coordinates":[69.5958,42.3167]},"properties":{"city":"shymkent","k10_group":"outpatient_clinic","overture_id":"c2990416-dca7-4e3a-b539-30e69cadf724","overture_version":1,"name_primary":"Джафар Стоматология","basic_category":"dental_clinic","taxonomy":{"primary":"general_dentistry","hierarchy":["health_care","outpatient_care_facility","dental_clinic","general_dentistry"],"alternates":null},"confidence":0.258197814,"operating_status":null,"addresses":[{"freeform":"Әйбергенов өтпесі 1а","locality":"Шымкент","postcode":null,"region":null,"country":"KZ"}],"sources":[{"property":"","dataset":"meta","license":"CDLA-Permissive-2.0","record_id":"591837107356119","update_time":"2026-09-14T00:00:00.000Z","confidence":0.258197814,"between":null,"provider":"meta","resource":"meta","version":"2026-09-14"},{"property":"/properties/confidence","dataset":"Overture","license":"CDLA-Permissive-2.0","record_id":null,"update_time":"2026-09-17T22:52:12Z","confidence":null,"between":null,"provider":"overture","resource":"confidence_calculation","version":"2026-09-17"}],"kind":"observed_secondary"}},{"type":"Feature","id":"cc3d4ac9-aa00-495d-9e23-e81ff1171c55","geometry":{"type":"Point","coordinates":[69.609353542328,42.314028304982]},"properties":{"city":"shymkent","k10_group":"hospital","overture_id":"cc3d4ac9-aa00-495d-9e23-e81ff1171c55","overture_version":2,"name_primary":"АСЫЛ АРМАН Казахстан","basic_category":"hospital","taxonomy":{"primary":"hospital","hierarchy":["health_care","hospital"],"alternates":null},"confidence":0.551293075,"operating_status":null,"addresses":[{"freeform":"Гоголя 23","locality":"Шымкент","postcode":null,"region":null,"country":"KZ"}],"sources":[{"property":"","dataset":"meta","license":"CDLA-Permissive-2.0","record_id":"247889852523058","update_time":"2026-09-14T00:00:00.000Z","confidence":0.551293075,"between":null,"provider":"meta","resource":"meta","version":"2026-09-14"},{"property":"/properties/confidence","dataset":"Overture","license":"CDLA-Permissive-2.0","record_id":null,"update_time":"2026-09-17T22:52:12Z","confidence":null,"between":null,"provider":"overture","resource":"confidence_calculation","version":"2026-09-17"}],"kind":"observed_secondary"}},{"type":"Feature","id":"d2dc8f45-b060-4810-9e0a-427b79cf1111","geometry":{"type":"Point","coordinates":[69.61001,42.31941]},"properties":{"city":"shymkent","k10_group":"government_office","overture_id":"d2dc8f45-b060-4810-9e0a-427b79cf1111","overture_version":10,"name_primary":"Филиал РГП \"Казгидромет\" по Туркестанской области","basic_category":"government_office","taxonomy":{"primary":"government_office","hierarchy":["community_and_government","government_office"],"alternates":null},"confidence":0.339726001,"operating_status":null,"addresses":[{"freeform":"Жылқышиев көшесі 44","locality":"Шымкент","postcode":null,"region":null,"country":"KZ"}],"sources":[{"property":"","dataset":"meta","license":"CDLA-Permissive-2.0","record_id":"102945598205201","update_time":"2026-09-14T00:00:00.000Z","confidence":0.339726001,"between":null,"provider":"meta","resource":"meta","version":"2026-09-14"},{"property":"/properties/confidence","dataset":"Overture","license":"CDLA-Permissive-2.0","record_id":null,"update_time":"2026-09-17T22:52:12Z","confidence":null,"between":null,"provider":"overture","resource":"confidence_calculation","version":"2026-09-17"}],"kind":"observed_secondary"}},{"type":"Feature","id":"d3820e62-878b-40b6-b34b-61c0a85c0fbb","geometry":{"type":"Point","coordinates":[69.6089158,42.3154718]},"properties":{"city":"shymkent","k10_group":"government_office","overture_id":"d3820e62-878b-40b6-b34b-61c0a85c0fbb","overture_version":2,"name_primary":"Территориальный департамент КАЭНК МЭ РК по городу Шымкент","basic_category":"government_office","taxonomy":{"primary":"government_office","hierarchy":["community_and_government","government_office"],"alternates":null},"confidence":0.303354442,"operating_status":null,"addresses":[{"freeform":"Диваев көшесі 148","locality":"Шымкент","postcode":null,"region":null,"country":"KZ"}],"sources":[{"property":"","dataset":"meta","license":"CDLA-Permissive-2.0","record_id":"776516782699072","update_time":"2026-09-14T00:00:00.000Z","confidence":0.303354442,"between":null,"provider":"meta","resource":"meta","version":"2026-09-14"},{"property":"/properties/confidence","dataset":"Overture","license":"CDLA-Permissive-2.0","record_id":null,"update_time":"2026-09-17T22:52:12Z","confidence":null,"between":null,"provider":"overture","resource":"confidence_calculation","version":"2026-09-17"}],"kind":"observed_secondary"}},{"type":"Feature","id":"da9cd7b1-eefe-40eb-aebe-8ef720de4354","geometry":{"type":"Point","coordinates":[69.61519206,42.31672982]},"properties":{"city":"shymkent","k10_group":"outpatient_clinic","overture_id":"da9cd7b1-eefe-40eb-aebe-8ef720de4354","overture_version":8,"name_primary":"Atlant Clinic","basic_category":"outpatient_care_facility","taxonomy":{"primary":"outpatient_care_facility","hierarchy":["health_care","outpatient_care_facility"],"alternates":null},"confidence":0.311935693,"operating_status":null,"addresses":[{"freeform":"Aqpan Batyr St","locality":"Шымкент","postcode":"","region":null,"country":"KZ"}],"sources":[{"property":"","dataset":"meta","license":"CDLA-Permissive-2.0","record_id":"101241175283458","update_time":"2026-09-14T00:00:00.000Z","confidence":0.311935693,"between":null,"provider":"meta","resource":"meta","version":"2026-09-14"},{"property":"/properties/confidence","dataset":"Overture","license":"CDLA-Permissive-2.0","record_id":null,"update_time":"2026-09-17T22:52:12Z","confidence":null,"between":null,"provider":"overture","resource":"confidence_calculation","version":"2026-09-17"}],"kind":"observed_secondary"}},{"type":"Feature","id":"e1b19ead-4505-4acd-8aed-9c561ceec4c0","geometry":{"type":"Point","coordinates":[69.60702,42.31757]},"properties":{"city":"shymkent","k10_group":"outpatient_clinic","overture_id":"e1b19ead-4505-4acd-8aed-9c561ceec4c0","overture_version":3,"name_primary":"АССОР","basic_category":"specialized_health_care","taxonomy":{"primary":"osteopathic_medicine","hierarchy":["health_care","outpatient_care_facility","specialized_health_care","osteopathic_medicine"],"alternates":null},"confidence":0.339112878,"operating_status":null,"addresses":[{"freeform":"gulnara901@icloiud.com","locality":"Шымкент","postcode":"1600000","region":null,"country":"KZ"}],"sources":[{"property":"","dataset":"meta","license":"CDLA-Permissive-2.0","record_id":"168037206402259","update_time":"2026-09-14T00:00:00.000Z","confidence":0.339112878,"between":null,"provider":"meta","resource":"meta","version":"2026-09-14"},{"property":"/properties/confidence","dataset":"Overture","license":"CDLA-Permissive-2.0","record_id":null,"update_time":"2026-09-17T22:52:12Z","confidence":null,"between":null,"provider":"overture","resource":"confidence_calculation","version":"2026-09-17"}],"kind":"observed_secondary"}},{"type":"Feature","id":"e48858d4-2f1d-41ec-8e38-2a001ad46b55","geometry":{"type":"Point","coordinates":[69.59345982,42.3211583]},"properties":{"city":"shymkent","k10_group":"college_university","overture_id":"e48858d4-2f1d-41ec-8e38-2a001ad46b55","overture_version":8,"name_primary":"OKMPU","basic_category":"college_university","taxonomy":{"primary":"college_university","hierarchy":["education","place_of_learning","college_university"],"alternates":null},"confidence":0.619495571,"operating_status":null,"addresses":[{"freeform":"G. Ilyaev St","locality":"Шымкент","postcode":"1600008","region":null,"country":"KZ"}],"sources":[{"property":"","dataset":"meta","license":"CDLA-Permissive-2.0","record_id":"106835688114151","update_time":"2026-09-14T00:00:00.000Z","confidence":0.619495571,"between":null,"provider":"meta","resource":"meta","version":"2026-09-14"},{"property":"/properties/confidence","dataset":"Overture","license":"CDLA-Permissive-2.0","record_id":null,"update_time":"2026-09-17T22:52:12Z","confidence":null,"between":null,"provider":"overture","resource":"confidence_calculation","version":"2026-09-17"}],"kind":"observed_secondary"}},{"type":"Feature","id":"f4d6818b-1a99-43ca-8533-4c556f448919","geometry":{"type":"Point","coordinates":[69.5958,42.3167]},"properties":{"city":"shymkent","k10_group":"outpatient_clinic","overture_id":"f4d6818b-1a99-43ca-8533-4c556f448919","overture_version":1,"name_primary":"Стоматологическое оборудование","basic_category":"dental_clinic","taxonomy":{"primary":"general_dentistry","hierarchy":["health_care","outpatient_care_facility","dental_clinic","general_dentistry"],"alternates":null},"confidence":0.238045007,"operating_status":null,"addresses":[{"freeform":null,"locality":"Шымкент","postcode":null,"region":null,"country":"KZ"}],"sources":[{"property":"","dataset":"meta","license":"CDLA-Permissive-2.0","record_id":"938855905976141","update_time":"2026-09-14T00:00:00.000Z","confidence":0.238045007,"between":null,"provider":"meta","resource":"meta","version":"2026-09-14"},{"property":"/properties/confidence","dataset":"Overture","license":"CDLA-Permissive-2.0","record_id":null,"update_time":"2026-09-17T22:52:12Z","confidence":null,"between":null,"provider":"overture","resource":"confidence_calculation","version":"2026-09-17"}],"kind":"observed_secondary"}},{"type":"Feature","id":"f6475034-503e-4370-869a-268654640177","geometry":{"type":"Point","coordinates":[69.5937,42.32013]},"properties":{"city":"shymkent","k10_group":"hospital","overture_id":"f6475034-503e-4370-869a-268654640177","overture_version":7,"name_primary":"Медицинский Центр Citymed","basic_category":"hospital","taxonomy":{"primary":"hospital","hierarchy":["health_care","hospital"],"alternates":null},"confidence":0.814017892,"operating_status":null,"addresses":[{"freeform":"Ахмет Байтұрсынов көшесі 10б","locality":"Шымкент","postcode":null,"region":null,"country":"KZ"}],"sources":[{"property":"","dataset":"meta","license":"CDLA-Permissive-2.0","record_id":"393194381445080","update_time":"2026-09-14T00:00:00.000Z","confidence":0.814017892,"between":null,"provider":"meta","resource":"meta","version":"2026-09-14"},{"property":"/properties/confidence","dataset":"Overture","license":"CDLA-Permissive-2.0","record_id":null,"update_time":"2026-09-17T22:52:12Z","confidence":null,"between":null,"provider":"overture","resource":"confidence_calculation","version":"2026-09-17"}],"kind":"observed_secondary"}},{"type":"Feature","id":"fa131774-9ffb-406b-9af8-30b76398e0ad","geometry":{"type":"Point","coordinates":[69.60194,42.31089]},"properties":{"city":"shymkent","k10_group":"hospital","overture_id":"fa131774-9ffb-406b-9af8-30b76398e0ad","overture_version":8,"name_primary":"ОҚО Салауатты өмір салтын қалыптастыру орталығы ЖШС","basic_category":"hospital","taxonomy":{"primary":"hospital","hierarchy":["health_care","hospital"],"alternates":null},"confidence":0.538378,"operating_status":null,"addresses":[{"freeform":"Қазыбек Би көшесі 6а","locality":"Шымкент","postcode":null,"region":null,"country":"KZ"}],"sources":[{"property":"","dataset":"meta","license":"CDLA-Permissive-2.0","record_id":"125148991516071","update_time":"2026-09-14T00:00:00.000Z","confidence":0.538378,"between":null,"provider":"meta","resource":"meta","version":"2026-09-14"},{"property":"/properties/confidence","dataset":"Overture","license":"CDLA-Permissive-2.0","record_id":null,"update_time":"2026-09-17T22:52:12Z","confidence":null,"between":null,"provider":"overture","resource":"confidence_calculation","version":"2026-09-17"}],"kind":"observed_secondary"}},{"type":"Feature","id":"fd50a858-462d-477f-8bc6-a8d3e03a9576","geometry":{"type":"Point","coordinates":[69.60322,42.31728]},"properties":{"city":"shymkent","k10_group":"school","overture_id":"fd50a858-462d-477f-8bc6-a8d3e03a9576","overture_version":2,"name_primary":"Техникалық лицей","basic_category":"place_of_learning","taxonomy":{"primary":"school","hierarchy":["education","place_of_learning","school"],"alternates":null},"confidence":0.775675237,"operating_status":null,"addresses":[{"freeform":"Қазыбек Би көшесі 33","locality":"Шымкент","postcode":null,"region":null,"country":"KZ"}],"sources":[{"property":"","dataset":"meta","license":"CDLA-Permissive-2.0","record_id":"103027011922854","update_time":"2026-09-14T00:00:00.000Z","confidence":0.775675237,"between":null,"provider":"meta","resource":"meta","version":"2026-09-14"},{"property":"/properties/confidence","dataset":"Overture","license":"CDLA-Permissive-2.0","record_id":null,"update_time":"2026-09-17T22:52:12Z","confidence":null,"between":null,"provider":"overture","resource":"confidence_calculation","version":"2026-09-17"}],"kind":"observed_secondary"}}]}