{"type": "FeatureCollection", "name": "K03 derived ambiguity zones (not official boundaries)", "license_note": "derived from OpenStreetMap data (ODbL-1.0)", "features": [{"type": "Feature", "properties": {"zone_id": "AST-Z1", "type": "city_vs_region_overlap", "assign_status": "ambiguous", "kind": "derived", "legal_status": "not_verified", "candidates": ["kz.astana.district.baikonur", "osm:relation/3403760 (Целиноградский район, Акмолинская обл.)"]}, "geometry": {"type": "Polygon", "coordinates": [[[71.6513113, 51.3215171], [71.6445262, 51.3283709], [71.6415258, 51.3316656], [71.6678132, 51.3398842], [71.6838682, 51.3509429], [71.6950979, 51.3511101], [71.6927107, 51.3488787], [71.697736, 51.3465872], [71.7011348, 51.349766], [71.7063332, 51.3476043], [71.7039107, 51.3428285], [71.6999211, 51.3388761], [71.6990471, 51.3378711], [71.6973656, 51.3353448], [71.6941792, 51.3335279], [71.6938307, 51.3337089], [71.6866021, 51.3288876], [71.6842449, 51.3256499], [71.6787604, 51.3217359], [71.672494, 51.3174535], [71.6716, 51.3165612], [71.6733166, 51.3156608], [71.6707503, 51.3139846], [71.6704181, 51.3137676], [71.6742334, 51.3111448], [71.6718742, 51.3094308], [71.6703576, 51.3103754], [71.6677369, 51.3121944], [71.6665497, 51.3130184], [71.6580344, 51.3171614], [71.6579553, 51.3171883], [71.6513113, 51.3215171]]]}}, {"type": "Feature", "properties": {"zone_id": "AST-Z2", "type": "inside_city_no_district", "assign_status": "unmatched", "kind": "derived", "legal_status": "not_verified", "candidates": []}, "geometry": {"type": "Polygon", "coordinates": [[[71.3667047, 50.8669003], [71.3732513, 50.886331], [71.4425066, 50.8770764], [71.4362356, 50.8576076], [71.3667047, 50.8669003]]]}}, {"type": "Feature", "properties": {"zone_id": "AST-Z3", "type": "version_disagreement", "assign_status": "ambiguous", "kind": "derived", "legal_status": "not_verified", "candidates": ["kz.astana.district.almaty", "kz.astana.district.saraishyk"]}, "geometry": {"type": "MultiPolygon", "coordinates": [[[[71.46999864316372, 51.127554570667726], [71.4702581, 51.127515], [71.4700166, 51.127551], [71.46999864316372, 51.127554570667726]]], [[[71.469906, 51.1275687], [71.4698625, 51.1275756], [71.4685506, 51.1277683], [71.46619524848771, 51.12812807982934], [71.4686673, 51.127754], [71.4699819, 51.1275579], [71.46999864316372, 51.127554570667726], [71.469906, 51.1275687]]], [[[71.4639448, 51.1284777], [71.4636952, 51.1285169], [71.46295429592072, 51.12863316394436], [71.4635842, 51.1285369], [71.4638348, 51.1284964], [71.4640029, 51.1284705], [71.465456, 51.128241], [71.46619524848771, 51.12812807982934], [71.465566, 51.1282233], [71.4641159, 51.1284509], [71.4639448, 51.1284777]]], [[[71.4616764, 51.1288337], [71.4623321, 51.1287308], [71.46295429592072, 51.12863316394436], [71.4622382, 51.1287426], [71.4616764, 51.1288337]]], [[[71.4602268, 51.1290612], [71.4604718, 51.1290267], [71.4616764, 51.1288337], [71.4605751, 51.1290065], [71.4602268, 51.1290612]]], [[[71.4601603, 51.1290716], [71.4584665, 51.1293386], [71.458907, 51.1292692], [71.4601603, 51.1290716]]]]}}]}
