{"type":"FeatureCollection","name":"astana_places_social","release":"2026-09-23.1","city":"astana","bbox":[71.418372,51.163033,71.447,51.181],"attribution":["Overture Maps Foundation","© OpenStreetMap contributors (ODbL-1.0)"],"kind":"observed_secondary (Overture/OSM), not an official registry","features":[{"type":"Feature","id":"0233b91f-a010-4eac-9087-0b87d3c8756d","geometry":{"type":"Point","coordinates":[71.42034,51.18033]},"properties":{"city":"astana","k10_group":"college_university","overture_id":"0233b91f-a010-4eac-9087-0b87d3c8756d","overture_version":9,"name_primary":"Политехникалық Колледж","basic_category":"college_university","taxonomy":{"primary":"college_university","hierarchy":["education","place_of_learning","college_university"],"alternates":null},"confidence":0.500506461,"operating_status":null,"addresses":[{"freeform":null,"locality":"Астана","postcode":null,"region":null,"country":"KZ"}],"sources":[{"property":"","dataset":"meta","license":"CDLA-Permissive-2.0","record_id":"462148737908634","update_time":"2026-09-14T00:00:00.000Z","confidence":0.500506461,"between":null,"provider":"meta","resource":"meta","version":"2026-09-14"},{"property":"/properties/confidence","dataset":"Overture","license":"CDLA-Permissive-2.0","record_id":null,"update_time":"2026-09-17T22:52:12Z","confidence":null,"between":null,"provider":"overture","resource":"confidence_calculation","version":"2026-09-17"}],"kind":"observed_secondary"}},{"type":"Feature","id":"0288437e-eea6-4ac4-97eb-c05620ff6dc2","geometry":{"type":"Point","coordinates":[71.420945,51.168327]},"properties":{"city":"astana","k10_group":"government_office","overture_id":"0288437e-eea6-4ac4-97eb-c05620ff6dc2","overture_version":9,"name_primary":"Комитет таможенного контроля МФ РК","basic_category":"government_office","taxonomy":{"primary":"government_office","hierarchy":["community_and_government","government_office"],"alternates":null},"confidence":0.435378909,"operating_status":null,"addresses":[{"freeform":"Бейбітшілік көшесі 10","locality":"Астана","postcode":"010000","region":null,"country":"KZ"}],"sources":[{"property":"","dataset":"meta","license":"CDLA-Permissive-2.0","record_id":"464076723606858","update_time":"2026-09-14T00:00:00.000Z","confidence":0.435378909,"between":null,"provider":"meta","resource":"meta","version":"2026-09-14"},{"property":"/properties/confidence","dataset":"Overture","license":"CDLA-Permissive-2.0","record_id":null,"update_time":"2026-09-17T22:52:12Z","confidence":null,"between":null,"provider":"overture","resource":"confidence_calculation","version":"2026-09-17"}],"kind":"observed_secondary"}},{"type":"Feature","id":"0bbf2bc3-d703-431f-bf9a-69dbd7f6bf10","geometry":{"type":"Point","coordinates":[71.42582,51.17304]},"properties":{"city":"astana","k10_group":"college_university","overture_id":"0bbf2bc3-d703-431f-bf9a-69dbd7f6bf10","overture_version":8,"name_primary":"Центр Профи Казахстан","basic_category":"college_university","taxonomy":{"primary":"college_university","hierarchy":["education","place_of_learning","college_university"],"alternates":null},"confidence":0.571146727,"operating_status":null,"addresses":[{"freeform":"проспект Республики 34А","locality":"Астана","postcode":"010000","region":null,"country":"KZ"}],"sources":[{"property":"","dataset":"meta","license":"CDLA-Permissive-2.0","record_id":"1187176531397902","update_time":"2026-09-14T00:00:00.000Z","confidence":0.571146727,"between":null,"provider":"meta","resource":"meta","version":"2026-09-14"},{"property":"/properties/confidence","dataset":"Overture","license":"CDLA-Permissive-2.0","record_id":null,"update_time":"2026-09-17T22:52:12Z","confidence":null,"between":null,"provider":"overture","resource":"confidence_calculation","version":"2026-09-17"}],"kind":"observed_secondary"}},{"type":"Feature","id":"0dc3b66b-d8c1-4b7b-b769-06988161ac3f","geometry":{"type":"Point","coordinates":[71.42248296,51.16995323]},"properties":{"city":"astana","k10_group":"outpatient_clinic","overture_id":"0dc3b66b-d8c1-4b7b-b769-06988161ac3f","overture_version":9,"name_primary":"Family Clinic","basic_category":"outpatient_care_facility","taxonomy":{"primary":"outpatient_care_facility","hierarchy":["health_care","outpatient_care_facility"],"alternates":null},"confidence":0.961439312,"operating_status":null,"addresses":[{"freeform":"Сәкен Сейфуллин көшесі 34","locality":"Астана","postcode":"010000","region":null,"country":"KZ"}],"sources":[{"property":"","dataset":"meta","license":"CDLA-Permissive-2.0","record_id":"257332574462444","update_time":"2026-09-14T00:00:00.000Z","confidence":0.961439312,"between":null,"provider":"meta","resource":"meta","version":"2026-09-14"},{"property":"/properties/confidence","dataset":"Overture","license":"CDLA-Permissive-2.0","record_id":null,"update_time":"2026-09-17T22:52:12Z","confidence":null,"between":null,"provider":"overture","resource":"confidence_calculation","version":"2026-09-17"}],"kind":"observed_secondary"}},{"type":"Feature","id":"1116880a-cbb6-4271-9a59-a277083b792c","geometry":{"type":"Point","coordinates":[71.42493056,51.17675604]},"properties":{"city":"astana","k10_group":"outpatient_clinic","overture_id":"1116880a-cbb6-4271-9a59-a277083b792c","overture_version":11,"name_primary":"Лор центр Сезiм","basic_category":"diagnostics_imaging_or_lab_service","taxonomy":{"primary":"doctors_office","hierarchy":["health_care","outpatient_care_facility","diagnostics_imaging_or_lab_service","doctors_office"],"alternates":null},"confidence":0.824205816,"operating_status":null,"addresses":[{"freeform":"Bogenbay Batyr Ave 54","locality":"Астана","postcode":"010000","region":null,"country":"KZ"}],"sources":[{"property":"","dataset":"meta","license":"CDLA-Permissive-2.0","record_id":"1788259608081336","update_time":"2026-09-14T00:00:00.000Z","confidence":0.824205816,"between":null,"provider":"meta","resource":"meta","version":"2026-09-14"},{"property":"/properties/confidence","dataset":"Overture","license":"CDLA-Permissive-2.0","record_id":null,"update_time":"2026-09-17T22:52:12Z","confidence":null,"between":null,"provider":"overture","resource":"confidence_calculation","version":"2026-09-17"}],"kind":"observed_secondary"}},{"type":"Feature","id":"140ab4bc-e560-41e3-aeaf-cb7b8b821f08","geometry":{"type":"Point","coordinates":[71.44229,51.1699]},"properties":{"city":"astana","k10_group":"outpatient_clinic","overture_id":"140ab4bc-e560-41e3-aeaf-cb7b8b821f08","overture_version":2,"name_primary":"Стоматология МерейДент","basic_category":"dental_clinic","taxonomy":{"primary":"general_dentistry","hierarchy":["health_care","outpatient_care_facility","dental_clinic","general_dentistry"],"alternates":null},"confidence":0.486201704,"operating_status":null,"addresses":[{"freeform":"проспект Абая 50","locality":"Астана","postcode":"010000","region":null,"country":"KZ"}],"sources":[{"property":"","dataset":"meta","license":"CDLA-Permissive-2.0","record_id":"203198949550493","update_time":"2026-09-14T00:00:00.000Z","confidence":0.486201704,"between":null,"provider":"meta","resource":"meta","version":"2026-09-14"},{"property":"/properties/confidence","dataset":"Overture","license":"CDLA-Permissive-2.0","record_id":null,"update_time":"2026-09-17T22:52:12Z","confidence":null,"between":null,"provider":"overture","resource":"confidence_calculation","version":"2026-09-17"}],"kind":"observed_secondary"}},{"type":"Feature","id":"166c939f-9131-4fbb-bf75-4ab543916f20","geometry":{"type":"Point","coordinates":[71.41939,51.17117]},"properties":{"city":"astana","k10_group":"outpatient_clinic","overture_id":"166c939f-9131-4fbb-bf75-4ab543916f20","overture_version":10,"name_primary":"Ирина Кулинич родолог","basic_category":"behavioral_or_mental_health_clinic","taxonomy":{"primary":"marriage_or_relationship_counseling","hierarchy":["health_care","outpatient_care_facility","behavioral_or_mental_health_clinic","counseling","marriage_or_relationship_counseling"],"alternates":null},"confidence":0.266491175,"operating_status":null,"addresses":[{"freeform":"Астана,","locality":"Целиноград ауданы","postcode":null,"region":null,"country":"KZ"}],"sources":[{"property":"","dataset":"meta","license":"CDLA-Permissive-2.0","record_id":"703012992890836","update_time":"2026-08-24T00:00:00.000Z","confidence":0.266491175,"between":null,"provider":"meta","resource":"meta","version":"2026-08-24"},{"property":"/properties/confidence","dataset":"Overture","license":"CDLA-Permissive-2.0","record_id":null,"update_time":"2026-09-17T22:52:12Z","confidence":null,"between":null,"provider":"overture","resource":"confidence_calculation","version":"2026-09-17"}],"kind":"observed_secondary"}},{"type":"Feature","id":"18eb2b6e-b7e9-4227-8471-6bf6e8418c16","geometry":{"type":"Point","coordinates":[71.42007,51.16831]},"properties":{"city":"astana","k10_group":"college_university","overture_id":"18eb2b6e-b7e9-4227-8471-6bf6e8418c16","overture_version":10,"name_primary":"Институт дипломатии","basic_category":"college_university","taxonomy":{"primary":"college_university","hierarchy":["education","place_of_learning","college_university"],"alternates":null},"confidence":0.56991899,"operating_status":null,"addresses":[{"freeform":"Абай даңғылы 33","locality":"Астана","postcode":"010000","region":null,"country":"KZ"}],"sources":[{"property":"","dataset":"meta","license":"CDLA-Permissive-2.0","record_id":"946654885497257","update_time":"2026-09-14T00:00:00.000Z","confidence":0.56991899,"between":null,"provider":"meta","resource":"meta","version":"2026-09-14"},{"property":"/properties/confidence","dataset":"Overture","license":"CDLA-Permissive-2.0","record_id":null,"update_time":"2026-09-17T22:52:12Z","confidence":null,"between":null,"provider":"overture","resource":"confidence_calculation","version":"2026-09-17"}],"kind":"observed_secondary"}},{"type":"Feature","id":"1be5a31a-4a8c-48f4-af6c-449035e7c80b","geometry":{"type":"Point","coordinates":[71.41999,51.16683]},"properties":{"city":"astana","k10_group":"government_office","overture_id":"1be5a31a-4a8c-48f4-af6c-449035e7c80b","overture_version":8,"name_primary":"Управление общественного здравоохранения г.Астаны","basic_category":"government_office","taxonomy":{"primary":"government_office","hierarchy":["community_and_government","government_office"],"alternates":null},"confidence":0.606723845,"operating_status":null,"addresses":[{"freeform":"Бейбітшілік көшесі 11","locality":"Астана","postcode":"010000","region":null,"country":"KZ"}],"sources":[{"property":"","dataset":"meta","license":"CDLA-Permissive-2.0","record_id":"449719462074531","update_time":"2026-09-14T00:00:00.000Z","confidence":0.606723845,"between":null,"provider":"meta","resource":"meta","version":"2026-09-14"},{"property":"/properties/confidence","dataset":"Overture","license":"CDLA-Permissive-2.0","record_id":null,"update_time":"2026-09-17T22:52:12Z","confidence":null,"between":null,"provider":"overture","resource":"confidence_calculation","version":"2026-09-17"}],"kind":"observed_secondary"}},{"type":"Feature","id":"1d137305-49cd-450b-9626-9762db14d080","geometry":{"type":"Point","coordinates":[71.43691241,51.17479959]},"properties":{"city":"astana","k10_group":"outpatient_clinic","overture_id":"1d137305-49cd-450b-9626-9762db14d080","overture_version":1,"name_primary":"Центр Поддержки Детей с РАС Асыл Мирас","basic_category":"behavioral_or_mental_health_clinic","taxonomy":{"primary":"psychology","hierarchy":["health_care","outpatient_care_facility","behavioral_or_mental_health_clinic","psychiatry_or_psychology_service","psychology"],"alternates":null},"confidence":0.078972355,"operating_status":null,"addresses":[{"freeform":"Валиханова 23/2","locality":"Астана","postcode":"020000","region":null,"country":"KZ"}],"sources":[{"property":"","dataset":"meta","license":"CDLA-Permissive-2.0","record_id":"103911685372897","update_time":"2026-09-14T00:00:00.000Z","confidence":0.078972355,"between":null,"provider":"meta","resource":"meta","version":"2026-09-14"},{"property":"/properties/confidence","dataset":"Overture","license":"CDLA-Permissive-2.0","record_id":null,"update_time":"2026-09-17T22:52:12Z","confidence":null,"between":null,"provider":"overture","resource":"confidence_calculation","version":"2026-09-17"}],"kind":"observed_secondary"}},{"type":"Feature","id":"1e4aeace-c4db-422f-a010-a41fcdfb021c","geometry":{"type":"Point","coordinates":[71.440379619598,51.163494403784]},"properties":{"city":"astana","k10_group":"hospital","overture_id":"1e4aeace-c4db-422f-a010-a41fcdfb021c","overture_version":9,"name_primary":"Центр ЭКО и репродуктивного здоровья \"Геном-Астана\"","basic_category":"hospital","taxonomy":{"primary":"hospital","hierarchy":["health_care","hospital"],"alternates":null},"confidence":0.91731286,"operating_status":null,"addresses":[{"freeform":"Ул. Валиханова, Шоқан Уәлиханов көшесі 3","locality":"Астана","postcode":"010000","region":null,"country":"KZ"}],"sources":[{"property":"","dataset":"meta","license":"CDLA-Permissive-2.0","record_id":"1127846087227571","update_time":"2026-09-14T00:00:00.000Z","confidence":0.91731286,"between":null,"provider":"meta","resource":"meta","version":"2026-09-14"},{"property":"/properties/confidence","dataset":"Overture","license":"CDLA-Permissive-2.0","record_id":null,"update_time":"2026-09-17T22:52:12Z","confidence":null,"between":null,"provider":"overture","resource":"confidence_calculation","version":"2026-09-17"}],"kind":"observed_secondary"}},{"type":"Feature","id":"1e587c48-b425-4d8a-ba90-37f1ad41e24f","geometry":{"type":"Point","coordinates":[71.44025,51.16873]},"properties":{"city":"astana","k10_group":"outpatient_clinic","overture_id":"1e587c48-b425-4d8a-ba90-37f1ad41e24f","overture_version":9,"name_primary":"Медицинский центр Жәрдем - Астана","basic_category":"outpatient_care_facility","taxonomy":{"primary":"outpatient_care_facility","hierarchy":["health_care","outpatient_care_facility"],"alternates":null},"confidence":0.564650357,"operating_status":null,"addresses":[{"freeform":"Шоқан Уәлиханов көшесі 12","locality":"Астана","postcode":"010000","region":null,"country":"KZ"}],"sources":[{"property":"","dataset":"meta","license":"CDLA-Permissive-2.0","record_id":"1253357464677086","update_time":"2026-09-14T00:00:00.000Z","confidence":0.564650357,"between":null,"provider":"meta","resource":"meta","version":"2026-09-14"},{"property":"/properties/confidence","dataset":"Overture","license":"CDLA-Permissive-2.0","record_id":null,"update_time":"2026-09-17T22:52:12Z","confidence":null,"between":null,"provider":"overture","resource":"confidence_calculation","version":"2026-09-17"}],"kind":"observed_secondary"}},{"type":"Feature","id":"2c90420f-42f3-428d-a6e6-1f4538e3432c","geometry":{"type":"Point","coordinates":[71.424135228998,51.180809598699]},"properties":{"city":"astana","k10_group":"hospital","overture_id":"2c90420f-42f3-428d-a6e6-1f4538e3432c","overture_version":2,"name_primary":"Центр Дерматологии И Профилактики Болезней, Передающихся Половым Путем","basic_category":"hospital","taxonomy":{"primary":"hospital","hierarchy":["health_care","hospital"],"alternates":null},"confidence":0.720787942,"operating_status":null,"addresses":[{"freeform":"","locality":"Астана","postcode":"","region":null,"country":"KZ"}],"sources":[{"property":"","dataset":"meta","license":"CDLA-Permissive-2.0","record_id":"2144656705799927","update_time":"2026-09-14T00:00:00.000Z","confidence":0.720787942,"between":null,"provider":"meta","resource":"meta","version":"2026-09-14"},{"property":"/properties/confidence","dataset":"Overture","license":"CDLA-Permissive-2.0","record_id":null,"update_time":"2026-09-17T22:52:12Z","confidence":null,"between":null,"provider":"overture","resource":"confidence_calculation","version":"2026-09-17"}],"kind":"observed_secondary"}},{"type":"Feature","id":"3002c131-bbbb-4d8f-a8c4-710a4ca3ddfd","geometry":{"type":"Point","coordinates":[71.42213,51.16601]},"properties":{"city":"astana","k10_group":"government_office","overture_id":"3002c131-bbbb-4d8f-a8c4-710a4ca3ddfd","overture_version":7,"name_primary":"ҚР Президенті жанындағы ҚСЗИ. КИСИ при Президенте РК","basic_category":"government_office","taxonomy":{"primary":"government_office","hierarchy":["community_and_government","government_office"],"alternates":null},"confidence":0.550398111,"operating_status":null,"addresses":[{"freeform":"Бейбітшілік көшесі 4","locality":"Астана","postcode":"010000","region":null,"country":"KZ"}],"sources":[{"property":"","dataset":"meta","license":"CDLA-Permissive-2.0","record_id":"719178984824691","update_time":"2026-09-14T00:00:00.000Z","confidence":0.550398111,"between":null,"provider":"meta","resource":"meta","version":"2026-09-14"},{"property":"/properties/confidence","dataset":"Overture","license":"CDLA-Permissive-2.0","record_id":null,"update_time":"2026-09-17T22:52:12Z","confidence":null,"between":null,"provider":"overture","resource":"confidence_calculation","version":"2026-09-17"}],"kind":"observed_secondary"}},{"type":"Feature","id":"3486c949-32bb-4c6e-b138-c0e5596fe74c","geometry":{"type":"Point","coordinates":[71.44491,51.16882]},"properties":{"city":"astana","k10_group":"preschool","overture_id":"3486c949-32bb-4c6e-b138-c0e5596fe74c","overture_version":8,"name_primary":"Детский сад Гулливер","basic_category":"preschool","taxonomy":{"primary":"preschool","hierarchy":["education","place_of_learning","school","preschool"],"alternates":null},"confidence":0.623458624,"operating_status":null,"addresses":[{"freeform":"Луи Пастер көшесі 107","locality":"Астана","postcode":"010000","region":null,"country":"KZ"}],"sources":[{"property":"","dataset":"meta","license":"CDLA-Permissive-2.0","record_id":"101311025260779","update_time":"2026-09-14T00:00:00.000Z","confidence":0.623458624,"between":null,"provider":"meta","resource":"meta","version":"2026-09-14"},{"property":"/properties/confidence","dataset":"Overture","license":"CDLA-Permissive-2.0","record_id":null,"update_time":"2026-09-17T22:52:12Z","confidence":null,"between":null,"provider":"overture","resource":"confidence_calculation","version":"2026-09-17"}],"kind":"observed_secondary"}},{"type":"Feature","id":"3fba1026-8464-41ab-88f8-633e3df0de30","geometry":{"type":"Point","coordinates":[71.44135809,51.16678526]},"properties":{"city":"astana","k10_group":"outpatient_clinic","overture_id":"3fba1026-8464-41ab-88f8-633e3df0de30","overture_version":11,"name_primary":"Astana Clinic","basic_category":"diagnostics_imaging_or_lab_service","taxonomy":{"primary":"doctors_office","hierarchy":["health_care","outpatient_care_facility","diagnostics_imaging_or_lab_service","doctors_office"],"alternates":null},"confidence":0.830306649,"operating_status":null,"addresses":[{"freeform":"Kenesary St 52","locality":"Астана","postcode":"010000","region":null,"country":"KZ"}],"sources":[{"property":"","dataset":"meta","license":"CDLA-Permissive-2.0","record_id":"104721805755565","update_time":"2026-09-14T00:00:00.000Z","confidence":0.830306649,"between":null,"provider":"meta","resource":"meta","version":"2026-09-14"},{"property":"/properties/confidence","dataset":"Overture","license":"CDLA-Permissive-2.0","record_id":null,"update_time":"2026-09-17T22:52:12Z","confidence":null,"between":null,"provider":"overture","resource":"confidence_calculation","version":"2026-09-17"}],"kind":"observed_secondary"}},{"type":"Feature","id":"410f0193-f0bc-4553-bee5-660aab0287a5","geometry":{"type":"Point","coordinates":[71.42993598,51.16732878]},"properties":{"city":"astana","k10_group":"outpatient_clinic","overture_id":"410f0193-f0bc-4553-bee5-660aab0287a5","overture_version":9,"name_primary":"Family Stom","basic_category":"dental_clinic","taxonomy":{"primary":"dental_clinic","hierarchy":["health_care","outpatient_care_facility","dental_clinic"],"alternates":null},"confidence":0.569560587,"operating_status":null,"addresses":[{"freeform":null,"locality":"Астана","postcode":null,"region":null,"country":"KZ"}],"sources":[{"property":"","dataset":"meta","license":"CDLA-Permissive-2.0","record_id":"1741023805912740","update_time":"2026-09-14T00:00:00.000Z","confidence":0.569560587,"between":null,"provider":"meta","resource":"meta","version":"2026-09-14"},{"property":"/properties/confidence","dataset":"Overture","license":"CDLA-Permissive-2.0","record_id":null,"update_time":"2026-09-17T22:52:12Z","confidence":null,"between":null,"provider":"overture","resource":"confidence_calculation","version":"2026-09-17"}],"kind":"observed_secondary"}},{"type":"Feature","id":"414aa432-3f6e-49ce-90aa-817a8e8414a9","geometry":{"type":"Point","coordinates":[71.44229,51.16472]},"properties":{"city":"astana","k10_group":"college_university","overture_id":"414aa432-3f6e-49ce-90aa-817a8e8414a9","overture_version":2,"name_primary":"Центр Профессионального Обучения ORKEN","basic_category":"college_university","taxonomy":{"primary":"college_university","hierarchy":["education","place_of_learning","college_university"],"alternates":null},"confidence":0.546854079,"operating_status":null,"addresses":[{"freeform":"улица Достык 1а","locality":"Астана","postcode":"010000","region":null,"country":"KZ"}],"sources":[{"property":"","dataset":"meta","license":"CDLA-Permissive-2.0","record_id":"1620076288296720","update_time":"2026-09-14T00:00:00.000Z","confidence":0.546854079,"between":null,"provider":"meta","resource":"meta","version":"2026-09-14"},{"property":"/properties/confidence","dataset":"Overture","license":"CDLA-Permissive-2.0","record_id":null,"update_time":"2026-09-17T22:52:12Z","confidence":null,"between":null,"provider":"overture","resource":"confidence_calculation","version":"2026-09-17"}],"kind":"observed_secondary"}},{"type":"Feature","id":"421e7ca1-b636-4090-90ec-24251c4d0ec0","geometry":{"type":"Point","coordinates":[71.434468,51.167118]},"properties":{"city":"astana","k10_group":"government_office","overture_id":"421e7ca1-b636-4090-90ec-24251c4d0ec0","overture_version":9,"name_primary":"АО \"КазАгроФинанс\"","basic_category":"government_office","taxonomy":{"primary":"government_office","hierarchy":["community_and_government","government_office"],"alternates":null},"confidence":0.798965394,"operating_status":null,"addresses":[{"freeform":"Коргалжынское шоссе 2А","locality":"Астана","postcode":"010000","region":null,"country":"KZ"}],"sources":[{"property":"","dataset":"meta","license":"CDLA-Permissive-2.0","record_id":"1574544596161597","update_time":"2026-09-14T00:00:00.000Z","confidence":0.798965394,"between":null,"provider":"meta","resource":"meta","version":"2026-09-14"},{"property":"/properties/confidence","dataset":"Overture","license":"CDLA-Permissive-2.0","record_id":null,"update_time":"2026-09-17T22:52:12Z","confidence":null,"between":null,"provider":"overture","resource":"confidence_calculation","version":"2026-09-17"}],"kind":"observed_secondary"}},{"type":"Feature","id":"43c64670-1b4c-4d42-bd0f-0049a7b49371","geometry":{"type":"Point","coordinates":[71.42204717,51.17704444]},"properties":{"city":"astana","k10_group":"outpatient_clinic","overture_id":"43c64670-1b4c-4d42-bd0f-0049a7b49371","overture_version":9,"name_primary":"Stomatologiya Kog'gan Dent","basic_category":"dental_clinic","taxonomy":{"primary":"dental_clinic","hierarchy":["health_care","outpatient_care_facility","dental_clinic"],"alternates":null},"confidence":0.41856724,"operating_status":null,"addresses":[{"freeform":"Bogenbay Batyr Ave дом 50","locality":"Астана","postcode":"010000","region":null,"country":"KZ"}],"sources":[{"property":"","dataset":"meta","license":"CDLA-Permissive-2.0","record_id":"107986207224422","update_time":"2026-09-14T00:00:00.000Z","confidence":0.41856724,"between":null,"provider":"meta","resource":"meta","version":"2026-09-14"},{"property":"/properties/confidence","dataset":"Overture","license":"CDLA-Permissive-2.0","record_id":null,"update_time":"2026-09-17T22:52:12Z","confidence":null,"between":null,"provider":"overture","resource":"confidence_calculation","version":"2026-09-17"}],"kind":"observed_secondary"}},{"type":"Feature","id":"451eb53a-0818-4c16-b4a8-8e7de1c66a52","geometry":{"type":"Point","coordinates":[71.43139,51.16968]},"properties":{"city":"astana","k10_group":"government_office","overture_id":"451eb53a-0818-4c16-b4a8-8e7de1c66a52","overture_version":7,"name_primary":"Астана қ.,Санитариялық-эпидемиологиялық бақылау департаменті","basic_category":"government_office","taxonomy":{"primary":"government_office","hierarchy":["community_and_government","government_office"],"alternates":null},"confidence":0.539768994,"operating_status":null,"addresses":[{"freeform":"Абай даңғылы 47","locality":"Астана","postcode":"010000","region":null,"country":"KZ"}],"sources":[{"property":"","dataset":"meta","license":"CDLA-Permissive-2.0","record_id":"894837280667674","update_time":"2026-09-14T00:00:00.000Z","confidence":0.539768994,"between":null,"provider":"meta","resource":"meta","version":"2026-09-14"},{"property":"/properties/confidence","dataset":"Overture","license":"CDLA-Permissive-2.0","record_id":null,"update_time":"2026-09-17T22:52:12Z","confidence":null,"between":null,"provider":"overture","resource":"confidence_calculation","version":"2026-09-17"}],"kind":"observed_secondary"}},{"type":"Feature","id":"58a2c43b-2fd2-4c81-acd7-d2d81d718000","geometry":{"type":"Point","coordinates":[71.420506907078,51.168260315336]},"properties":{"city":"astana","k10_group":"government_office","overture_id":"58a2c43b-2fd2-4c81-acd7-d2d81d718000","overture_version":8,"name_primary":"АДГС","basic_category":"government_office","taxonomy":{"primary":"government_office","hierarchy":["community_and_government","government_office"],"alternates":null},"confidence":0.443052649,"operating_status":null,"addresses":[{"freeform":"","locality":"Астана","postcode":"","region":null,"country":"KZ"}],"sources":[{"property":"","dataset":"meta","license":"CDLA-Permissive-2.0","record_id":"731596350566598","update_time":"2026-09-14T00:00:00.000Z","confidence":0.443052649,"between":null,"provider":"meta","resource":"meta","version":"2026-09-14"},{"property":"/properties/confidence","dataset":"Overture","license":"CDLA-Permissive-2.0","record_id":null,"update_time":"2026-09-17T22:52:12Z","confidence":null,"between":null,"provider":"overture","resource":"confidence_calculation","version":"2026-09-17"}],"kind":"observed_secondary"}},{"type":"Feature","id":"5a1e694c-6d56-4c25-b6c4-7e2954caa565","geometry":{"type":"Point","coordinates":[71.430472545392,51.173523855443]},"properties":{"city":"astana","k10_group":"college_university","overture_id":"5a1e694c-6d56-4c25-b6c4-7e2954caa565","overture_version":11,"name_primary":"Академия Туран-Профи","basic_category":"college_university","taxonomy":{"primary":"college_university","hierarchy":["education","place_of_learning","college_university"],"alternates":null},"confidence":0.448756278,"operating_status":null,"addresses":[{"freeform":"Шәкен Айманов көшесі 6","locality":"Астана","postcode":"010000","region":null,"country":"KZ"}],"sources":[{"property":"","dataset":"meta","license":"CDLA-Permissive-2.0","record_id":"191366024373784","update_time":"2026-09-14T00:00:00.000Z","confidence":0.448756278,"between":null,"provider":"meta","resource":"meta","version":"2026-09-14"},{"property":"/properties/confidence","dataset":"Overture","license":"CDLA-Permissive-2.0","record_id":null,"update_time":"2026-09-17T22:52:12Z","confidence":null,"between":null,"provider":"overture","resource":"confidence_calculation","version":"2026-09-17"}],"kind":"observed_secondary"}},{"type":"Feature","id":"5a868d86-f4eb-4c9f-bdf3-27832486db39","geometry":{"type":"Point","coordinates":[71.41991609,51.16683335]},"properties":{"city":"astana","k10_group":"government_office","overture_id":"5a868d86-f4eb-4c9f-bdf3-27832486db39","overture_version":9,"name_primary":"Тілдерді дамыту басқармасы","basic_category":"government_office","taxonomy":{"primary":"government_office","hierarchy":["community_and_government","government_office"],"alternates":null},"confidence":0.621171415,"operating_status":null,"addresses":[{"freeform":"Beibitshilik St 11","locality":"Астана","postcode":"010000","region":null,"country":"KZ"}],"sources":[{"property":"","dataset":"meta","license":"CDLA-Permissive-2.0","record_id":"181311832719874","update_time":"2026-09-14T00:00:00.000Z","confidence":0.621171415,"between":null,"provider":"meta","resource":"meta","version":"2026-09-14"},{"property":"/properties/confidence","dataset":"Overture","license":"CDLA-Permissive-2.0","record_id":null,"update_time":"2026-09-17T22:52:12Z","confidence":null,"between":null,"provider":"overture","resource":"confidence_calculation","version":"2026-09-17"}],"kind":"observed_secondary"}},{"type":"Feature","id":"5c3a8d6d-117d-4cce-9dde-ad820e6967d2","geometry":{"type":"Point","coordinates":[71.42513,51.16305]},"properties":{"city":"astana","k10_group":"outpatient_clinic","overture_id":"5c3a8d6d-117d-4cce-9dde-ad820e6967d2","overture_version":3,"name_primary":"Akademiya Ortopedii","basic_category":"specialized_health_care","taxonomy":{"primary":"orthopedics","hierarchy":["health_care","outpatient_care_facility","specialized_health_care","musculoskeletal_medicine","orthopedics"],"alternates":null},"confidence":0.28341195,"operating_status":null,"addresses":[{"freeform":"2-ші шағын аудан 1","locality":"Целиноград ауданы","postcode":null,"region":null,"country":"KZ"}],"sources":[{"property":"","dataset":"meta","license":"CDLA-Permissive-2.0","record_id":"504627759406073","update_time":"2026-09-14T00:00:00.000Z","confidence":0.28341195,"between":null,"provider":"meta","resource":"meta","version":"2026-09-14"},{"property":"/properties/confidence","dataset":"Overture","license":"CDLA-Permissive-2.0","record_id":null,"update_time":"2026-09-17T22:52:12Z","confidence":null,"between":null,"provider":"overture","resource":"confidence_calculation","version":"2026-09-17"}],"kind":"observed_secondary"}},{"type":"Feature","id":"5f76d9b9-bdd1-4cea-9157-fef68ac60270","geometry":{"type":"Point","coordinates":[71.4347246,51.16696385]},"properties":{"city":"astana","k10_group":"outpatient_clinic","overture_id":"5f76d9b9-bdd1-4cea-9157-fef68ac60270","overture_version":10,"name_primary":"Aura Clinic","basic_category":"outpatient_care_facility","taxonomy":{"primary":"outpatient_care_facility","hierarchy":["health_care","outpatient_care_facility"],"alternates":null},"confidence":0.386449844,"operating_status":null,"addresses":[{"freeform":"Kenesary St 51","locality":"Астана","postcode":"020000","region":null,"country":"KZ"}],"sources":[{"property":"","dataset":"meta","license":"CDLA-Permissive-2.0","record_id":"237872013639988","update_time":"2026-09-14T00:00:00.000Z","confidence":0.386449844,"between":null,"provider":"meta","resource":"meta","version":"2026-09-14"},{"property":"/properties/confidence","dataset":"Overture","license":"CDLA-Permissive-2.0","record_id":null,"update_time":"2026-09-17T22:52:12Z","confidence":null,"between":null,"provider":"overture","resource":"confidence_calculation","version":"2026-09-17"}],"kind":"observed_secondary"}},{"type":"Feature","id":"61543465-6b7e-4943-89ae-502e5a0b212c","geometry":{"type":"Point","coordinates":[71.42355,51.17402]},"properties":{"city":"astana","k10_group":"pharmacy","overture_id":"61543465-6b7e-4943-89ae-502e5a0b212c","overture_version":2,"name_primary":"Europharma","basic_category":"pharmacy_and_drug_store","taxonomy":{"primary":"pharmacy","hierarchy":["shopping","specialty_store","pharmacy_and_drug_store","pharmacy"],"alternates":null},"confidence":0.549329042,"operating_status":null,"addresses":[{"freeform":null,"locality":"Астана","postcode":null,"region":null,"country":"KZ"}],"sources":[{"property":"","dataset":"meta","license":"CDLA-Permissive-2.0","record_id":"865827140419184","update_time":"2026-09-14T00:00:00.000Z","confidence":0.549329042,"between":null,"provider":"meta","resource":"meta","version":"2026-09-14"},{"property":"/properties/confidence","dataset":"Overture","license":"CDLA-Permissive-2.0","record_id":null,"update_time":"2026-09-17T22:52:12Z","confidence":null,"between":null,"provider":"overture","resource":"confidence_calculation","version":"2026-09-17"}],"kind":"observed_secondary"}},{"type":"Feature","id":"6309d38a-135b-4435-9599-bf9868c03a9c","geometry":{"type":"Point","coordinates":[71.43584,51.16785]},"properties":{"city":"astana","k10_group":"college_university","overture_id":"6309d38a-135b-4435-9599-bf9868c03a9c","overture_version":10,"name_primary":"EFA-Education For All","basic_category":"college_university","taxonomy":{"primary":"college_university","hierarchy":["education","place_of_learning","college_university"],"alternates":null},"confidence":0.641964555,"operating_status":null,"addresses":[{"freeform":"Луи Пастер көшесі 69","locality":"Астана","postcode":"010000","region":null,"country":"KZ"}],"sources":[{"property":"","dataset":"meta","license":"CDLA-Permissive-2.0","record_id":"717275751782457","update_time":"2026-09-14T00:00:00.000Z","confidence":0.641964555,"between":null,"provider":"meta","resource":"meta","version":"2026-09-14"},{"property":"/properties/confidence","dataset":"Overture","license":"CDLA-Permissive-2.0","record_id":null,"update_time":"2026-09-17T22:52:12Z","confidence":null,"between":null,"provider":"overture","resource":"confidence_calculation","version":"2026-09-17"}],"kind":"observed_secondary"}},{"type":"Feature","id":"646f13c2-ad9e-4430-bbf2-1897b79120c9","geometry":{"type":"Point","coordinates":[71.44229,51.1699]},"properties":{"city":"astana","k10_group":"hospital","overture_id":"646f13c2-ad9e-4430-bbf2-1897b79120c9","overture_version":1,"name_primary":"Health Clinic","basic_category":"hospital","taxonomy":{"primary":"hospital","hierarchy":["health_care","hospital"],"alternates":null},"confidence":0.446398735,"operating_status":null,"addresses":[{"freeform":"Абай даңғылы 50","locality":"Астана","postcode":"010000","region":null,"country":"KZ"}],"sources":[{"property":"","dataset":"meta","license":"CDLA-Permissive-2.0","record_id":"150230755636861","update_time":"2026-09-14T00:00:00.000Z","confidence":0.446398735,"between":null,"provider":"meta","resource":"meta","version":"2026-09-14"},{"property":"/properties/confidence","dataset":"Overture","license":"CDLA-Permissive-2.0","record_id":null,"update_time":"2026-09-17T22:52:12Z","confidence":null,"between":null,"provider":"overture","resource":"confidence_calculation","version":"2026-09-17"}],"kind":"observed_secondary"}},{"type":"Feature","id":"6b48e0f6-30c5-4b1f-828a-c90c408ee9f8","geometry":{"type":"Point","coordinates":[71.44127,51.16756]},"properties":{"city":"astana","k10_group":"outpatient_clinic","overture_id":"6b48e0f6-30c5-4b1f-828a-c90c408ee9f8","overture_version":1,"name_primary":"Gulsezim Aitugan","basic_category":"specialized_health_care","taxonomy":{"primary":"osteopathic_medicine","hierarchy":["health_care","outpatient_care_facility","specialized_health_care","osteopathic_medicine"],"alternates":null},"confidence":0.286559075,"operating_status":null,"addresses":[{"freeform":"Кенесары көшесі 65","locality":"Астана","postcode":"010000","region":null,"country":"KZ"}],"sources":[{"property":"","dataset":"meta","license":"CDLA-Permissive-2.0","record_id":"865604943303527","update_time":"2026-09-14T00:00:00.000Z","confidence":0.286559075,"between":null,"provider":"meta","resource":"meta","version":"2026-09-14"},{"property":"/properties/confidence","dataset":"Overture","license":"CDLA-Permissive-2.0","record_id":null,"update_time":"2026-09-17T22:52:12Z","confidence":null,"between":null,"provider":"overture","resource":"confidence_calculation","version":"2026-09-17"}],"kind":"observed_secondary"}},{"type":"Feature","id":"771c278a-af10-4c57-b9fc-52755437345d","geometry":{"type":"Point","coordinates":[71.438397,51.164151]},"properties":{"city":"astana","k10_group":"outpatient_clinic","overture_id":"771c278a-af10-4c57-b9fc-52755437345d","overture_version":6,"name_primary":"\"ЗарДан\" стоматологическая клиника","basic_category":"dental_clinic","taxonomy":{"primary":"dental_clinic","hierarchy":["health_care","outpatient_care_facility","dental_clinic"],"alternates":null},"confidence":0.77,"operating_status":null,"addresses":[{"freeform":"г. Астана, ул. Сабыр Рахимова, 36","locality":"Астана","postcode":"010000","region":null,"country":"KZ"}],"sources":[{"property":"","dataset":"Foursquare","license":"Apache-2.0","record_id":"560515dc498e86a57013f593","update_time":"2025-02-21T00:00:00.000","confidence":0.77,"between":null,"provider":"foursquare","resource":"foursquare","version":"2026-04-14"},{"property":"/properties/confidence","dataset":"Overture","license":"CDLA-Permissive-2.0","record_id":null,"update_time":"2026-09-17T22:52:12Z","confidence":null,"between":null,"provider":"overture","resource":"confidence_calculation","version":"2026-09-17"}],"kind":"observed_secondary"}},{"type":"Feature","id":"79e43678-fa73-4611-93d3-c64dc30f3102","geometry":{"type":"Point","coordinates":[71.420209407806,51.167860705199]},"properties":{"city":"astana","k10_group":"college_university","overture_id":"79e43678-fa73-4611-93d3-c64dc30f3102","overture_version":8,"name_primary":"Academy of Public Administration under the President of Kazakhstan","basic_category":"college_university","taxonomy":{"primary":"college_university","hierarchy":["education","place_of_learning","college_university"],"alternates":null},"confidence":0.94350177,"operating_status":null,"addresses":[{"freeform":"Абай даңғылы 33А","locality":"Астана","postcode":"010000","region":null,"country":"KZ"}],"sources":[{"property":"","dataset":"meta","license":"CDLA-Permissive-2.0","record_id":"1493710944218696","update_time":"2026-09-14T00:00:00.000Z","confidence":0.94350177,"between":null,"provider":"meta","resource":"meta","version":"2026-09-14"},{"property":"/properties/confidence","dataset":"Overture","license":"CDLA-Permissive-2.0","record_id":null,"update_time":"2026-09-17T22:52:12Z","confidence":null,"between":null,"provider":"overture","resource":"confidence_calculation","version":"2026-09-17"}],"kind":"observed_secondary"}},{"type":"Feature","id":"7b39e048-341b-454a-a63c-4b7e1ae73e9f","geometry":{"type":"Point","coordinates":[71.42501,51.17087]},"properties":{"city":"astana","k10_group":"school","overture_id":"7b39e048-341b-454a-a63c-4b7e1ae73e9f","overture_version":5,"name_primary":"Школа-гимназия 3","basic_category":"high_school","taxonomy":{"primary":"high_school","hierarchy":["education","place_of_learning","school","high_school"],"alternates":null},"confidence":0.894396305,"operating_status":null,"addresses":[{"freeform":"проспект Республики 35","locality":"Астана","postcode":"010000","region":null,"country":"KZ"}],"sources":[{"property":"","dataset":"meta","license":"CDLA-Permissive-2.0","record_id":"489956668166313","update_time":"2026-09-14T00:00:00.000Z","confidence":0.894396305,"between":null,"provider":"meta","resource":"meta","version":"2026-09-14"},{"property":"/properties/confidence","dataset":"Overture","license":"CDLA-Permissive-2.0","record_id":null,"update_time":"2026-09-17T22:52:12Z","confidence":null,"between":null,"provider":"overture","resource":"confidence_calculation","version":"2026-09-17"}],"kind":"observed_secondary"}},{"type":"Feature","id":"889c0829-209d-45df-bec5-5a32403ada38","geometry":{"type":"Point","coordinates":[71.42774,51.17008]},"properties":{"city":"astana","k10_group":"hospital","overture_id":"889c0829-209d-45df-bec5-5a32403ada38","overture_version":3,"name_primary":"ultraline.kz","basic_category":"hospital","taxonomy":{"primary":"hospital","hierarchy":["health_care","hospital"],"alternates":null},"confidence":0.44618234,"operating_status":null,"addresses":[{"freeform":"Республика даңғылы 34","locality":"Астана","postcode":"010000","region":null,"country":"KZ"}],"sources":[{"property":"","dataset":"meta","license":"CDLA-Permissive-2.0","record_id":"147739379480484","update_time":"2026-08-24T00:00:00.000Z","confidence":0.44618234,"between":null,"provider":"meta","resource":"meta","version":"2026-08-24"},{"property":"/properties/confidence","dataset":"Overture","license":"CDLA-Permissive-2.0","record_id":null,"update_time":"2026-09-17T22:52:12Z","confidence":null,"between":null,"provider":"overture","resource":"confidence_calculation","version":"2026-09-17"}],"kind":"observed_secondary"}},{"type":"Feature","id":"8ca53724-c558-46b7-826b-13e3e8fbb7e6","geometry":{"type":"Point","coordinates":[71.44530490733,51.166662031027]},"properties":{"city":"astana","k10_group":"school","overture_id":"8ca53724-c558-46b7-826b-13e3e8fbb7e6","overture_version":9,"name_primary":"\"ГУ \"Средняя школа № 8\" УО г. Астаны\"","basic_category":"middle_school","taxonomy":{"primary":"middle_school","hierarchy":["education","place_of_learning","school","middle_school"],"alternates":null},"confidence":0.53645885,"operating_status":null,"addresses":[{"freeform":"Асан Қайғы көшесі 56","locality":"Астана","postcode":"010000","region":null,"country":"KZ"}],"sources":[{"property":"","dataset":"meta","license":"CDLA-Permissive-2.0","record_id":"386757418528326","update_time":"2026-09-14T00:00:00.000Z","confidence":0.53645885,"between":null,"provider":"meta","resource":"meta","version":"2026-09-14"},{"property":"/properties/confidence","dataset":"Overture","license":"CDLA-Permissive-2.0","record_id":null,"update_time":"2026-09-17T22:52:12Z","confidence":null,"between":null,"provider":"overture","resource":"confidence_calculation","version":"2026-09-17"}],"kind":"observed_secondary"}},{"type":"Feature","id":"a1e56dec-ec3b-4c84-aa96-a4ca5762caf2","geometry":{"type":"Point","coordinates":[71.43372,51.16862]},"properties":{"city":"astana","k10_group":"school","overture_id":"a1e56dec-ec3b-4c84-aa96-a4ca5762caf2","overture_version":9,"name_primary":"Учебный ЦЕНТР ФПРК","basic_category":"place_of_learning","taxonomy":{"primary":"school","hierarchy":["education","place_of_learning","school"],"alternates":null},"confidence":0.594482422,"operating_status":null,"addresses":[{"freeform":"проспект Абая 38","locality":"Астана","postcode":"010000","region":null,"country":"KZ"}],"sources":[{"property":"","dataset":"meta","license":"CDLA-Permissive-2.0","record_id":"398348000992239","update_time":"2026-09-14T00:00:00.000Z","confidence":0.594482422,"between":null,"provider":"meta","resource":"meta","version":"2026-09-14"},{"property":"/properties/confidence","dataset":"Overture","license":"CDLA-Permissive-2.0","record_id":null,"update_time":"2026-09-17T22:52:12Z","confidence":null,"between":null,"provider":"overture","resource":"confidence_calculation","version":"2026-09-17"}],"kind":"observed_secondary"}},{"type":"Feature","id":"a1ee9e73-d0bd-43da-a0a0-e919f7908471","geometry":{"type":"Point","coordinates":[71.44231,51.17144]},"properties":{"city":"astana","k10_group":"preschool","overture_id":"a1ee9e73-d0bd-43da-a0a0-e919f7908471","overture_version":2,"name_primary":"Esma kids","basic_category":"preschool","taxonomy":{"primary":"preschool","hierarchy":["education","place_of_learning","school","preschool"],"alternates":null},"confidence":0.236787975,"operating_status":null,"addresses":[{"freeform":"Жақып Омаров көшесі 150","locality":"Астана","postcode":"010000","region":null,"country":"KZ"}],"sources":[{"property":"","dataset":"meta","license":"CDLA-Permissive-2.0","record_id":"886879444511195","update_time":"2026-09-14T00:00:00.000Z","confidence":0.236787975,"between":null,"provider":"meta","resource":"meta","version":"2026-09-14"},{"property":"/properties/confidence","dataset":"Overture","license":"CDLA-Permissive-2.0","record_id":null,"update_time":"2026-09-17T22:52:12Z","confidence":null,"between":null,"provider":"overture","resource":"confidence_calculation","version":"2026-09-17"}],"kind":"observed_secondary"}},{"type":"Feature","id":"a4483f53-7de8-4df1-b61b-b4066b0ad5dd","geometry":{"type":"Point","coordinates":[71.42298,51.16765]},"properties":{"city":"astana","k10_group":"school","overture_id":"a4483f53-7de8-4df1-b61b-b4066b0ad5dd","overture_version":2,"name_primary":"Astana Garden International School","basic_category":"place_of_learning","taxonomy":{"primary":"private_school","hierarchy":["education","place_of_learning","school","private_school"],"alternates":null},"confidence":0.373992473,"operating_status":null,"addresses":[{"freeform":"улица Алихана Бокейханова 32","locality":"Астана","postcode":"010000","region":null,"country":"KZ"}],"sources":[{"property":"","dataset":"meta","license":"CDLA-Permissive-2.0","record_id":"476791848859434","update_time":"2026-09-14T00:00:00.000Z","confidence":0.373992473,"between":null,"provider":"meta","resource":"meta","version":"2026-09-14"},{"property":"/properties/confidence","dataset":"Overture","license":"CDLA-Permissive-2.0","record_id":null,"update_time":"2026-09-17T22:52:12Z","confidence":null,"between":null,"provider":"overture","resource":"confidence_calculation","version":"2026-09-17"}],"kind":"observed_secondary"}},{"type":"Feature","id":"ac81745d-e285-46c4-961e-4721bd5fcb2d","geometry":{"type":"Point","coordinates":[71.439778804779,51.166750667752]},"properties":{"city":"astana","k10_group":"college_university","overture_id":"ac81745d-e285-46c4-961e-4721bd5fcb2d","overture_version":2,"name_primary":"АО \"Финансовая Академия\"  Астана","basic_category":"college_university","taxonomy":{"primary":"college_university","hierarchy":["education","place_of_learning","college_university"],"alternates":null},"confidence":0.561519861,"operating_status":null,"addresses":[{"freeform":"Е-11 көшесі 8","locality":"Астана","postcode":null,"region":null,"country":"KZ"}],"sources":[{"property":"","dataset":"meta","license":"CDLA-Permissive-2.0","record_id":"107953252697884","update_time":"2026-09-14T00:00:00.000Z","confidence":0.561519861,"between":null,"provider":"meta","resource":"meta","version":"2026-09-14"},{"property":"/properties/confidence","dataset":"Overture","license":"CDLA-Permissive-2.0","record_id":null,"update_time":"2026-09-17T22:52:12Z","confidence":null,"between":null,"provider":"overture","resource":"confidence_calculation","version":"2026-09-17"}],"kind":"observed_secondary"}},{"type":"Feature","id":"aca68551-4a03-47c2-813f-d13dceb85c62","geometry":{"type":"Point","coordinates":[71.44606,51.16817]},"properties":{"city":"astana","k10_group":"outpatient_clinic","overture_id":"aca68551-4a03-47c2-813f-d13dceb85c62","overture_version":9,"name_primary":"Sanjar Dental Clinic","basic_category":"dental_clinic","taxonomy":{"primary":"dental_clinic","hierarchy":["health_care","outpatient_care_facility","dental_clinic"],"alternates":null},"confidence":0.828268588,"operating_status":null,"addresses":[{"freeform":"Кенесары көшесі 69А","locality":"Астана","postcode":"010000","region":null,"country":"KZ"}],"sources":[{"property":"","dataset":"meta","license":"CDLA-Permissive-2.0","record_id":"105111728401845","update_time":"2026-09-14T00:00:00.000Z","confidence":0.828268588,"between":null,"provider":"meta","resource":"meta","version":"2026-09-14"},{"property":"/properties/confidence","dataset":"Overture","license":"CDLA-Permissive-2.0","record_id":null,"update_time":"2026-09-17T22:52:12Z","confidence":null,"between":null,"provider":"overture","resource":"confidence_calculation","version":"2026-09-17"}],"kind":"observed_secondary"}},{"type":"Feature","id":"b1fc81c5-7f00-4a0a-969d-2da872515916","geometry":{"type":"Point","coordinates":[71.42629,51.17692]},"properties":{"city":"astana","k10_group":"outpatient_clinic","overture_id":"b1fc81c5-7f00-4a0a-969d-2da872515916","overture_version":9,"name_primary":"Стоматология Protezist_n","basic_category":"dental_clinic","taxonomy":{"primary":"general_dentistry","hierarchy":["health_care","outpatient_care_facility","dental_clinic","general_dentistry"],"alternates":null},"confidence":0.507679284,"operating_status":null,"addresses":[{"freeform":"Бөгенбай батыр даңғылы 54","locality":"Астана","postcode":"010000","region":null,"country":"KZ"}],"sources":[{"property":"","dataset":"meta","license":"CDLA-Permissive-2.0","record_id":"106214339115286","update_time":"2026-09-14T00:00:00.000Z","confidence":0.507679284,"between":null,"provider":"meta","resource":"meta","version":"2026-09-14"},{"property":"/properties/confidence","dataset":"Overture","license":"CDLA-Permissive-2.0","record_id":null,"update_time":"2026-09-17T22:52:12Z","confidence":null,"between":null,"provider":"overture","resource":"confidence_calculation","version":"2026-09-17"}],"kind":"observed_secondary"}},{"type":"Feature","id":"b5dd5f1a-9d55-48b1-9d68-7172ea84da3f","geometry":{"type":"Point","coordinates":[71.44184,51.16473]},"properties":{"city":"astana","k10_group":"school","overture_id":"b5dd5f1a-9d55-48b1-9d68-7172ea84da3f","overture_version":8,"name_primary":"Образовательный центр АЗиЯ","basic_category":"place_of_learning","taxonomy":{"primary":"school","hierarchy":["education","place_of_learning","school"],"alternates":null},"confidence":0.303383738,"operating_status":null,"addresses":[{"freeform":"Аманкелді Иманов көшесі 26","locality":"Астана","postcode":"010000","region":null,"country":"KZ"}],"sources":[{"property":"","dataset":"meta","license":"CDLA-Permissive-2.0","record_id":"1603511493043057","update_time":"2026-09-14T00:00:00.000Z","confidence":0.303383738,"between":null,"provider":"meta","resource":"meta","version":"2026-09-14"},{"property":"/properties/confidence","dataset":"Overture","license":"CDLA-Permissive-2.0","record_id":null,"update_time":"2026-09-17T22:52:12Z","confidence":null,"between":null,"provider":"overture","resource":"confidence_calculation","version":"2026-09-17"}],"kind":"observed_secondary"}},{"type":"Feature","id":"c0bbb4a4-c356-4ff9-a65f-cb554a45d6dd","geometry":{"type":"Point","coordinates":[71.43092352,51.16626089]},"properties":{"city":"astana","k10_group":"pharmacy","overture_id":"c0bbb4a4-c356-4ff9-a65f-cb554a45d6dd","overture_version":9,"name_primary":"Europharma","basic_category":"pharmacy_and_drug_store","taxonomy":{"primary":"pharmacy","hierarchy":["shopping","specialty_store","pharmacy_and_drug_store","pharmacy"],"alternates":null},"confidence":0.605987489,"operating_status":null,"addresses":[{"freeform":"в ЖК, Kenesary St 47","locality":"Астана","postcode":"010000","region":null,"country":"KZ"}],"sources":[{"property":"","dataset":"meta","license":"CDLA-Permissive-2.0","record_id":"113301120444866","update_time":"2026-09-14T00:00:00.000Z","confidence":0.605987489,"between":null,"provider":"meta","resource":"meta","version":"2026-09-14"},{"property":"/properties/confidence","dataset":"Overture","license":"CDLA-Permissive-2.0","record_id":null,"update_time":"2026-09-17T22:52:12Z","confidence":null,"between":null,"provider":"overture","resource":"confidence_calculation","version":"2026-09-17"}],"kind":"observed_secondary"}},{"type":"Feature","id":"c1ca82ef-8858-401a-8b4a-e0960c59780f","geometry":{"type":"Point","coordinates":[71.423570804045,51.180254619214]},"properties":{"city":"astana","k10_group":"hospital","overture_id":"c1ca82ef-8858-401a-8b4a-e0960c59780f","overture_version":1,"name_primary":"Городская поликлиника №2","basic_category":"hospital","taxonomy":{"primary":"hospital","hierarchy":["health_care","hospital"],"alternates":null},"confidence":0.719494104,"operating_status":null,"addresses":[{"freeform":"проспект Республики 50","locality":"Астана","postcode":"010000","region":null,"country":"KZ"}],"sources":[{"property":"","dataset":"meta","license":"CDLA-Permissive-2.0","record_id":"2100034550213884","update_time":"2026-09-14T00:00:00.000Z","confidence":0.719494104,"between":null,"provider":"meta","resource":"meta","version":"2026-09-14"},{"property":"/properties/confidence","dataset":"Overture","license":"CDLA-Permissive-2.0","record_id":null,"update_time":"2026-09-17T22:52:12Z","confidence":null,"between":null,"provider":"overture","resource":"confidence_calculation","version":"2026-09-17"}],"kind":"observed_secondary"}},{"type":"Feature","id":"c460238c-7dbc-4ae4-95a3-b501e54e30f3","geometry":{"type":"Point","coordinates":[71.438,51.16591]},"properties":{"city":"astana","k10_group":"hospital","overture_id":"c460238c-7dbc-4ae4-95a3-b501e54e30f3","overture_version":3,"name_primary":"Astana Medical Center","basic_category":"hospital","taxonomy":{"primary":"hospital","hierarchy":["health_care","hospital"],"alternates":null},"confidence":0.613996327,"operating_status":null,"addresses":[{"freeform":"Шоқан Уәлиханов көшесі 9/2","locality":"Астана","postcode":"010000","region":null,"country":"KZ"}],"sources":[{"property":"","dataset":"meta","license":"CDLA-Permissive-2.0","record_id":"1737107793208556","update_time":"2026-09-14T00:00:00.000Z","confidence":0.613996327,"between":null,"provider":"meta","resource":"meta","version":"2026-09-14"},{"property":"/properties/confidence","dataset":"Overture","license":"CDLA-Permissive-2.0","record_id":null,"update_time":"2026-09-17T22:52:12Z","confidence":null,"between":null,"provider":"overture","resource":"confidence_calculation","version":"2026-09-17"}],"kind":"observed_secondary"}},{"type":"Feature","id":"c83fb2da-1be8-4d7d-8d4a-fc95b6d5bf5a","geometry":{"type":"Point","coordinates":[71.42333788,51.16769996]},"properties":{"city":"astana","k10_group":"school","overture_id":"c83fb2da-1be8-4d7d-8d4a-fc95b6d5bf5a","overture_version":11,"name_primary":"Учебный Центр Expert-A","basic_category":"place_of_learning","taxonomy":{"primary":"school","hierarchy":["education","place_of_learning","school"],"alternates":null},"confidence":0.331596434,"operating_status":null,"addresses":[{"freeform":"51, Abay Ave д.24/1","locality":"Астана","postcode":"010000","region":null,"country":"KZ"}],"sources":[{"property":"","dataset":"meta","license":"CDLA-Permissive-2.0","record_id":"406231823527583","update_time":"2026-09-14T00:00:00.000Z","confidence":0.331596434,"between":null,"provider":"meta","resource":"meta","version":"2026-09-14"},{"property":"/properties/confidence","dataset":"Overture","license":"CDLA-Permissive-2.0","record_id":null,"update_time":"2026-09-17T22:52:12Z","confidence":null,"between":null,"provider":"overture","resource":"confidence_calculation","version":"2026-09-17"}],"kind":"observed_secondary"}},{"type":"Feature","id":"c97435da-cd05-4549-bec1-ff297e858554","geometry":{"type":"Point","coordinates":[71.42026244,51.17752725]},"properties":{"city":"astana","k10_group":"school","overture_id":"c97435da-cd05-4549-bec1-ff297e858554","overture_version":9,"name_primary":"Гимназия №6","basic_category":"place_of_learning","taxonomy":{"primary":"school","hierarchy":["education","place_of_learning","school"],"alternates":null},"confidence":0.526618063,"operating_status":null,"addresses":[{"freeform":"Mukhtar Auezov St 31","locality":"Астана","postcode":"010000","region":null,"country":"KZ"}],"sources":[{"property":"","dataset":"meta","license":"CDLA-Permissive-2.0","record_id":"2080224758957423","update_time":"2026-09-14T00:00:00.000Z","confidence":0.526618063,"between":null,"provider":"meta","resource":"meta","version":"2026-09-14"},{"property":"/properties/confidence","dataset":"Overture","license":"CDLA-Permissive-2.0","record_id":null,"update_time":"2026-09-17T22:52:12Z","confidence":null,"between":null,"provider":"overture","resource":"confidence_calculation","version":"2026-09-17"}],"kind":"observed_secondary"}},{"type":"Feature","id":"c9f64ffd-e537-42b7-8609-a65d384ed8dd","geometry":{"type":"Point","coordinates":[71.42194,51.1689099]},"properties":{"city":"astana","k10_group":"government_office","overture_id":"c9f64ffd-e537-42b7-8609-a65d384ed8dd","overture_version":9,"name_primary":"Академия правоохранительных органов при Генеральной прокуратуре Республики Казахстан","basic_category":"government_office","taxonomy":{"primary":"government_office","hierarchy":["community_and_government","government_office"],"alternates":null},"confidence":0.64653796,"operating_status":null,"addresses":[{"freeform":null,"locality":"Астана","postcode":null,"region":null,"country":"KZ"}],"sources":[{"property":"","dataset":"meta","license":"CDLA-Permissive-2.0","record_id":"533787220489585","update_time":"2026-09-14T00:00:00.000Z","confidence":0.64653796,"between":null,"provider":"meta","resource":"meta","version":"2026-09-14"},{"property":"/properties/confidence","dataset":"Overture","license":"CDLA-Permissive-2.0","record_id":null,"update_time":"2026-09-17T22:52:12Z","confidence":null,"between":null,"provider":"overture","resource":"confidence_calculation","version":"2026-09-17"}],"kind":"observed_secondary"}},{"type":"Feature","id":"cce9aded-fa5d-4ba3-b254-bf7d7f077360","geometry":{"type":"Point","coordinates":[71.429347,51.172157]},"properties":{"city":"astana","k10_group":"government_office","overture_id":"cce9aded-fa5d-4ba3-b254-bf7d7f077360","overture_version":10,"name_primary":"Агентство по противодействию коррупции (Антикоррупционная служба)","basic_category":"government_office","taxonomy":{"primary":"government_office","hierarchy":["community_and_government","government_office"],"alternates":null},"confidence":0.626333654,"operating_status":null,"addresses":[{"freeform":"Сәкен Сейфуллин көшесі 37","locality":"Астана","postcode":"010000","region":null,"country":"KZ"}],"sources":[{"property":"","dataset":"meta","license":"CDLA-Permissive-2.0","record_id":"105351667750170","update_time":"2026-09-14T00:00:00.000Z","confidence":0.626333654,"between":null,"provider":"meta","resource":"meta","version":"2026-09-14"},{"property":"/properties/confidence","dataset":"Overture","license":"CDLA-Permissive-2.0","record_id":null,"update_time":"2026-09-17T22:52:12Z","confidence":null,"between":null,"provider":"overture","resource":"confidence_calculation","version":"2026-09-17"}],"kind":"observed_secondary"}},{"type":"Feature","id":"cd7f0098-c77b-4401-a428-831bf1e1685b","geometry":{"type":"Point","coordinates":[71.42594,51.17301]},"properties":{"city":"astana","k10_group":"college_university","overture_id":"cd7f0098-c77b-4401-a428-831bf1e1685b","overture_version":2,"name_primary":"Академия Образования Дарын","basic_category":"college_university","taxonomy":{"primary":"college_university","hierarchy":["education","place_of_learning","college_university"],"alternates":null},"confidence":0.543772161,"operating_status":null,"addresses":[{"freeform":"проспект Республики 34А","locality":"Астана","postcode":"010000","region":null,"country":"KZ"}],"sources":[{"property":"","dataset":"meta","license":"CDLA-Permissive-2.0","record_id":"282197655528507","update_time":"2026-09-14T00:00:00.000Z","confidence":0.543772161,"between":null,"provider":"meta","resource":"meta","version":"2026-09-14"},{"property":"/properties/confidence","dataset":"Overture","license":"CDLA-Permissive-2.0","record_id":null,"update_time":"2026-09-17T22:52:12Z","confidence":null,"between":null,"provider":"overture","resource":"confidence_calculation","version":"2026-09-17"}],"kind":"observed_secondary"}},{"type":"Feature","id":"d295d522-aa09-4396-9c2d-2b3cfdc3d07e","geometry":{"type":"Point","coordinates":[71.425048112869,51.16311090302]},"properties":{"city":"astana","k10_group":"government_office","overture_id":"d295d522-aa09-4396-9c2d-2b3cfdc3d07e","overture_version":11,"name_primary":"Астана қаласының мемлекеттік архиві","basic_category":"government_office","taxonomy":{"primary":"government_office","hierarchy":["community_and_government","government_office"],"alternates":null},"confidence":0.795955837,"operating_status":null,"addresses":[{"freeform":"Мұхтар Әуезов көшесі 3","locality":"Астана","postcode":"010000","region":null,"country":"KZ"}],"sources":[{"property":"","dataset":"meta","license":"CDLA-Permissive-2.0","record_id":"364167553917394","update_time":"2026-09-14T00:00:00.000Z","confidence":0.795955837,"between":null,"provider":"meta","resource":"meta","version":"2026-09-14"},{"property":"/properties/confidence","dataset":"Overture","license":"CDLA-Permissive-2.0","record_id":null,"update_time":"2026-09-17T22:52:12Z","confidence":null,"between":null,"provider":"overture","resource":"confidence_calculation","version":"2026-09-17"}],"kind":"observed_secondary"}},{"type":"Feature","id":"d40e30a8-deb4-4359-ab31-189e1bf535f8","geometry":{"type":"Point","coordinates":[71.439973532229,51.164323928927]},"properties":{"city":"astana","k10_group":"preschool","overture_id":"d40e30a8-deb4-4359-ab31-189e1bf535f8","overture_version":9,"name_primary":"\"детский сад \"Максат\"\"","basic_category":"preschool","taxonomy":{"primary":"preschool","hierarchy":["education","place_of_learning","school","preschool"],"alternates":null},"confidence":0.485000312,"operating_status":null,"addresses":[{"freeform":"","locality":"Астана","postcode":"","region":null,"country":"KZ"}],"sources":[{"property":"","dataset":"meta","license":"CDLA-Permissive-2.0","record_id":"1144588982371292","update_time":"2026-09-14T00:00:00.000Z","confidence":0.485000312,"between":null,"provider":"meta","resource":"meta","version":"2026-09-14"},{"property":"/properties/confidence","dataset":"Overture","license":"CDLA-Permissive-2.0","record_id":null,"update_time":"2026-09-17T22:52:12Z","confidence":null,"between":null,"provider":"overture","resource":"confidence_calculation","version":"2026-09-17"}],"kind":"observed_secondary"}},{"type":"Feature","id":"d8b91b5f-c463-4042-be3d-5773d85ab2de","geometry":{"type":"Point","coordinates":[71.42435,51.17798]},"properties":{"city":"astana","k10_group":"pharmacy","overture_id":"d8b91b5f-c463-4042-be3d-5773d85ab2de","overture_version":9,"name_primary":"Сеть аптек Гиппократ","basic_category":"pharmacy_and_drug_store","taxonomy":{"primary":"pharmacy","hierarchy":["shopping","specialty_store","pharmacy_and_drug_store","pharmacy"],"alternates":null},"confidence":0.935425639,"operating_status":null,"addresses":[{"freeform":"проспект Республики 46","locality":"Астана","postcode":"010000","region":null,"country":"KZ"}],"sources":[{"property":"","dataset":"meta","license":"CDLA-Permissive-2.0","record_id":"842131499287488","update_time":"2026-09-14T00:00:00.000Z","confidence":0.935425639,"between":null,"provider":"meta","resource":"meta","version":"2026-09-14"},{"property":"/properties/confidence","dataset":"Overture","license":"CDLA-Permissive-2.0","record_id":null,"update_time":"2026-09-17T22:52:12Z","confidence":null,"between":null,"provider":"overture","resource":"confidence_calculation","version":"2026-09-17"}],"kind":"observed_secondary"}},{"type":"Feature","id":"dc334d42-5a1f-4a9d-a85b-d8dc3cfb7f59","geometry":{"type":"Point","coordinates":[71.4201099,51.16862]},"properties":{"city":"astana","k10_group":"government_office","overture_id":"dc334d42-5a1f-4a9d-a85b-d8dc3cfb7f59","overture_version":10,"name_primary":"Министерство по делам государственной службы Республики Казахстан","basic_category":"government_office","taxonomy":{"primary":"government_office","hierarchy":["community_and_government","government_office"],"alternates":null},"confidence":0.72118932,"operating_status":null,"addresses":[{"freeform":"Абай даңғылы 33А","locality":"Астана","postcode":"010000","region":null,"country":"KZ"}],"sources":[{"property":"","dataset":"meta","license":"CDLA-Permissive-2.0","record_id":"1663581450568784","update_time":"2026-09-14T00:00:00.000Z","confidence":0.72118932,"between":null,"provider":"meta","resource":"meta","version":"2026-09-14"},{"property":"/properties/confidence","dataset":"Overture","license":"CDLA-Permissive-2.0","record_id":null,"update_time":"2026-09-17T22:52:12Z","confidence":null,"between":null,"provider":"overture","resource":"confidence_calculation","version":"2026-09-17"}],"kind":"observed_secondary"}},{"type":"Feature","id":"de04f003-bb3d-4ea7-93e1-cd825e5c1783","geometry":{"type":"Point","coordinates":[71.426672039123,51.17929655842]},"properties":{"city":"astana","k10_group":"school","overture_id":"de04f003-bb3d-4ea7-93e1-cd825e5c1783","overture_version":9,"name_primary":"\"Школа \"Почемучка\"\"","basic_category":"high_school","taxonomy":{"primary":"high_school","hierarchy":["education","place_of_learning","school","high_school"],"alternates":null},"confidence":0.533621013,"operating_status":null,"addresses":[{"freeform":"","locality":"Астана","postcode":"","region":null,"country":"KZ"}],"sources":[{"property":"","dataset":"meta","license":"CDLA-Permissive-2.0","record_id":"1980413868917585","update_time":"2026-09-14T00:00:00.000Z","confidence":0.533621013,"between":null,"provider":"meta","resource":"meta","version":"2026-09-14"},{"property":"/properties/confidence","dataset":"Overture","license":"CDLA-Permissive-2.0","record_id":null,"update_time":"2026-09-17T22:52:12Z","confidence":null,"between":null,"provider":"overture","resource":"confidence_calculation","version":"2026-09-17"}],"kind":"observed_secondary"}},{"type":"Feature","id":"dfee2b19-cba4-4ba1-a119-0a5dfd6fa8dd","geometry":{"type":"Point","coordinates":[71.41988995781,51.173319189884]},"properties":{"city":"astana","k10_group":"government_office","overture_id":"dfee2b19-cba4-4ba1-a119-0a5dfd6fa8dd","overture_version":4,"name_primary":"Департамент по ЧС в г. Астана","basic_category":"government_office","taxonomy":{"primary":"government_office","hierarchy":["community_and_government","government_office"],"alternates":null},"confidence":0.7015782,"operating_status":null,"addresses":[{"freeform":"Бейбітшілік көшесі 22","locality":"Астана","postcode":"010000","region":null,"country":"KZ"}],"sources":[{"property":"","dataset":"meta","license":"CDLA-Permissive-2.0","record_id":"901177113406911","update_time":"2026-09-14T00:00:00.000Z","confidence":0.7015782,"between":null,"provider":"meta","resource":"meta","version":"2026-09-14"},{"property":"/properties/confidence","dataset":"Overture","license":"CDLA-Permissive-2.0","record_id":null,"update_time":"2026-09-17T22:52:12Z","confidence":null,"between":null,"provider":"overture","resource":"confidence_calculation","version":"2026-09-17"}],"kind":"observed_secondary"}},{"type":"Feature","id":"edcbc6d4-21d8-4e95-9662-1c7650dfd4de","geometry":{"type":"Point","coordinates":[71.433,51.16548]},"properties":{"city":"astana","k10_group":"government_office","overture_id":"edcbc6d4-21d8-4e95-9662-1c7650dfd4de","overture_version":3,"name_primary":"ТОО \"Научно-инновационный центр животноводства\"","basic_category":"government_office","taxonomy":{"primary":"government_office","hierarchy":["community_and_government","government_office"],"alternates":null},"confidence":0.577549696,"operating_status":null,"addresses":[{"freeform":"проспект Абая 36/1","locality":"Астана","postcode":"010000","region":null,"country":"KZ"}],"sources":[{"property":"","dataset":"meta","license":"CDLA-Permissive-2.0","record_id":"519234144839703","update_time":"2026-09-14T00:00:00.000Z","confidence":0.577549696,"between":null,"provider":"meta","resource":"meta","version":"2026-09-14"},{"property":"/properties/confidence","dataset":"Overture","license":"CDLA-Permissive-2.0","record_id":null,"update_time":"2026-09-17T22:52:12Z","confidence":null,"between":null,"provider":"overture","resource":"confidence_calculation","version":"2026-09-17"}],"kind":"observed_secondary"}},{"type":"Feature","id":"f10578a8-d045-4bed-b532-c21013b1bf31","geometry":{"type":"Point","coordinates":[71.425418230235,51.165725531799]},"properties":{"city":"astana","k10_group":"government_office","overture_id":"f10578a8-d045-4bed-b532-c21013b1bf31","overture_version":9,"name_primary":"Акимат района Сары-арка","basic_category":"government_office","taxonomy":{"primary":"town_hall","hierarchy":["community_and_government","government_office","town_hall"],"alternates":null},"confidence":0.465569347,"operating_status":null,"addresses":[{"freeform":"","locality":"Астана","postcode":"","region":null,"country":"KZ"}],"sources":[{"property":"","dataset":"meta","license":"CDLA-Permissive-2.0","record_id":"341381836411626","update_time":"2026-09-14T00:00:00.000Z","confidence":0.465569347,"between":null,"provider":"meta","resource":"meta","version":"2026-09-14"},{"property":"/properties/confidence","dataset":"Overture","license":"CDLA-Permissive-2.0","record_id":null,"update_time":"2026-09-17T22:52:12Z","confidence":null,"between":null,"provider":"overture","resource":"confidence_calculation","version":"2026-09-17"}],"kind":"observed_secondary"}},{"type":"Feature","id":"f14e6f12-c63a-4071-b219-acab33aad9b3","geometry":{"type":"Point","coordinates":[71.42358,51.16529]},"properties":{"city":"astana","k10_group":"government_office","overture_id":"f14e6f12-c63a-4071-b219-acab33aad9b3","overture_version":11,"name_primary":"Русский дом в Астане","basic_category":"government_office","taxonomy":{"primary":"government_office","hierarchy":["community_and_government","government_office"],"alternates":null},"confidence":0.946224988,"operating_status":null,"addresses":[{"freeform":"Кенесары көшесі 39","locality":"Астана","postcode":"010000","region":null,"country":"KZ"}],"sources":[{"property":"","dataset":"meta","license":"CDLA-Permissive-2.0","record_id":"1693792407511316","update_time":"2026-09-14T00:00:00.000Z","confidence":0.946224988,"between":null,"provider":"meta","resource":"meta","version":"2026-09-14"},{"property":"/properties/confidence","dataset":"Overture","license":"CDLA-Permissive-2.0","record_id":null,"update_time":"2026-09-17T22:52:12Z","confidence":null,"between":null,"provider":"overture","resource":"confidence_calculation","version":"2026-09-17"}],"kind":"observed_secondary"}},{"type":"Feature","id":"f313843a-b41d-44d3-8086-db329296d309","geometry":{"type":"Point","coordinates":[71.44127,51.16756]},"properties":{"city":"astana","k10_group":"hospital","overture_id":"f313843a-b41d-44d3-8086-db329296d309","overture_version":9,"name_primary":"Dar-Medicus","basic_category":"hospital","taxonomy":{"primary":"hospital","hierarchy":["health_care","hospital"],"alternates":null},"confidence":0.675442636,"operating_status":null,"addresses":[{"freeform":null,"locality":"Астана","postcode":null,"region":null,"country":"KZ"}],"sources":[{"property":"","dataset":"meta","license":"CDLA-Permissive-2.0","record_id":"451619205644059","update_time":"2026-09-14T00:00:00.000Z","confidence":0.675442636,"between":null,"provider":"meta","resource":"meta","version":"2026-09-14"},{"property":"/properties/confidence","dataset":"Overture","license":"CDLA-Permissive-2.0","record_id":null,"update_time":"2026-09-17T22:52:12Z","confidence":null,"between":null,"provider":"overture","resource":"confidence_calculation","version":"2026-09-17"}],"kind":"observed_secondary"}},{"type":"Feature","id":"f8748e3f-294d-4ce4-bad0-cc6a55ee86fd","geometry":{"type":"Point","coordinates":[71.41999,51.16683]},"properties":{"city":"astana","k10_group":"government_office","overture_id":"f8748e3f-294d-4ce4-bad0-cc6a55ee86fd","overture_version":9,"name_primary":"Астана қаласының әкімдігі/ Акимат города Астаны","basic_category":"government_office","taxonomy":{"primary":"town_hall","hierarchy":["community_and_government","government_office","town_hall"],"alternates":null},"confidence":0.925606192,"operating_status":null,"addresses":[{"freeform":"Бейбітшілік көшесі 11","locality":"Астана","postcode":"010000","region":null,"country":"KZ"}],"sources":[{"property":"","dataset":"meta","license":"CDLA-Permissive-2.0","record_id":"1505613636392231","update_time":"2026-09-14T00:00:00.000Z","confidence":0.67654866,"between":null,"provider":"meta","resource":"meta","version":"2026-09-14"},{"property":"/properties/confidence","dataset":"Overture","license":"CDLA-Permissive-2.0","record_id":null,"update_time":"2026-09-17T22:52:12Z","confidence":null,"between":null,"provider":"overture","resource":"confidence_calculation","version":"2026-09-17"}],"kind":"observed_secondary"}},{"type":"Feature","id":"f92e2a57-8dee-4068-b1bc-a1efb7ce5e2a","geometry":{"type":"Point","coordinates":[71.423143744469,51.166737212589]},"properties":{"city":"astana","k10_group":"hospital","overture_id":"f92e2a57-8dee-4068-b1bc-a1efb7ce5e2a","overture_version":8,"name_primary":"Центральный клинический госпиталь для ветеранов Отечественной войны","basic_category":"hospital","taxonomy":{"primary":"hospital","hierarchy":["health_care","hospital"],"alternates":null},"confidence":0.695607424,"operating_status":null,"addresses":[{"freeform":"улица Алихана Бокейханова 30","locality":"Астана","postcode":"010000","region":null,"country":"KZ"}],"sources":[{"property":"","dataset":"meta","license":"CDLA-Permissive-2.0","record_id":"693300354198001","update_time":"2026-09-14T00:00:00.000Z","confidence":0.695607424,"between":null,"provider":"meta","resource":"meta","version":"2026-09-14"},{"property":"/properties/confidence","dataset":"Overture","license":"CDLA-Permissive-2.0","record_id":null,"update_time":"2026-09-17T22:52:12Z","confidence":null,"between":null,"provider":"overture","resource":"confidence_calculation","version":"2026-09-17"}],"kind":"observed_secondary"}},{"type":"Feature","id":"f9a12dd1-c316-43c7-aa9a-10243fb98410","geometry":{"type":"Point","coordinates":[71.42020628,51.16823017]},"properties":{"city":"astana","k10_group":"college_university","overture_id":"f9a12dd1-c316-43c7-aa9a-10243fb98410","overture_version":9,"name_primary":"Қазақстан Республикасы Президентінің жанындағы Мемлекеттік басқару академиясы","basic_category":"college_university","taxonomy":{"primary":"college_university","hierarchy":["education","place_of_learning","college_university"],"alternates":null},"confidence":0.509436548,"operating_status":null,"addresses":[{"freeform":"Beibitshilik St","locality":"Астана","postcode":"010000","region":null,"country":"KZ"}],"sources":[{"property":"","dataset":"meta","license":"CDLA-Permissive-2.0","record_id":"828775220811913","update_time":"2026-09-14T00:00:00.000Z","confidence":0.509436548,"between":null,"provider":"meta","resource":"meta","version":"2026-09-14"},{"property":"/properties/confidence","dataset":"Overture","license":"CDLA-Permissive-2.0","record_id":null,"update_time":"2026-09-17T22:52:12Z","confidence":null,"between":null,"provider":"overture","resource":"confidence_calculation","version":"2026-09-17"}],"kind":"observed_secondary"}},{"type":"Feature","id":"fbc355f9-d21d-48d3-8e9a-461926d7ffaf","geometry":{"type":"Point","coordinates":[71.4405108,51.1659037]},"properties":{"city":"astana","k10_group":"hospital","overture_id":"fbc355f9-d21d-48d3-8e9a-461926d7ffaf","overture_version":11,"name_primary":"Академия Ортопедии","basic_category":"hospital","taxonomy":{"primary":"hospital","hierarchy":["health_care","hospital"],"alternates":null},"confidence":0.869759619,"operating_status":null,"addresses":[{"freeform":"ул. Валиханова, 12","locality":"Астана","postcode":"010000","region":null,"country":"KZ"}],"sources":[{"property":"","dataset":"meta","license":"CDLA-Permissive-2.0","record_id":"1492415844370411","update_time":"2026-09-14T00:00:00.000Z","confidence":0.869759619,"between":null,"provider":"meta","resource":"meta","version":"2026-09-14"},{"property":"/properties/confidence","dataset":"Overture","license":"CDLA-Permissive-2.0","record_id":null,"update_time":"2026-09-17T22:52:12Z","confidence":null,"between":null,"provider":"overture","resource":"confidence_calculation","version":"2026-09-17"}],"kind":"observed_secondary"}},{"type":"Feature","id":"fcdc8d2f-41ff-42ea-99fe-726d7d844050","geometry":{"type":"Point","coordinates":[71.43546054,51.1797763]},"properties":{"city":"astana","k10_group":"outpatient_clinic","overture_id":"fcdc8d2f-41ff-42ea-99fe-726d7d844050","overture_version":12,"name_primary":"Visa Dent","basic_category":"dental_clinic","taxonomy":{"primary":"dental_clinic","hierarchy":["health_care","outpatient_care_facility","dental_clinic"],"alternates":null},"confidence":0.58417052,"operating_status":null,"addresses":[{"freeform":"020000, Shokan Valikhanov Street 27","locality":"Астана","postcode":"010000","region":null,"country":"KZ"}],"sources":[{"property":"","dataset":"meta","license":"CDLA-Permissive-2.0","record_id":"103873835494337","update_time":"2026-09-14T00:00:00.000Z","confidence":0.58417052,"between":null,"provider":"meta","resource":"meta","version":"2026-09-14"},{"property":"/properties/confidence","dataset":"Overture","license":"CDLA-Permissive-2.0","record_id":null,"update_time":"2026-09-17T22:52:12Z","confidence":null,"between":null,"provider":"overture","resource":"confidence_calculation","version":"2026-09-17"}],"kind":"observed_secondary"}}]}